<?xml version='1.0' encoding='utf-8'?>
<q:quakeml xmlns="http://quakeml.org/xmlns/bed/1.2" xmlns:q="http://quakeml.org/xmlns/quakeml/1.2" xmlns:ns0="http://anss.org/xmlns/catalog/0.1">
  <eventParameters publicID="smi:local/7b54b276-4492-46e3-9ffe-ea17e6b959c8">
    <event publicID="quakeml:service.scedc.caltech.edu/fdsnws/event/1/query?eventid=37694236" ns0:datasource="ci" ns0:dataid="ci37694236" ns0:eventsource="ci" ns0:eventid="37694236">
      <preferredOriginID>quakeml:service.scedc.caltech.edu/fdsnws/event/1/query?originid=108875092</preferredOriginID>
      <preferredMagnitudeID>quakeml:service.scedc.caltech.edu/fdsnws/event/1/query?magnitudeid=111261028</preferredMagnitudeID>
      <type>earthquake</type>
      <creationInfo>
        <agencyID>CI</agencyID>
        <agencyURI>quakeml:doi.org/10.7909/C3WD3xH1</agencyURI>
        <creationTime>2025-01-13T18:12:30.000000Z</creationTime>
        <version>2</version>
      </creationInfo>
      <origin publicID="quakeml:service.scedc.caltech.edu/fdsnws/event/1/query?originid=108875092" ns0:datasource="ci" ns0:dataid="ci37694236" ns0:eventsource="ci" ns0:eventid="37694236">
        <time>
          <value>2025-01-11T23:51:40.610000Z</value>
        </time>
        <latitude>
          <value>33.0971667</value>
        </latitude>
        <longitude>
          <value>-115.572</value>
        </longitude>
        <depth>
          <value>6740.0</value>
          <uncertainty>560.0</uncertainty>
        </depth>
        <depthType>from location</depthType>
        <timeFixed>false</timeFixed>
        <epicenterFixed>false</epicenterFixed>
        <methodID>smi:ci.anss.org/origin/HYP2000</methodID>
        <quality>
          <associatedPhaseCount>26</associatedPhaseCount>
          <usedPhaseCount>24</usedPhaseCount>
          <associatedStationCount>17</associatedStationCount>
          <usedStationCount>17</usedStationCount>
          <standardError>0.18</standardError>
          <azimuthalGap>90.0</azimuthalGap>
          <secondaryAzimuthalGap>392.0</secondaryAzimuthalGap>
          <minimumDistance>0.02485</minimumDistance>
          <maximumDistance>0.7155</maximumDistance>
          <medianDistance>0.3488</medianDistance>
        </quality>
        <type>hypocenter</type>
        <evaluationMode>manual</evaluationMode>
        <evaluationStatus>final</evaluationStatus>
        <creationInfo>
          <agencyID>CI</agencyID>
          <creationTime>2025-01-13T18:12:30.000000Z</creationTime>
        </creationInfo>
        <originUncertainty>
          <preferredDescription>confidence ellipsoid</preferredDescription>
          <horizontalUncertainty>310.0</horizontalUncertainty>
          <confidenceLevel>95.0</confidenceLevel>
          <confidenceEllipsoid>
            <semiMajorAxisLength>1392.0</semiMajorAxisLength>
            <semiMinorAxisLength>672.0</semiMinorAxisLength>
            <semiIntermediateAxisLength>768.0</semiIntermediateAxisLength>
            <majorAxisPlunge>72.0</majorAxisPlunge>
            <majorAxisAzimuth>46.0</majorAxisAzimuth>
            <majorAxisRotation>325.0</majorAxisRotation>
          </confidenceEllipsoid>
        </originUncertainty>
        <arrival publicID="quakeml:service.scedc.caltech.edu/fdsnws/event/1/query?assocaro=424315252">
          <pickID>quakeml:service.scedc.caltech.edu/fdsnws/event/1/query?assocaro=424315252</pickID>
          <phase>P</phase>
          <timeCorrection>0.0</timeCorrection>
          <azimuth>344.1</azimuth>
          <distance>0.02485</distance>
          <takeoffAngle>
            <value>154.0</value>
          </takeoffAngle>
          <timeResidual>0.23</timeResidual>
          <timeWeight>0.14</timeWeight>
          <creationInfo>
            <agencyID>CI</agencyID>
            <creationTime>2025-01-13T18:12:30.000000Z</creationTime>
          </creationInfo>
        </arrival>
        <arrival publicID="quakeml:service.scedc.caltech.edu/fdsnws/event/1/query?assocaro=424315260">
          <pickID>quakeml:service.scedc.caltech.edu/fdsnws/event/1/query?assocaro=424315260</pickID>
          <phase>S</phase>
          <timeCorrection>0.0</timeCorrection>
          <azimuth>344.1</azimuth>
          <distance>0.02485</distance>
          <takeoffAngle>
            <value>154.0</value>
          </takeoffAngle>
          <timeResidual>1.61</timeResidual>
          <timeWeight>0.0</timeWeight>
          <creationInfo>
            <agencyID>CI</agencyID>
            <creationTime>2025-01-13T18:12:30.000000Z</creationTime>
          </creationInfo>
        </arrival>
        <arrival publicID="quakeml:service.scedc.caltech.edu/fdsnws/event/1/query?assocaro=424315268">
          <pickID>quakeml:service.scedc.caltech.edu/fdsnws/event/1/query?assocaro=424315268</pickID>
          <phase>P</phase>
          <timeCorrection>0.37</timeCorrection>
          <azimuth>89.3</azimuth>
          <distance>0.03475</distance>
          <takeoffAngle>
            <value>145.0</value>
          </takeoffAngle>
          <timeResidual>-0.05</timeResidual>
          <timeWeight>0.2</timeWeight>
          <creationInfo>
            <agencyID>CI</agencyID>
            <creationTime>2025-01-13T18:12:30.000000Z</creationTime>
          </creationInfo>
        </arrival>
        <arrival publicID="quakeml:service.scedc.caltech.edu/fdsnws/event/1/query?assocaro=424315276">
          <pickID>quakeml:service.scedc.caltech.edu/fdsnws/event/1/query?assocaro=424315276</pickID>
          <phase>S</phase>
          <timeCorrection>0.78</timeCorrection>
          <azimuth>89.3</azimuth>
          <distance>0.03475</distance>
          <takeoffAngle>
            <value>145.0</value>
          </takeoffAngle>
          <timeResidual>0.77</timeResidual>
          <timeWeight>0.0</timeWeight>
          <creationInfo>
            <agencyID>CI</agencyID>
            <creationTime>2025-01-13T18:12:30.000000Z</creationTime>
          </creationInfo>
        </arrival>
        <arrival publicID="quakeml:service.scedc.caltech.edu/fdsnws/event/1/query?assocaro=424315284">
          <pickID>quakeml:service.scedc.caltech.edu/fdsnws/event/1/query?assocaro=424315284</pickID>
          <phase>P</phase>
          <timeCorrection>0.33</timeCorrection>
          <azimuth>188.0</azimuth>
          <distance>0.05933</distance>
          <takeoffAngle>
            <value>128.0</value>
          </takeoffAngle>
          <timeResidual>-0.1</timeResidual>
          <timeWeight>0.2</timeWeight>
          <creationInfo>
            <agencyID>CI</agencyID>
            <creationTime>2025-01-13T18:12:30.000000Z</creationTime>
          </creationInfo>
        </arrival>
        <arrival publicID="quakeml:service.scedc.caltech.edu/fdsnws/event/1/query?assocaro=424315292">
          <pickID>quakeml:service.scedc.caltech.edu/fdsnws/event/1/query?assocaro=424315292</pickID>
          <phase>S</phase>
          <timeCorrection>0.0</timeCorrection>
          <azimuth>188.0</azimuth>
          <distance>0.05933</distance>
          <takeoffAngle>
            <value>128.0</value>
          </takeoffAngle>
          <timeResidual>1.63</timeResidual>
          <timeWeight>0.0</timeWeight>
          <creationInfo>
            <agencyID>CI</agencyID>
            <creationTime>2025-01-13T18:12:30.000000Z</creationTime>
          </creationInfo>
        </arrival>
        <arrival publicID="quakeml:service.scedc.caltech.edu/fdsnws/event/1/query?assocaro=424315300">
          <pickID>quakeml:service.scedc.caltech.edu/fdsnws/event/1/query?assocaro=424315300</pickID>
          <phase>P</phase>
          <timeCorrection>0.25</timeCorrection>
          <azimuth>335.5</azimuth>
          <distance>0.08806</distance>
          <takeoffAngle>
            <value>114.0</value>
          </takeoffAngle>
          <timeResidual>-0.13</timeResidual>
          <timeWeight>0.14</timeWeight>
          <creationInfo>
            <agencyID>CI</agencyID>
            <creationTime>2025-01-13T18:12:30.000000Z</creationTime>
          </creationInfo>
        </arrival>
        <arrival publicID="quakeml:service.scedc.caltech.edu/fdsnws/event/1/query?assocaro=424315308">
          <pickID>quakeml:service.scedc.caltech.edu/fdsnws/event/1/query?assocaro=424315308</pickID>
          <phase>S</phase>
          <timeCorrection>0.49</timeCorrection>
          <azimuth>335.5</azimuth>
          <distance>0.08806</distance>
          <takeoffAngle>
            <value>113.0</value>
          </takeoffAngle>
          <timeResidual>0.17</timeResidual>
          <timeWeight>0.07</timeWeight>
          <creationInfo>
            <agencyID>CI</agencyID>
            <creationTime>2025-01-13T18:12:30.000000Z</creationTime>
          </creationInfo>
        </arrival>
        <arrival publicID="quakeml:service.scedc.caltech.edu/fdsnws/event/1/query?assocaro=424315316">
          <pickID>quakeml:service.scedc.caltech.edu/fdsnws/event/1/query?assocaro=424315316</pickID>
          <phase>P</phase>
          <timeCorrection>0.28</timeCorrection>
          <azimuth>358.2</azimuth>
          <distance>0.1813</distance>
          <takeoffAngle>
            <value>94.0</value>
          </takeoffAngle>
          <timeResidual>-0.11</timeResidual>
          <timeWeight>0.14</timeWeight>
          <creationInfo>
            <agencyID>CI</agencyID>
            <creationTime>2025-01-13T18:12:30.000000Z</creationTime>
          </creationInfo>
        </arrival>
        <arrival publicID="quakeml:service.scedc.caltech.edu/fdsnws/event/1/query?assocaro=424315324">
          <pickID>quakeml:service.scedc.caltech.edu/fdsnws/event/1/query?assocaro=424315324</pickID>
          <phase>S</phase>
          <timeCorrection>0.0</timeCorrection>
          <azimuth>358.2</azimuth>
          <distance>0.1813</distance>
          <takeoffAngle>
            <value>94.0</value>
          </takeoffAngle>
          <timeResidual>1.21</timeResidual>
          <timeWeight>0.03</timeWeight>
          <creationInfo>
            <agencyID>CI</agencyID>
            <creationTime>2025-01-13T18:12:30.000000Z</creationTime>
          </creationInfo>
        </arrival>
        <arrival publicID="quakeml:service.scedc.caltech.edu/fdsnws/event/1/query?assocaro=424315332">
          <pickID>quakeml:service.scedc.caltech.edu/fdsnws/event/1/query?assocaro=424315332</pickID>
          <phase>P</phase>
          <timeCorrection>0.27</timeCorrection>
          <azimuth>177.2</azimuth>
          <distance>0.1954</distance>
          <takeoffAngle>
            <value>94.0</value>
          </takeoffAngle>
          <timeResidual>0.35</timeResidual>
          <timeWeight>0.14</timeWeight>
          <creationInfo>
            <agencyID>CI</agencyID>
            <creationTime>2025-01-13T18:12:30.000000Z</creationTime>
          </creationInfo>
        </arrival>
        <arrival publicID="quakeml:service.scedc.caltech.edu/fdsnws/event/1/query?assocaro=424315340">
          <pickID>quakeml:service.scedc.caltech.edu/fdsnws/event/1/query?assocaro=424315340</pickID>
          <phase>S</phase>
          <timeCorrection>0.6</timeCorrection>
          <azimuth>177.2</azimuth>
          <distance>0.1954</distance>
          <takeoffAngle>
            <value>94.0</value>
          </takeoffAngle>
          <timeResidual>1.26</timeResidual>
          <timeWeight>0.0</timeWeight>
          <creationInfo>
            <agencyID>CI</agencyID>
            <creationTime>2025-01-13T18:12:30.000000Z</creationTime>
          </creationInfo>
        </arrival>
        <arrival publicID="quakeml:service.scedc.caltech.edu/fdsnws/event/1/query?assocaro=424315348">
          <pickID>quakeml:service.scedc.caltech.edu/fdsnws/event/1/query?assocaro=424315348</pickID>
          <phase>P</phase>
          <timeCorrection>0.39</timeCorrection>
          <azimuth>275.3</azimuth>
          <distance>0.2113</distance>
          <takeoffAngle>
            <value>93.0</value>
          </takeoffAngle>
          <timeResidual>0.09</timeResidual>
          <timeWeight>0.14</timeWeight>
          <creationInfo>
            <agencyID>CI</agencyID>
            <creationTime>2025-01-13T18:12:30.000000Z</creationTime>
          </creationInfo>
        </arrival>
        <arrival publicID="quakeml:service.scedc.caltech.edu/fdsnws/event/1/query?assocaro=424315356">
          <pickID>quakeml:service.scedc.caltech.edu/fdsnws/event/1/query?assocaro=424315356</pickID>
          <phase>P</phase>
          <timeCorrection>0.04</timeCorrection>
          <azimuth>231.5</azimuth>
          <distance>0.2442</distance>
          <takeoffAngle>
            <value>92.0</value>
          </takeoffAngle>
          <timeResidual>-0.3</timeResidual>
          <timeWeight>0.14</timeWeight>
          <creationInfo>
            <agencyID>CI</agencyID>
            <creationTime>2025-01-13T18:12:30.000000Z</creationTime>
          </creationInfo>
        </arrival>
        <arrival publicID="quakeml:service.scedc.caltech.edu/fdsnws/event/1/query?assocaro=424315364">
          <pickID>quakeml:service.scedc.caltech.edu/fdsnws/event/1/query?assocaro=424315364</pickID>
          <phase>S</phase>
          <timeCorrection>-0.03</timeCorrection>
          <azimuth>231.5</azimuth>
          <distance>0.2442</distance>
          <takeoffAngle>
            <value>92.0</value>
          </takeoffAngle>
          <timeResidual>0.02</timeResidual>
          <timeWeight>0.07</timeWeight>
          <creationInfo>
            <agencyID>CI</agencyID>
            <creationTime>2025-01-13T18:12:30.000000Z</creationTime>
          </creationInfo>
        </arrival>
        <arrival publicID="quakeml:service.scedc.caltech.edu/fdsnws/event/1/query?assocaro=424315372">
          <pickID>quakeml:service.scedc.caltech.edu/fdsnws/event/1/query?assocaro=424315372</pickID>
          <phase>S</phase>
          <timeCorrection>0.0</timeCorrection>
          <azimuth>282.8</azimuth>
          <distance>0.3488</distance>
          <takeoffAngle>
            <value>91.0</value>
          </takeoffAngle>
          <timeResidual>-0.11</timeResidual>
          <timeWeight>0.07</timeWeight>
          <creationInfo>
            <agencyID>CI</agencyID>
            <creationTime>2025-01-13T18:12:30.000000Z</creationTime>
          </creationInfo>
        </arrival>
        <arrival publicID="quakeml:service.scedc.caltech.edu/fdsnws/event/1/query?assocaro=424315380">
          <pickID>quakeml:service.scedc.caltech.edu/fdsnws/event/1/query?assocaro=424315380</pickID>
          <phase>P</phase>
          <timeCorrection>0.0</timeCorrection>
          <azimuth>282.8</azimuth>
          <distance>0.3488</distance>
          <takeoffAngle>
            <value>91.0</value>
          </takeoffAngle>
          <timeResidual>0.08</timeResidual>
          <timeWeight>0.14</timeWeight>
          <creationInfo>
            <agencyID>CI</agencyID>
            <creationTime>2025-01-13T18:12:30.000000Z</creationTime>
          </creationInfo>
        </arrival>
        <arrival publicID="quakeml:service.scedc.caltech.edu/fdsnws/event/1/query?assocaro=424315388">
          <pickID>quakeml:service.scedc.caltech.edu/fdsnws/event/1/query?assocaro=424315388</pickID>
          <phase>S</phase>
          <timeCorrection>-0.04</timeCorrection>
          <azimuth>237.8</azimuth>
          <distance>0.3942</distance>
          <takeoffAngle>
            <value>91.0</value>
          </takeoffAngle>
          <timeResidual>0.04</timeResidual>
          <timeWeight>0.07</timeWeight>
          <creationInfo>
            <agencyID>CI</agencyID>
            <creationTime>2025-01-13T18:12:30.000000Z</creationTime>
          </creationInfo>
        </arrival>
        <arrival publicID="quakeml:service.scedc.caltech.edu/fdsnws/event/1/query?assocaro=424315396">
          <pickID>quakeml:service.scedc.caltech.edu/fdsnws/event/1/query?assocaro=424315396</pickID>
          <phase>P</phase>
          <timeCorrection>0.26</timeCorrection>
          <azimuth>121.7</azimuth>
          <distance>0.4433</distance>
          <takeoffAngle>
            <value>79.0</value>
          </takeoffAngle>
          <timeResidual>0.17</timeResidual>
          <timeWeight>0.14</timeWeight>
          <creationInfo>
            <agencyID>CI</agencyID>
            <creationTime>2025-01-13T18:12:30.000000Z</creationTime>
          </creationInfo>
        </arrival>
        <arrival publicID="quakeml:service.scedc.caltech.edu/fdsnws/event/1/query?assocaro=424315404">
          <pickID>quakeml:service.scedc.caltech.edu/fdsnws/event/1/query?assocaro=424315404</pickID>
          <phase>S</phase>
          <timeCorrection>0.0</timeCorrection>
          <azimuth>235.4</azimuth>
          <distance>0.5364</distance>
          <takeoffAngle>
            <value>79.0</value>
          </takeoffAngle>
          <timeResidual>0.24</timeResidual>
          <timeWeight>0.07</timeWeight>
          <creationInfo>
            <agencyID>CI</agencyID>
            <creationTime>2025-01-13T18:12:30.000000Z</creationTime>
          </creationInfo>
        </arrival>
        <arrival publicID="quakeml:service.scedc.caltech.edu/fdsnws/event/1/query?assocaro=424315412">
          <pickID>quakeml:service.scedc.caltech.edu/fdsnws/event/1/query?assocaro=424315412</pickID>
          <phase>S</phase>
          <timeCorrection>-0.27</timeCorrection>
          <azimuth>213.3</azimuth>
          <distance>0.5366</distance>
          <takeoffAngle>
            <value>79.0</value>
          </takeoffAngle>
          <timeResidual>0.26</timeResidual>
          <timeWeight>0.07</timeWeight>
          <creationInfo>
            <agencyID>CI</agencyID>
            <creationTime>2025-01-13T18:12:30.000000Z</creationTime>
          </creationInfo>
        </arrival>
        <arrival publicID="quakeml:service.scedc.caltech.edu/fdsnws/event/1/query?assocaro=424315420">
          <pickID>quakeml:service.scedc.caltech.edu/fdsnws/event/1/query?assocaro=424315420</pickID>
          <phase>S</phase>
          <timeCorrection>0.0</timeCorrection>
          <azimuth>133.9</azimuth>
          <distance>0.5597</distance>
          <takeoffAngle>
            <value>79.0</value>
          </takeoffAngle>
          <timeResidual>-0.2</timeResidual>
          <timeWeight>0.07</timeWeight>
          <creationInfo>
            <agencyID>CI</agencyID>
            <creationTime>2025-01-13T18:12:30.000000Z</creationTime>
          </creationInfo>
        </arrival>
        <arrival publicID="quakeml:service.scedc.caltech.edu/fdsnws/event/1/query?assocaro=424315428">
          <pickID>quakeml:service.scedc.caltech.edu/fdsnws/event/1/query?assocaro=424315428</pickID>
          <phase>S</phase>
          <timeCorrection>0.0</timeCorrection>
          <azimuth>293.5</azimuth>
          <distance>0.6724</distance>
          <takeoffAngle>
            <value>79.0</value>
          </takeoffAngle>
          <timeResidual>-0.45</timeResidual>
          <timeWeight>0.07</timeWeight>
          <creationInfo>
            <agencyID>CI</agencyID>
            <creationTime>2025-01-13T18:12:30.000000Z</creationTime>
          </creationInfo>
        </arrival>
        <arrival publicID="quakeml:service.scedc.caltech.edu/fdsnws/event/1/query?assocaro=424315436">
          <pickID>quakeml:service.scedc.caltech.edu/fdsnws/event/1/query?assocaro=424315436</pickID>
          <phase>P</phase>
          <timeCorrection>0.0</timeCorrection>
          <azimuth>110.7</azimuth>
          <distance>0.7084</distance>
          <takeoffAngle>
            <value>79.0</value>
          </takeoffAngle>
          <timeResidual>-0.14</timeResidual>
          <timeWeight>0.14</timeWeight>
          <creationInfo>
            <agencyID>CI</agencyID>
            <creationTime>2025-01-13T18:12:30.000000Z</creationTime>
          </creationInfo>
        </arrival>
        <arrival publicID="quakeml:service.scedc.caltech.edu/fdsnws/event/1/query?assocaro=424315444">
