<?xml version='1.0' encoding='utf-8'?>
<q:quakeml xmlns="http://quakeml.org/xmlns/bed/1.2" xmlns:q="http://quakeml.org/xmlns/quakeml/1.2" xmlns:ns0="http://anss.org/xmlns/catalog/0.1">
  <eventParameters publicID="smi:local/92da2d7d-5154-40c9-9bcb-7a2c7423a3c4">
    <event publicID="quakeml:service.scedc.caltech.edu/fdsnws/event/1/query?eventid=40831735" ns0:datasource="ci" ns0:dataid="ci40831735" ns0:eventsource="ci" ns0:eventid="40831735">
      <preferredOriginID>quakeml:service.scedc.caltech.edu/fdsnws/event/1/query?originid=108882188</preferredOriginID>
      <preferredMagnitudeID>quakeml:service.scedc.caltech.edu/fdsnws/event/1/query?magnitudeid=111268164</preferredMagnitudeID>
      <type>earthquake</type>
      <creationInfo>
        <agencyID>CI</agencyID>
        <agencyURI>quakeml:doi.org/10.7909/C3WD3xH1</agencyURI>
        <creationTime>2025-02-05T18:46:06.000000Z</creationTime>
        <version>7</version>
      </creationInfo>
      <origin publicID="quakeml:service.scedc.caltech.edu/fdsnws/event/1/query?originid=108882188" ns0:datasource="ci" ns0:dataid="ci40831735" ns0:eventsource="ci" ns0:eventid="40831735">
        <time>
          <value>2025-01-01T19:55:59.230000Z</value>
        </time>
        <latitude>
          <value>34.2723333</value>
        </latitude>
        <longitude>
          <value>-117.6101667</value>
        </longitude>
        <depth>
          <value>11490.0</value>
          <uncertainty>360.0</uncertainty>
        </depth>
        <depthType>from location</depthType>
        <timeFixed>false</timeFixed>
        <epicenterFixed>false</epicenterFixed>
        <methodID>smi:ci.anss.org/origin/HYP2000</methodID>
        <quality>
          <associatedPhaseCount>66</associatedPhaseCount>
          <usedPhaseCount>66</usedPhaseCount>
          <associatedStationCount>41</associatedStationCount>
          <usedStationCount>41</usedStationCount>
          <standardError>0.18</standardError>
          <azimuthalGap>62.0</azimuthalGap>
          <secondaryAzimuthalGap>377.0</secondaryAzimuthalGap>
          <minimumDistance>0.05217</minimumDistance>
          <maximumDistance>0.891</maximumDistance>
          <medianDistance>0.3744</medianDistance>
        </quality>
        <type>hypocenter</type>
        <evaluationMode>manual</evaluationMode>
        <evaluationStatus>final</evaluationStatus>
        <creationInfo>
          <agencyID>CI</agencyID>
          <creationTime>2025-02-05T18:46:06.000000Z</creationTime>
        </creationInfo>
        <originUncertainty>
          <preferredDescription>confidence ellipsoid</preferredDescription>
          <horizontalUncertainty>260.0</horizontalUncertainty>
          <confidenceLevel>95.0</confidenceLevel>
          <confidenceEllipsoid>
            <semiMajorAxisLength>864.0</semiMajorAxisLength>
            <semiMinorAxisLength>360.0</semiMinorAxisLength>
            <semiIntermediateAxisLength>624.0</semiIntermediateAxisLength>
            <majorAxisPlunge>86.0</majorAxisPlunge>
            <majorAxisAzimuth>233.0</majorAxisAzimuth>
            <majorAxisRotation>2.0</majorAxisRotation>
          </confidenceEllipsoid>
        </originUncertainty>
        <arrival publicID="quakeml:service.scedc.caltech.edu/fdsnws/event/1/query?assocaro=144462015">
          <pickID>quakeml:service.scedc.caltech.edu/fdsnws/event/1/query?assocaro=144462015</pickID>
          <phase>S</phase>
          <timeCorrection>-0.2</timeCorrection>
          <azimuth>228.2</azimuth>
          <distance>0.09318</distance>
          <takeoffAngle>
            <value>137.0</value>
          </takeoffAngle>
          <timeResidual>0.06</timeResidual>
          <timeWeight>0.07</timeWeight>
          <creationInfo>
            <agencyID>CI</agencyID>
            <creationTime>2025-02-05T18:46:06.000000Z</creationTime>
          </creationInfo>
        </arrival>
        <arrival publicID="quakeml:service.scedc.caltech.edu/fdsnws/event/1/query?assocaro=266197357">
          <pickID>quakeml:service.scedc.caltech.edu/fdsnws/event/1/query?assocaro=266197357</pickID>
          <phase>P</phase>
          <timeCorrection>-0.17</timeCorrection>
          <azimuth>230.0</azimuth>
          <distance>0.05217</distance>
          <takeoffAngle>
            <value>153.0</value>
          </takeoffAngle>
          <timeResidual>-0.08</timeResidual>
          <timeWeight>0.27</timeWeight>
          <creationInfo>
            <agencyID>CI</agencyID>
            <creationTime>2025-02-05T18:46:06.000000Z</creationTime>
          </creationInfo>
        </arrival>
        <arrival publicID="quakeml:service.scedc.caltech.edu/fdsnws/event/1/query?assocaro=266197365">
          <pickID>quakeml:service.scedc.caltech.edu/fdsnws/event/1/query?assocaro=266197365</pickID>
          <phase>S</phase>
          <timeCorrection>-0.35</timeCorrection>
          <azimuth>230.0</azimuth>
          <distance>0.05217</distance>
          <takeoffAngle>
            <value>153.0</value>
          </takeoffAngle>
          <timeResidual>-0.03</timeResidual>
          <timeWeight>0.1</timeWeight>
          <creationInfo>
            <agencyID>CI</agencyID>
            <creationTime>2025-02-05T18:46:06.000000Z</creationTime>
          </creationInfo>
        </arrival>
        <arrival publicID="quakeml:service.scedc.caltech.edu/fdsnws/event/1/query?assocaro=266197373">
          <pickID>quakeml:service.scedc.caltech.edu/fdsnws/event/1/query?assocaro=266197373</pickID>
          <phase>P</phase>
          <timeCorrection>0.0</timeCorrection>
          <azimuth>125.2</azimuth>
          <distance>0.112</distance>
          <takeoffAngle>
            <value>131.0</value>
          </takeoffAngle>
          <timeResidual>0.05</timeResidual>
          <timeWeight>0.27</timeWeight>
          <creationInfo>
            <agencyID>CI</agencyID>
            <creationTime>2025-02-05T18:46:06.000000Z</creationTime>
          </creationInfo>
        </arrival>
        <arrival publicID="quakeml:service.scedc.caltech.edu/fdsnws/event/1/query?assocaro=266197381">
          <pickID>quakeml:service.scedc.caltech.edu/fdsnws/event/1/query?assocaro=266197381</pickID>
          <phase>S</phase>
          <timeCorrection>0.0</timeCorrection>
          <azimuth>125.2</azimuth>
          <distance>0.112</distance>
          <takeoffAngle>
            <value>131.0</value>
          </takeoffAngle>
          <timeResidual>0.44</timeResidual>
          <timeWeight>0.07</timeWeight>
          <creationInfo>
            <agencyID>CI</agencyID>
            <creationTime>2025-02-05T18:46:06.000000Z</creationTime>
          </creationInfo>
        </arrival>
        <arrival publicID="quakeml:service.scedc.caltech.edu/fdsnws/event/1/query?assocaro=266197397">
          <pickID>quakeml:service.scedc.caltech.edu/fdsnws/event/1/query?assocaro=266197397</pickID>
          <phase>S</phase>
          <timeCorrection>-0.28</timeCorrection>
          <azimuth>332.9</azimuth>
          <distance>0.1231</distance>
          <takeoffAngle>
            <value>128.0</value>
          </takeoffAngle>
          <timeResidual>0.36</timeResidual>
          <timeWeight>0.07</timeWeight>
          <creationInfo>
            <agencyID>CI</agencyID>
            <creationTime>2025-02-05T18:46:06.000000Z</creationTime>
          </creationInfo>
        </arrival>
        <arrival publicID="quakeml:service.scedc.caltech.edu/fdsnws/event/1/query?assocaro=266197413">
          <pickID>quakeml:service.scedc.caltech.edu/fdsnws/event/1/query?assocaro=266197413</pickID>
          <phase>S</phase>
          <timeCorrection>-0.11</timeCorrection>
          <azimuth>188.7</azimuth>
          <distance>0.153</distance>
          <takeoffAngle>
            <value>120.0</value>
          </takeoffAngle>
          <timeResidual>0.25</timeResidual>
          <timeWeight>0.07</timeWeight>
          <creationInfo>
            <agencyID>CI</agencyID>
            <creationTime>2025-02-05T18:46:06.000000Z</creationTime>
          </creationInfo>
        </arrival>
        <arrival publicID="quakeml:service.scedc.caltech.edu/fdsnws/event/1/query?assocaro=266197429">
          <pickID>quakeml:service.scedc.caltech.edu/fdsnws/event/1/query?assocaro=266197429</pickID>
          <phase>S</phase>
          <timeCorrection>0.0</timeCorrection>
          <azimuth>158.7</azimuth>
          <distance>0.1601</distance>
          <takeoffAngle>
            <value>119.0</value>
          </takeoffAngle>
          <timeResidual>0.1</timeResidual>
          <timeWeight>0.1</timeWeight>
          <creationInfo>
            <agencyID>CI</agencyID>
            <creationTime>2025-02-05T18:46:06.000000Z</creationTime>
          </creationInfo>
        </arrival>
        <arrival publicID="quakeml:service.scedc.caltech.edu/fdsnws/event/1/query?assocaro=266197445">
          <pickID>quakeml:service.scedc.caltech.edu/fdsnws/event/1/query?assocaro=266197445</pickID>
          <phase>P</phase>
          <timeCorrection>0.04</timeCorrection>
          <azimuth>65.0</azimuth>
          <distance>0.2219</distance>
          <takeoffAngle>
            <value>109.0</value>
          </takeoffAngle>
          <timeResidual>0.2</timeResidual>
          <timeWeight>0.07</timeWeight>
          <creationInfo>
            <agencyID>CI</agencyID>
            <creationTime>2025-02-05T18:46:06.000000Z</creationTime>
          </creationInfo>
        </arrival>
        <arrival publicID="quakeml:service.scedc.caltech.edu/fdsnws/event/1/query?assocaro=266197469">
          <pickID>quakeml:service.scedc.caltech.edu/fdsnws/event/1/query?assocaro=266197469</pickID>
          <phase>P</phase>
          <timeCorrection>-0.05</timeCorrection>
          <azimuth>243.9</azimuth>
          <distance>0.2397</distance>
          <takeoffAngle>
            <value>107.0</value>
          </takeoffAngle>
          <timeResidual>-0.02</timeResidual>
          <timeWeight>0.13</timeWeight>
          <creationInfo>
            <agencyID>CI</agencyID>
            <creationTime>2025-02-05T18:46:06.000000Z</creationTime>
          </creationInfo>
        </arrival>
        <arrival publicID="quakeml:service.scedc.caltech.edu/fdsnws/event/1/query?assocaro=266197477">
          <pickID>quakeml:service.scedc.caltech.edu/fdsnws/event/1/query?assocaro=266197477</pickID>
          <phase>S</phase>
          <timeCorrection>-0.2</timeCorrection>
          <azimuth>243.9</azimuth>
          <distance>0.2397</distance>
          <takeoffAngle>
            <value>107.0</value>
          </takeoffAngle>
          <timeResidual>0.45</timeResidual>
          <timeWeight>0.07</timeWeight>
          <creationInfo>
            <agencyID>CI</agencyID>
            <creationTime>2025-02-05T18:46:06.000000Z</creationTime>
          </creationInfo>
        </arrival>
        <arrival publicID="quakeml:service.scedc.caltech.edu/fdsnws/event/1/query?assocaro=266197493">
          <pickID>quakeml:service.scedc.caltech.edu/fdsnws/event/1/query?assocaro=266197493</pickID>
          <phase>S</phase>
          <timeCorrection>-0.35</timeCorrection>
          <azimuth>313.8</azimuth>
          <distance>0.2688</distance>
          <takeoffAngle>
            <value>103.0</value>
          </takeoffAngle>
          <timeResidual>0.08</timeResidual>
          <timeWeight>0.07</timeWeight>
          <creationInfo>
            <agencyID>CI</agencyID>
            <creationTime>2025-02-05T18:46:06.000000Z</creationTime>
          </creationInfo>
        </arrival>
        <arrival publicID="quakeml:service.scedc.caltech.edu/fdsnws/event/1/query?assocaro=266197501">
          <pickID>quakeml:service.scedc.caltech.edu/fdsnws/event/1/query?assocaro=266197501</pickID>
          <phase>P</phase>
          <timeCorrection>0.0</timeCorrection>
          <azimuth>151.9</azimuth>
          <distance>0.2729</distance>
          <takeoffAngle>
            <value>103.0</value>
          </takeoffAngle>
          <timeResidual>-0.22</timeResidual>
          <timeWeight>0.27</timeWeight>
          <creationInfo>
            <agencyID>CI</agencyID>
            <creationTime>2025-02-05T18:46:06.000000Z</creationTime>
          </creationInfo>
        </arrival>
        <arrival publicID="quakeml:service.scedc.caltech.edu/fdsnws/event/1/query?assocaro=266197525">
          <pickID>quakeml:service.scedc.caltech.edu/fdsnws/event/1/query?assocaro=266197525</pickID>
          <phase>S</phase>
          <timeCorrection>0.0</timeCorrection>
          <azimuth>343.7</azimuth>
          <distance>0.319</distance>
          <takeoffAngle>
            <value>99.0</value>
          </takeoffAngle>
          <timeResidual>-0.25</timeResidual>
          <timeWeight>0.07</timeWeight>
          <creationInfo>
            <agencyID>CI</agencyID>
            <creationTime>2025-02-05T18:46:06.000000Z</creationTime>
          </creationInfo>
        </arrival>
        <arrival publicID="quakeml:service.scedc.caltech.edu/fdsnws/event/1/query?assocaro=266197541">
          <pickID>quakeml:service.scedc.caltech.edu/fdsnws/event/1/query?assocaro=266197541</pickID>
          <phase>S</phase>
          <timeCorrection>-0.3</timeCorrection>
          <azimuth>301.9</azimuth>
          <distance>0.3356</distance>
          <takeoffAngle>
            <value>98.0</value>
          </takeoffAngle>
          <timeResidual>-0.09</timeResidual>
          <timeWeight>0.07</timeWeight>
          <creationInfo>
            <agencyID>CI</agencyID>
            <creationTime>2025-02-05T18:46:06.000000Z</creationTime>
          </creationInfo>
        </arrival>
        <arrival publicID="quakeml:service.scedc.caltech.edu/fdsnws/event/1/query?assocaro=266197557">
          <pickID>quakeml:service.scedc.caltech.edu/fdsnws/event/1/query?assocaro=266197557</pickID>
          <phase>S</phase>
          <timeCorrection>-0.32</timeCorrection>
          <azimuth>145.1</azimuth>
          <distance>0.3395</distance>
          <takeoffAngle>
            <value>98.0</value>
          </takeoffAngle>
          <timeResidual>0.03</timeResidual>
          <timeWeight>0.07</timeWeight>
          <creationInfo>
            <agencyID>CI</agencyID>
            <creationTime>2025-02-05T18:46:06.000000Z</creationTime>
          </creationInfo>
        </arrival>
        <arrival publicID="quakeml:service.scedc.caltech.edu/fdsnws/event/1/query?assocaro=266197565">
          <pickID>quakeml:service.scedc.caltech.edu/fdsnws/event/1/query?assocaro=266197565</pickID>
          <phase>P</phase>
          <timeCorrection>0.0</timeCorrection>
          <azimuth>181.0</azimuth>
          <distance>0.3475</distance>
          <takeoffAngle>
            <value>97.0</value>
          </takeoffAngle>
          <timeResidual>-0.09</timeResidual>
          <timeWeight>0.13</timeWeight>
          <creationInfo>
            <agencyID>CI</agencyID>
            <creationTime>2025-02-05T18:46:06.000000Z</creationTime>
          </creationInfo>
        </arrival>
        <arrival publicID="quakeml:service.scedc.caltech.edu/fdsnws/event/1/query?assocaro=266197581">
          <pickID>quakeml:service.scedc.caltech.edu/fdsnws/event/1/query?assocaro=266197581</pickID>
          <phase>S</phase>
          <timeCorrection>-0.39</timeCorrection>
          <azimuth>280.2</azimuth>
          <distance>0.3495</distance>
          <takeoffAngle>
            <value>97.0</value>
          </takeoffAngle>
          <timeResidual>0.15</timeResidual>
          <timeWeight>0.03</timeWeight>
          <creationInfo>
            <agencyID>CI</agencyID>
            <creationTime>2025-02-05T18:46:06.000000Z</creationTime>
          </creationInfo>
        </arrival>
        <arrival publicID="quakeml:service.scedc.caltech.edu/fdsnws/event/1/query?assocaro=266197597">
          <pickID>quakeml:service.scedc.caltech.edu/fdsnws/event/1/query?assocaro=266197597</pickID>
          <phase>S</phase>
          <timeCorrection>0.0</timeCorrection>
          <azimuth>189.6</azimuth>
          <distance>0.3657</distance>
          <takeoffAngle>
            <value>96.0</value>
          </takeoffAngle>
          <timeResidual>0.9</timeResidual>
          <timeWeight>0.01</timeWeight>
          <creationInfo>
            <agencyID>CI</agencyID>
            <creationTime>2025-02-05T18:46:06.000000Z</creationTime>
          </creationInfo>
        </arrival>
        <arrival publicID="quakeml:service.scedc.caltech.edu/fdsnws/event/1/query?assocaro=266197605">
          <pickID>quakeml:service.scedc.caltech.edu/fdsnws/event/1/query?assocaro=266197605</pickID>
          <phase>P</phase>
          <timeCorrection>-0.14</timeCorrection>
          <azimuth>262.6</azimuth>
          <distance>0.3744</distance>
          <takeoffAngle>
            <value>96.0</value>
          </takeoffAngle>
          <timeResidual>0.61</timeResidual>
          <timeWeight>0.13</timeWeight>
          <creationInfo>
            <agencyID>CI</agencyID>
            <creationTime>2025-02-05T18:46:06.000000Z</creationTime>
          </creationInfo>
        </arrival>
        <arrival publicID="quakeml:service.scedc.caltech.edu/fdsnws/event/1/query?assocaro=266197621">
          <pickID>quakeml:service.scedc.caltech.edu/fdsnws/event/1/query?assocaro=266197621</pickID>
          <phase>P</phase>
          <timeCorrection>0.0</timeCorrection>
          <azimuth>156.7</azimuth>
          <distance>0.4087</distance>
          <takeoffAngle>
            <value>94.0</value>
          </takeoffAngle>
          <timeResidual>-0.17</timeResidual>
          <timeWeight>0.13</timeWeight>
          <creationInfo>
            <agencyID>CI</agencyID>
            <creationTime>2025-02-05T18:46:06.000000Z</creationTime>
          </creationInfo>
        </arrival>
        <arrival publicID="quakeml:service.scedc.caltech.edu/fdsnws/event/1/query?assocaro=266197629">
          <pickID>quakeml:service.scedc.caltech.edu/fdsnws/event/1/query?assocaro=266197629</pickID>
          <phase>S</phase>
          <timeCorrection>0.0</timeCorrection>
          <azimuth>156.7</azimuth>
          <distance>0.4087</distance>
          <takeoffAngle>
            <value>94.0</value>
          </takeoffAngle>
          <timeResidual>0.05</timeResidual>
          <timeWeight>0.03</timeWeight>
          <creationInfo>
            <agencyID>CI</agencyID>
            <creationTime>2025-02-05T18:46:06.000000Z</creationTime>
          </creationInfo>
        </arrival>
        <arrival publicID="quakeml:service.scedc.caltech.edu/fdsnws/event/1/query?assocaro=266197637">
          <pickID>quakeml:service.scedc.caltech.edu/fdsnws/event/1/query?assocaro=266197637</pickID>
          <phase>P</phase>
          <timeCorrection>-0.13</timeCorrection>
          <azimuth>306.4</azimuth>
          <distance>0.4302</distance>
          <takeoffAngle>
            <value>93.0</value>
          </takeoffAngle>
          <timeResidual>-0.08</timeResidual>
          <timeWeight>0.13</timeWeight>
          <creationInfo>
            <agencyID>CI</agencyID>
            <creationTime>2025-02-05T18:46:06.000000Z</creationTime>
          </creationInfo>
        </arrival>
        <arrival publicID="quakeml:service.scedc.caltech.edu/fdsnws/event/1/query?assocaro=266197653">
          <pickID>quakeml:service.scedc.caltech.edu/fdsnws/event/1/query?assocaro=266197653</pickID>
          <phase>S</phase>
          <timeCorrection>-0.41</timeCorrection>
          <azimuth>337.1</azimuth>
          <distance>0.4512</distance>
          <takeoffAngle>
            <value>93.0</value>
          </takeoffAngle>
          <timeResidual>-0.01</timeResidual>
          <timeWeight>0.1</timeWeight>
          <creationInfo>
            <agencyID>CI</agencyID>
            <creationTime>2025-02-05T18:46:06.000000Z</creationTime>
          </creationInfo>
        </arrival>
        <arrival publicID="quakeml:service.scedc.caltech.edu/fdsnws/event/1/query?assocaro=266197661">
