<?xml version='1.0' encoding='utf-8'?>
<q:quakeml xmlns="http://quakeml.org/xmlns/bed/1.2" xmlns:q="http://quakeml.org/xmlns/quakeml/1.2" xmlns:ns0="http://anss.org/xmlns/catalog/0.1">
  <eventParameters publicID="smi:local/dd24b311-26af-4782-98d9-9d004bc47037">
    <event publicID="quakeml:service.scedc.caltech.edu/fdsnws/event/1/query?eventid=37694316" ns0:datasource="ci" ns0:dataid="ci37694316" ns0:eventsource="ci" ns0:eventid="37694316">
      <preferredOriginID>quakeml:service.scedc.caltech.edu/fdsnws/event/1/query?originid=108876716</preferredOriginID>
      <preferredMagnitudeID>quakeml:service.scedc.caltech.edu/fdsnws/event/1/query?magnitudeid=111262684</preferredMagnitudeID>
      <type>earthquake</type>
      <comment id="quakeml:ci.anss.org/event_remark/37694316">
        <text>foreshock/doublet</text>
      </comment>
      <creationInfo>
        <agencyID>CI</agencyID>
        <agencyURI>quakeml:doi.org/10.7909/C3WD3xH1</agencyURI>
        <creationTime>2025-01-17T20:20:42.000000Z</creationTime>
        <version>2</version>
      </creationInfo>
      <origin publicID="quakeml:service.scedc.caltech.edu/fdsnws/event/1/query?originid=108876716" ns0:datasource="ci" ns0:dataid="ci37694316" ns0:eventsource="ci" ns0:eventid="37694316">
        <time>
          <value>2025-01-16T19:25:30.000000Z</value>
        </time>
        <latitude>
          <value>33.249</value>
        </latitude>
        <longitude>
          <value>-116.2828333</value>
        </longitude>
        <depth>
          <value>9180.0</value>
          <uncertainty>380.0</uncertainty>
        </depth>
        <depthType>from location</depthType>
        <timeFixed>false</timeFixed>
        <epicenterFixed>false</epicenterFixed>
        <methodID>smi:ci.anss.org/origin/HYP2000</methodID>
        <quality>
          <associatedPhaseCount>13</associatedPhaseCount>
          <usedPhaseCount>13</usedPhaseCount>
          <associatedStationCount>10</associatedStationCount>
          <usedStationCount>10</usedStationCount>
          <standardError>0.05</standardError>
          <azimuthalGap>117.0</azimuthalGap>
          <secondaryAzimuthalGap>155.0</secondaryAzimuthalGap>
          <minimumDistance>0.06114</minimumDistance>
          <maximumDistance>0.447</maximumDistance>
          <medianDistance>0.2816</medianDistance>
        </quality>
        <type>hypocenter</type>
        <evaluationMode>manual</evaluationMode>
        <evaluationStatus>final</evaluationStatus>
        <creationInfo>
          <agencyID>CI</agencyID>
          <creationTime>2025-01-17T20:20:42.000000Z</creationTime>
        </creationInfo>
        <originUncertainty>
          <preferredDescription>confidence ellipsoid</preferredDescription>
          <horizontalUncertainty>230.0</horizontalUncertainty>
          <confidenceLevel>95.0</confidenceLevel>
          <confidenceEllipsoid>
            <semiMajorAxisLength>912.0</semiMajorAxisLength>
            <semiMinorAxisLength>360.0</semiMinorAxisLength>
            <semiIntermediateAxisLength>552.0</semiIntermediateAxisLength>
            <majorAxisPlunge>83.0</majorAxisPlunge>
            <majorAxisAzimuth>267.0</majorAxisAzimuth>
            <majorAxisRotation>312.0</majorAxisRotation>
          </confidenceEllipsoid>
        </originUncertainty>
        <arrival publicID="quakeml:service.scedc.caltech.edu/fdsnws/event/1/query?assocaro=424374860">
          <pickID>quakeml:service.scedc.caltech.edu/fdsnws/event/1/query?assocaro=424374860</pickID>
          <phase>P</phase>
          <timeCorrection>0.07</timeCorrection>
          <azimuth>156.8</azimuth>
          <distance>0.06114</distance>
          <takeoffAngle>
            <value>140.0</value>
          </takeoffAngle>
          <timeResidual>0.05</timeResidual>
          <timeWeight>0.11</timeWeight>
          <creationInfo>
            <agencyID>CI</agencyID>
            <creationTime>2025-01-17T20:20:42.000000Z</creationTime>
          </creationInfo>
        </arrival>
        <arrival publicID="quakeml:service.scedc.caltech.edu/fdsnws/event/1/query?assocaro=424374868">
          <pickID>quakeml:service.scedc.caltech.edu/fdsnws/event/1/query?assocaro=424374868</pickID>
          <phase>S</phase>
          <timeCorrection>0.11</timeCorrection>
          <azimuth>156.8</azimuth>
          <distance>0.06114</distance>
          <takeoffAngle>
            <value>140.0</value>
          </takeoffAngle>
          <timeResidual>-0.05</timeResidual>
          <timeWeight>0.06</timeWeight>
          <creationInfo>
            <agencyID>CI</agencyID>
            <creationTime>2025-01-17T20:20:42.000000Z</creationTime>
          </creationInfo>
        </arrival>
        <arrival publicID="quakeml:service.scedc.caltech.edu/fdsnws/event/1/query?assocaro=424374876">
          <pickID>quakeml:service.scedc.caltech.edu/fdsnws/event/1/query?assocaro=424374876</pickID>
          <phase>P</phase>
          <timeCorrection>-0.07</timeCorrection>
          <azimuth>279.7</azimuth>
          <distance>0.1142</distance>
          <takeoffAngle>
            <value>120.0</value>
          </takeoffAngle>
          <timeResidual>0.05</timeResidual>
          <timeWeight>0.11</timeWeight>
          <creationInfo>
            <agencyID>CI</agencyID>
            <creationTime>2025-01-17T20:20:42.000000Z</creationTime>
          </creationInfo>
        </arrival>
        <arrival publicID="quakeml:service.scedc.caltech.edu/fdsnws/event/1/query?assocaro=424374884">
          <pickID>quakeml:service.scedc.caltech.edu/fdsnws/event/1/query?assocaro=424374884</pickID>
          <phase>S</phase>
          <timeCorrection>-0.3</timeCorrection>
          <azimuth>279.7</azimuth>
          <distance>0.1142</distance>
          <takeoffAngle>
            <value>120.0</value>
          </takeoffAngle>
          <timeResidual>0.19</timeResidual>
          <timeWeight>0.11</timeWeight>
          <creationInfo>
            <agencyID>CI</agencyID>
            <creationTime>2025-01-17T20:20:42.000000Z</creationTime>
          </creationInfo>
        </arrival>
        <arrival publicID="quakeml:service.scedc.caltech.edu/fdsnws/event/1/query?assocaro=424374892">
          <pickID>quakeml:service.scedc.caltech.edu/fdsnws/event/1/query?assocaro=424374892</pickID>
          <phase>P</phase>
          <timeCorrection>0.0</timeCorrection>
          <azimuth>348.8</azimuth>
          <distance>0.1153</distance>
          <takeoffAngle>
            <value>120.0</value>
          </takeoffAngle>
          <timeResidual>-0.06</timeResidual>
          <timeWeight>0.11</timeWeight>
          <creationInfo>
            <agencyID>CI</agencyID>
            <creationTime>2025-01-17T20:20:42.000000Z</creationTime>
          </creationInfo>
        </arrival>
        <arrival publicID="quakeml:service.scedc.caltech.edu/fdsnws/event/1/query?assocaro=424374900">
          <pickID>quakeml:service.scedc.caltech.edu/fdsnws/event/1/query?assocaro=424374900</pickID>
          <phase>S</phase>
          <timeCorrection>0.0</timeCorrection>
          <azimuth>348.8</azimuth>
          <distance>0.1153</distance>
          <takeoffAngle>
            <value>120.0</value>
          </takeoffAngle>
          <timeResidual>-0.01</timeResidual>
          <timeWeight>0.06</timeWeight>
          <creationInfo>
            <agencyID>CI</agencyID>
            <creationTime>2025-01-17T20:20:42.000000Z</creationTime>
          </creationInfo>
        </arrival>
        <arrival publicID="quakeml:service.scedc.caltech.edu/fdsnws/event/1/query?assocaro=424374908">
          <pickID>quakeml:service.scedc.caltech.edu/fdsnws/event/1/query?assocaro=424374908</pickID>
          <phase>P</phase>
          <timeCorrection>-0.03</timeCorrection>
          <azimuth>293.9</azimuth>
          <distance>0.2548</distance>
          <takeoffAngle>
            <value>99.0</value>
          </takeoffAngle>
          <timeResidual>0.1</timeResidual>
          <timeWeight>0.11</timeWeight>
          <creationInfo>
            <agencyID>CI</agencyID>
            <creationTime>2025-01-17T20:20:42.000000Z</creationTime>
          </creationInfo>
        </arrival>
        <arrival publicID="quakeml:service.scedc.caltech.edu/fdsnws/event/1/query?assocaro=424374916">
          <pickID>quakeml:service.scedc.caltech.edu/fdsnws/event/1/query?assocaro=424374916</pickID>
          <phase>P</phase>
          <timeCorrection>0.0</timeCorrection>
          <azimuth>106.4</azimuth>
          <distance>0.2666</distance>
          <takeoffAngle>
            <value>98.0</value>
          </takeoffAngle>
          <timeResidual>-0.02</timeResidual>
          <timeWeight>0.11</timeWeight>
          <creationInfo>
            <agencyID>CI</agencyID>
            <creationTime>2025-01-17T20:20:42.000000Z</creationTime>
          </creationInfo>
        </arrival>
        <arrival publicID="quakeml:service.scedc.caltech.edu/fdsnws/event/1/query?assocaro=424374924">
          <pickID>quakeml:service.scedc.caltech.edu/fdsnws/event/1/query?assocaro=424374924</pickID>
          <phase>P</phase>
          <timeCorrection>0.0</timeCorrection>
          <azimuth>201.2</azimuth>
          <distance>0.2965</distance>
          <takeoffAngle>
            <value>97.0</value>
          </takeoffAngle>
          <timeResidual>-0.07</timeResidual>
          <timeWeight>0.11</timeWeight>
          <creationInfo>
            <agencyID>CI</agencyID>
            <creationTime>2025-01-17T20:20:42.000000Z</creationTime>
          </creationInfo>
        </arrival>
        <arrival publicID="quakeml:service.scedc.caltech.edu/fdsnws/event/1/query?assocaro=424374932">
          <pickID>quakeml:service.scedc.caltech.edu/fdsnws/event/1/query?assocaro=424374932</pickID>
          <phase>P</phase>
          <timeCorrection>-0.05</timeCorrection>
          <azimuth>260.8</azimuth>
          <distance>0.3095</distance>
          <takeoffAngle>
            <value>96.0</value>
          </takeoffAngle>
          <timeResidual>-0.05</timeResidual>
          <timeWeight>0.11</timeWeight>
          <creationInfo>
            <agencyID>CI</agencyID>
            <creationTime>2025-01-17T20:20:42.000000Z</creationTime>
          </creationInfo>
        </arrival>
        <arrival publicID="quakeml:service.scedc.caltech.edu/fdsnws/event/1/query?assocaro=424374940">
          <pickID>quakeml:service.scedc.caltech.edu/fdsnws/event/1/query?assocaro=424374940</pickID>
          <phase>P</phase>
          <timeCorrection>-0.07</timeCorrection>
          <azimuth>268.3</azimuth>
          <distance>0.3991</distance>
          <takeoffAngle>
            <value>94.0</value>
          </takeoffAngle>
          <timeResidual>0.08</timeResidual>
          <timeWeight>0.06</timeWeight>
          <creationInfo>
            <agencyID>CI</agencyID>
            <creationTime>2025-01-17T20:20:42.000000Z</creationTime>
          </creationInfo>
        </arrival>
        <arrival publicID="quakeml:service.scedc.caltech.edu/fdsnws/event/1/query?assocaro=424374948">
          <pickID>quakeml:service.scedc.caltech.edu/fdsnws/event/1/query?assocaro=424374948</pickID>
          <phase>P</phase>
          <timeCorrection>-0.18</timeCorrection>
          <azimuth>348.8</azimuth>
          <distance>0.4056</distance>
          <takeoffAngle>
            <value>93.0</value>
          </takeoffAngle>
          <timeResidual>-0.01</timeResidual>
          <timeWeight>0.11</timeWeight>
          <creationInfo>
            <agencyID>CI</agencyID>
            <creationTime>2025-01-17T20:20:42.000000Z</creationTime>
          </creationInfo>
        </arrival>
        <arrival publicID="quakeml:service.scedc.caltech.edu/fdsnws/event/1/query?assocaro=424374956">
          <pickID>quakeml:service.scedc.caltech.edu/fdsnws/event/1/query?assocaro=424374956</pickID>
          <phase>P</phase>
          <timeCorrection>0.11</timeCorrection>
          <azimuth>143.9</azimuth>
          <distance>0.447</distance>
          <takeoffAngle>
            <value>93.0</value>
          </takeoffAngle>
          <timeResidual>0.03</timeResidual>
          <timeWeight>0.11</timeWeight>
          <creationInfo>
            <agencyID>CI</agencyID>
            <creationTime>2025-01-17T20:20:42.000000Z</creationTime>
          </creationInfo>
        </arrival>
      </origin>
      <magnitude publicID="quakeml:service.scedc.caltech.edu/fdsnws/event/1/query?magnitudeid=111262684">
        <mag>
          <value>0.81</value>
          <uncertainty>0.247</uncertainty>
        </mag>
        <type>Ml</type>
        <originID>quakeml:service.scedc.caltech.edu/fdsnws/event/1/query?originid=108876716</originID>
        <methodID>smi:ci.anss.org/magnitude/CISNml2</methodID>
        <stationCount>3</stationCount>
        <azimuthalGap>168.0</azimuthalGap>
        <evaluationMode>manual</evaluationMode>
        <evaluationStatus>reviewed</evaluationStatus>
        <stationMagnitudeContribution>
          <stationMagnitudeID>quakeml:service.scedc.caltech.edu/fdsnws/event/1/query?assocammid=872428284</stationMagnitudeID>
          <weight>1.0</weight>
          <residual>-0.3</residual>
        </stationMagnitudeContribution>
        <stationMagnitudeContribution>
          <stationMagnitudeID>quakeml:service.scedc.caltech.edu/fdsnws/event/1/query?assocammid=872428316</stationMagnitudeID>
          <weight>0.0</weight>
          <residual>-0.93</residual>
        </stationMagnitudeContribution>
        <stationMagnitudeContribution>
          <stationMagnitudeID>quakeml:service.scedc.caltech.edu/fdsnws/event/1/query?assocammid=872428308</stationMagnitudeID>
          <weight>1.0</weight>
          <residual>0.0</residual>
        </stationMagnitudeContribution>
        <stationMagnitudeContribution>
          <stationMagnitudeID>quakeml:service.scedc.caltech.edu/fdsnws/event/1/query?assocammid=872428300</stationMagnitudeID>
          <weight>1.0</weight>
          <residual>0.05</residual>
        </stationMagnitudeContribution>
        <stationMagnitudeContribution>
          <stationMagnitudeID>quakeml:service.scedc.caltech.edu/fdsnws/event/1/query?assocammid=872428276</stationMagnitudeID>
          <weight>1.0</weight>
          <residual>-0.31</residual>
        </stationMagnitudeContribution>
        <stationMagnitudeContribution>
          <stationMagnitudeID>quakeml:service.scedc.caltech.edu/fdsnws/event/1/query?assocammid=872428292</stationMagnitudeID>
          <weight>1.0</weight>
          <residual>0.24</residual>
        </stationMagnitudeContribution>
        <creationInfo>
          <agencyID>CI</agencyID>
          <creationTime>2025-01-17T20:20:42.000000Z</creationTime>
        </creationInfo>
      </magnitude>
      <stationMagnitude publicID="quakeml:service.scedc.caltech.edu/fdsnws/event/1/query?assocammid=872428276">
        <originID>quakeml:service.scedc.caltech.edu/fdsnws/event/1/query?originid=108876716</originID>
        <mag>
          <value>0.5</value>
        </mag>
        <type>ML</type>
        <amplitudeID>quakeml:service.scedc.caltech.edu/fdsnws/event/1/query?ampid=872428276</amplitudeID>
        <waveformID networkCode="CI" stationCode="SLH" locationCode="" channelCode="HHN"></waveformID>
      </stationMagnitude>
      <stationMagnitude publicID="quakeml:service.scedc.caltech.edu/fdsnws/event/1/query?assocammid=872428284">
        <originID>quakeml:service.scedc.caltech.edu/fdsnws/event/1/query?originid=108876716</originID>
        <mag>
          <value>0.51</value>
        </mag>
        <type>ML</type>
        <amplitudeID>quakeml:service.scedc.caltech.edu/fdsnws/event/1/query?ampid=872428284</amplitudeID>
        <waveformID networkCode="CI" stationCode="SLH" locationCode="" channelCode="HHE"></waveformID>
      </stationMagnitude>
      <stationMagnitude publicID="quakeml:service.scedc.caltech.edu/fdsnws/event/1/query?assocammid=872428292">
        <originID>quakeml:service.scedc.caltech.edu/fdsnws/event/1/query?originid=108876716</originID>
        <mag>
          <value>1.05</value>
        </mag>
        <type>ML</type>
        <amplitudeID>quakeml:service.scedc.caltech.edu/fdsnws/event/1/query?ampid=872428292</amplitudeID>
        <waveformID networkCode="CI" stationCode="BOR" locationCode="" channelCode="HHN"></waveformID>
      </stationMagnitude>
      <stationMagnitude publicID="quakeml:service.scedc.caltech.edu/fdsnws/event/1/query?assocammid=872428300">
        <originID>quakeml:service.scedc.caltech.edu/fdsnws/event/1/query?originid=108876716</originID>
        <mag>
          <value>0.86</value>
        </mag>
        <type>ML</type>
        <amplitudeID>quakeml:service.scedc.caltech.edu/fdsnws/event/1/query?ampid=872428300</amplitudeID>
        <waveformID networkCode="CI" stationCode="BOR" locationCode="" channelCode="HHE"></waveformID>
      </stationMagnitude>
      <stationMagnitude publicID="quakeml:service.scedc.caltech.edu/fdsnws/event/1/query?assocammid=872428308">
        <originID>quakeml:service.scedc.caltech.edu/fdsnws/event/1/query?originid=108876716</originID>
        <mag>
          <value>0.81</value>
        </mag>
        <type>ML</type>
        <amplitudeID>quakeml:service.scedc.caltech.edu/fdsnws/event/1/query?ampid=872428308</amplitudeID>
        <waveformID networkCode="CI" stationCode="RCR" locationCode="" channelCode="HHE"></waveformID>
      </stationMagnitude>
      <stationMagnitude publicID="quakeml:service.scedc.caltech.edu/fdsnws/event/1/query?assocammid=872428316">
        <originID>quakeml:service.scedc.caltech.edu/fdsnws/event/1/query?originid=108876716</originID>
        <mag>
          <value>-0.12</value>
        </mag>
        <type>ML</type>
        <amplitudeID>quakeml:service.scedc.caltech.edu/fdsnws/event/1/query?ampid=872428316</amplitudeID>
        <waveformID networkCode="CI" stationCode="VLO" locationCode="" channelCode="HHN"></waveformID>
      </stationMagnitude>
      <pick publicID="quakeml:service.scedc.caltech.edu/fdsnws/event/1/query?assocaro=424374860">
        <time>
          <value>2025-01-16T19:25:32.200000Z</value>
          <uncertainty>0.15</uncertainty>
        </time>
        <waveformID networkCode="CI" stationCode="SLH" locationCode="" channelCode="HHZ"></waveformID>
        <onset>emergent</onset>
        <phaseHint>P</phaseHint>
        <polarity>undecidable</polarity>
        <evaluationMode>manual</evaluationMode>
        <evaluationStatus>reviewed</evaluationStatus>
        <creationInfo>
          <agencyID>CI</agencyID>
          <creationTime>2025-01-17T20:20:42.000000Z</creationTime>
        </creationInfo>
      </pick>
      <pick publicID="quakeml:service.scedc.caltech.edu/fdsnws/event/1/query?assocaro=424374868">
        <time>
          <value>2025-01-16T19:25:33.630000Z</value>
          <uncertainty>0.15</uncertainty>
        </time>
        <waveformID networkCode="CI" stationCode="SLH" locationCode="" channelCode="HHN"></waveformID>
        <onset>emergent</onset>
        <phaseHint>S</phaseHint>
        <polarity>undecidable</polarity>
        <evaluationMode>manual</evaluationMode>
        <evaluationStatus>reviewed</evaluationStatus>
        <creationInfo>
          <agencyID>CI</agencyID>
          <creationTime>2025-01-17T20:20:42.000000Z</creationTime>
        </creationInfo>
      </pick>
      <pick publicID="quakeml:service.scedc.caltech.edu/fdsnws/event/1/query?assocaro=424374876">
        <time>
          <value>2025-01-16T19:25:32.780000Z</value>
          <uncertainty>0.15</uncertainty>
        </time>
        <waveformID networkCode="CI" stationCode="BOR" locationCode="" channelCode="HHZ"></waveformID>
        <onset>emergent</onset>
        <phaseHint>P</phaseHint>
        <polarity>undecidable</polarity>
        <evaluationMode>manual</evaluationMode>
        <evaluationStatus>reviewed</evaluationStatus>
        <creationInfo>
          <agencyID>CI</agencyID>
          <creationTime>2025-01-17T20:20:42.000000Z</creationTime>
