<?xml version='1.0' encoding='utf-8'?>
<q:quakeml xmlns="http://quakeml.org/xmlns/bed/1.2" xmlns:q="http://quakeml.org/xmlns/quakeml/1.2" xmlns:ns0="http://anss.org/xmlns/catalog/0.1">
  <eventParameters publicID="smi:local/3c660942-d1e9-4fe6-9905-bf51af775850">
    <event publicID="quakeml:service.scedc.caltech.edu/fdsnws/event/1/query?eventid=40842991" ns0:datasource="ci" ns0:dataid="ci40842991" ns0:eventsource="ci" ns0:eventid="40842991">
      <preferredOriginID>quakeml:service.scedc.caltech.edu/fdsnws/event/1/query?originid=105812077</preferredOriginID>
      <preferredMagnitudeID>quakeml:service.scedc.caltech.edu/fdsnws/event/1/query?magnitudeid=109268469</preferredMagnitudeID>
      <type>earthquake</type>
      <creationInfo>
        <agencyID>CI</agencyID>
        <agencyURI>quakeml:doi.org/10.7909/C3WD3xH1</agencyURI>
        <creationTime>2025-01-19T02:39:20.000000Z</creationTime>
        <version>6</version>
      </creationInfo>
      <origin publicID="quakeml:service.scedc.caltech.edu/fdsnws/event/1/query?originid=105812077" ns0:datasource="ci" ns0:dataid="ci40842991" ns0:eventsource="ci" ns0:eventid="40842991">
        <time>
          <value>2025-01-19T02:35:01.190000Z</value>
        </time>
        <latitude>
          <value>34.0068333</value>
        </latitude>
        <longitude>
          <value>-116.7735</value>
        </longitude>
        <depth>
          <value>12010.0</value>
          <uncertainty>540.0</uncertainty>
        </depth>
        <depthType>from location</depthType>
        <timeFixed>false</timeFixed>
        <epicenterFixed>false</epicenterFixed>
        <methodID>smi:ci.anss.org/origin/HYP2000</methodID>
        <quality>
          <associatedPhaseCount>77</associatedPhaseCount>
          <usedPhaseCount>77</usedPhaseCount>
          <associatedStationCount>46</associatedStationCount>
          <usedStationCount>46</usedStationCount>
          <standardError>0.16</standardError>
          <azimuthalGap>27.0</azimuthalGap>
          <secondaryAzimuthalGap>375.0</secondaryAzimuthalGap>
          <minimumDistance>0.04011</minimumDistance>
          <maximumDistance>0.8484</maximumDistance>
          <medianDistance>0.4798</medianDistance>
        </quality>
        <type>hypocenter</type>
        <evaluationMode>manual</evaluationMode>
        <evaluationStatus>final</evaluationStatus>
        <creationInfo>
          <agencyID>CI</agencyID>
          <creationTime>2025-01-19T02:39:16.000000Z</creationTime>
        </creationInfo>
        <originUncertainty>
          <preferredDescription>confidence ellipsoid</preferredDescription>
          <horizontalUncertainty>160.0</horizontalUncertainty>
          <confidenceLevel>95.0</confidenceLevel>
          <confidenceEllipsoid>
            <semiMajorAxisLength>1320.0</semiMajorAxisLength>
            <semiMinorAxisLength>384.0</semiMinorAxisLength>
            <semiIntermediateAxisLength>384.0</semiIntermediateAxisLength>
            <majorAxisPlunge>80.0</majorAxisPlunge>
            <majorAxisAzimuth>9.0</majorAxisAzimuth>
            <majorAxisRotation>14.0</majorAxisRotation>
          </confidenceEllipsoid>
        </originUncertainty>
        <arrival publicID="quakeml:service.scedc.caltech.edu/fdsnws/event/1/query?assocaro=144699543">
          <pickID>quakeml:service.scedc.caltech.edu/fdsnws/event/1/query?assocaro=144699543</pickID>
          <phase>P</phase>
          <timeCorrection>0.0</timeCorrection>
          <azimuth>193.0</azimuth>
          <distance>0.5361</distance>
          <takeoffAngle>
            <value>93.0</value>
          </takeoffAngle>
          <timeResidual>-0.64</timeResidual>
          <timeWeight>0.05</timeWeight>
          <creationInfo>
            <agencyID>CI</agencyID>
            <creationTime>2025-01-19T02:39:16.000000Z</creationTime>
          </creationInfo>
        </arrival>
        <arrival publicID="quakeml:service.scedc.caltech.edu/fdsnws/event/1/query?assocaro=144699575">
          <pickID>quakeml:service.scedc.caltech.edu/fdsnws/event/1/query?assocaro=144699575</pickID>
          <phase>P</phase>
          <timeCorrection>-0.18</timeCorrection>
          <azimuth>210.0</azimuth>
          <distance>0.4521</distance>
          <takeoffAngle>
            <value>95.0</value>
          </takeoffAngle>
          <timeResidual>0.48</timeResidual>
          <timeWeight>0.06</timeWeight>
          <creationInfo>
            <agencyID>CI</agencyID>
            <creationTime>2025-01-19T02:39:16.000000Z</creationTime>
          </creationInfo>
        </arrival>
        <arrival publicID="quakeml:service.scedc.caltech.edu/fdsnws/event/1/query?assocaro=144699639">
          <pickID>quakeml:service.scedc.caltech.edu/fdsnws/event/1/query?assocaro=144699639</pickID>
          <phase>P</phase>
          <timeCorrection>-0.15</timeCorrection>
          <azimuth>213.0</azimuth>
          <distance>0.3532</distance>
          <takeoffAngle>
            <value>99.0</value>
          </takeoffAngle>
          <timeResidual>0.22</timeResidual>
          <timeWeight>0.17</timeWeight>
          <creationInfo>
            <agencyID>CI</agencyID>
            <creationTime>2025-01-19T02:39:16.000000Z</creationTime>
          </creationInfo>
        </arrival>
        <arrival publicID="quakeml:service.scedc.caltech.edu/fdsnws/event/1/query?assocaro=144699719">
          <pickID>quakeml:service.scedc.caltech.edu/fdsnws/event/1/query?assocaro=144699719</pickID>
          <phase>P</phase>
          <timeCorrection>-0.12</timeCorrection>
          <azimuth>202.0</azimuth>
          <distance>0.3426</distance>
          <takeoffAngle>
            <value>100.0</value>
          </takeoffAngle>
          <timeResidual>0.06</timeResidual>
          <timeWeight>0.11</timeWeight>
          <creationInfo>
            <agencyID>CI</agencyID>
            <creationTime>2025-01-19T02:39:16.000000Z</creationTime>
          </creationInfo>
        </arrival>
        <arrival publicID="quakeml:service.scedc.caltech.edu/fdsnws/event/1/query?assocaro=144699735">
          <pickID>quakeml:service.scedc.caltech.edu/fdsnws/event/1/query?assocaro=144699735</pickID>
          <phase>S</phase>
          <timeCorrection>0.0</timeCorrection>
          <azimuth>206.0</azimuth>
          <distance>0.7899</distance>
          <takeoffAngle>
            <value>91.0</value>
          </takeoffAngle>
          <timeResidual>-0.38</timeResidual>
          <timeWeight>0.05</timeWeight>
          <creationInfo>
            <agencyID>CI</agencyID>
            <creationTime>2025-01-19T02:39:16.000000Z</creationTime>
          </creationInfo>
        </arrival>
        <arrival publicID="quakeml:service.scedc.caltech.edu/fdsnws/event/1/query?assocaro=144699759">
          <pickID>quakeml:service.scedc.caltech.edu/fdsnws/event/1/query?assocaro=144699759</pickID>
          <phase>P</phase>
          <timeCorrection>-0.06</timeCorrection>
          <azimuth>315.0</azimuth>
          <distance>0.04011</distance>
          <takeoffAngle>
            <value>160.0</value>
          </takeoffAngle>
          <timeResidual>0.21</timeResidual>
          <timeWeight>0.11</timeWeight>
          <creationInfo>
            <agencyID>CI</agencyID>
            <creationTime>2025-01-19T02:39:16.000000Z</creationTime>
          </creationInfo>
        </arrival>
        <arrival publicID="quakeml:service.scedc.caltech.edu/fdsnws/event/1/query?assocaro=266486821">
          <pickID>quakeml:service.scedc.caltech.edu/fdsnws/event/1/query?assocaro=266486821</pickID>
          <phase>P</phase>
          <timeCorrection>-0.01</timeCorrection>
          <azimuth>73.0</azimuth>
          <distance>0.109</distance>
          <takeoffAngle>
            <value>134.0</value>
          </takeoffAngle>
          <timeResidual>-0.07</timeResidual>
          <timeWeight>0.22</timeWeight>
          <creationInfo>
            <agencyID>CI</agencyID>
            <creationTime>2025-01-19T02:39:16.000000Z</creationTime>
          </creationInfo>
        </arrival>
        <arrival publicID="quakeml:service.scedc.caltech.edu/fdsnws/event/1/query?assocaro=266486829">
          <pickID>quakeml:service.scedc.caltech.edu/fdsnws/event/1/query?assocaro=266486829</pickID>
          <phase>S</phase>
          <timeCorrection>-0.03</timeCorrection>
          <azimuth>73.0</azimuth>
          <distance>0.109</distance>
          <takeoffAngle>
            <value>134.0</value>
          </takeoffAngle>
          <timeResidual>0.26</timeResidual>
          <timeWeight>0.06</timeWeight>
          <creationInfo>
            <agencyID>CI</agencyID>
            <creationTime>2025-01-19T02:39:16.000000Z</creationTime>
          </creationInfo>
        </arrival>
        <arrival publicID="quakeml:service.scedc.caltech.edu/fdsnws/event/1/query?assocaro=266486837">
          <pickID>quakeml:service.scedc.caltech.edu/fdsnws/event/1/query?assocaro=266486837</pickID>
          <phase>P</phase>
          <timeCorrection>-0.09</timeCorrection>
          <azimuth>303.0</azimuth>
          <distance>0.1602</distance>
          <takeoffAngle>
            <value>121.0</value>
          </takeoffAngle>
          <timeResidual>-0.03</timeResidual>
          <timeWeight>0.22</timeWeight>
          <creationInfo>
            <agencyID>CI</agencyID>
            <creationTime>2025-01-19T02:39:16.000000Z</creationTime>
          </creationInfo>
        </arrival>
        <arrival publicID="quakeml:service.scedc.caltech.edu/fdsnws/event/1/query?assocaro=266486845">
          <pickID>quakeml:service.scedc.caltech.edu/fdsnws/event/1/query?assocaro=266486845</pickID>
          <phase>S</phase>
          <timeCorrection>-0.21</timeCorrection>
          <azimuth>303.0</azimuth>
          <distance>0.1602</distance>
          <takeoffAngle>
            <value>121.0</value>
          </takeoffAngle>
          <timeResidual>0.24</timeResidual>
          <timeWeight>0.06</timeWeight>
          <creationInfo>
            <agencyID>CI</agencyID>
            <creationTime>2025-01-19T02:39:16.000000Z</creationTime>
          </creationInfo>
        </arrival>
        <arrival publicID="quakeml:service.scedc.caltech.edu/fdsnws/event/1/query?assocaro=266486853">
          <pickID>quakeml:service.scedc.caltech.edu/fdsnws/event/1/query?assocaro=266486853</pickID>
          <phase>P</phase>
          <timeCorrection>-0.08</timeCorrection>
          <azimuth>187.0</azimuth>
          <distance>0.1739</distance>
          <takeoffAngle>
            <value>118.0</value>
          </takeoffAngle>
          <timeResidual>-0.01</timeResidual>
          <timeWeight>0.17</timeWeight>
          <creationInfo>
            <agencyID>CI</agencyID>
            <creationTime>2025-01-19T02:39:16.000000Z</creationTime>
          </creationInfo>
        </arrival>
        <arrival publicID="quakeml:service.scedc.caltech.edu/fdsnws/event/1/query?assocaro=266486861">
          <pickID>quakeml:service.scedc.caltech.edu/fdsnws/event/1/query?assocaro=266486861</pickID>
          <phase>S</phase>
          <timeCorrection>-0.25</timeCorrection>
          <azimuth>187.0</azimuth>
          <distance>0.1739</distance>
          <takeoffAngle>
            <value>118.0</value>
          </takeoffAngle>
          <timeResidual>0.39</timeResidual>
          <timeWeight>0.06</timeWeight>
          <creationInfo>
            <agencyID>CI</agencyID>
            <creationTime>2025-01-19T02:39:16.000000Z</creationTime>
          </creationInfo>
        </arrival>
        <arrival publicID="quakeml:service.scedc.caltech.edu/fdsnws/event/1/query?assocaro=266486869">
          <pickID>quakeml:service.scedc.caltech.edu/fdsnws/event/1/query?assocaro=266486869</pickID>
          <phase>P</phase>
          <timeCorrection>-0.08</timeCorrection>
          <azimuth>335.0</azimuth>
          <distance>0.2826</distance>
          <takeoffAngle>
            <value>104.0</value>
          </takeoffAngle>
          <timeResidual>0.04</timeResidual>
          <timeWeight>0.11</timeWeight>
          <creationInfo>
            <agencyID>CI</agencyID>
            <creationTime>2025-01-19T02:39:16.000000Z</creationTime>
          </creationInfo>
        </arrival>
        <arrival publicID="quakeml:service.scedc.caltech.edu/fdsnws/event/1/query?assocaro=266486877">
          <pickID>quakeml:service.scedc.caltech.edu/fdsnws/event/1/query?assocaro=266486877</pickID>
          <phase>P</phase>
          <timeCorrection>-0.17</timeCorrection>
          <azimuth>170.0</azimuth>
          <distance>0.2964</distance>
          <takeoffAngle>
            <value>103.0</value>
          </takeoffAngle>
          <timeResidual>-0.07</timeResidual>
          <timeWeight>0.22</timeWeight>
          <creationInfo>
            <agencyID>CI</agencyID>
            <creationTime>2025-01-19T02:39:16.000000Z</creationTime>
          </creationInfo>
        </arrival>
        <arrival publicID="quakeml:service.scedc.caltech.edu/fdsnws/event/1/query?assocaro=266486885">
          <pickID>quakeml:service.scedc.caltech.edu/fdsnws/event/1/query?assocaro=266486885</pickID>
          <phase>S</phase>
          <timeCorrection>-0.47</timeCorrection>
          <azimuth>170.0</azimuth>
          <distance>0.2964</distance>
          <takeoffAngle>
            <value>103.0</value>
          </takeoffAngle>
          <timeResidual>0.11</timeResidual>
          <timeWeight>0.06</timeWeight>
          <creationInfo>
            <agencyID>CI</agencyID>
            <creationTime>2025-01-19T02:39:16.000000Z</creationTime>
          </creationInfo>
        </arrival>
        <arrival publicID="quakeml:service.scedc.caltech.edu/fdsnws/event/1/query?assocaro=266486893">
          <pickID>quakeml:service.scedc.caltech.edu/fdsnws/event/1/query?assocaro=266486893</pickID>
          <phase>P</phase>
          <timeCorrection>0.01</timeCorrection>
          <azimuth>102.0</azimuth>
          <distance>0.3102</distance>
          <takeoffAngle>
            <value>102.0</value>
          </takeoffAngle>
          <timeResidual>-0.13</timeResidual>
          <timeWeight>0.22</timeWeight>
          <creationInfo>
            <agencyID>CI</agencyID>
            <creationTime>2025-01-19T02:39:16.000000Z</creationTime>
          </creationInfo>
        </arrival>
        <arrival publicID="quakeml:service.scedc.caltech.edu/fdsnws/event/1/query?assocaro=266486901">
          <pickID>quakeml:service.scedc.caltech.edu/fdsnws/event/1/query?assocaro=266486901</pickID>
          <phase>S</phase>
          <timeCorrection>-0.07</timeCorrection>
          <azimuth>102.0</azimuth>
          <distance>0.3102</distance>
          <takeoffAngle>
            <value>102.0</value>
          </takeoffAngle>
          <timeResidual>0.36</timeResidual>
          <timeWeight>0.06</timeWeight>
          <creationInfo>
            <agencyID>CI</agencyID>
            <creationTime>2025-01-19T02:39:16.000000Z</creationTime>
          </creationInfo>
        </arrival>
        <arrival publicID="quakeml:service.scedc.caltech.edu/fdsnws/event/1/query?assocaro=266486909">
          <pickID>quakeml:service.scedc.caltech.edu/fdsnws/event/1/query?assocaro=266486909</pickID>
          <phase>P</phase>
          <timeCorrection>0.0</timeCorrection>
          <azimuth>323.0</azimuth>
          <distance>0.315</distance>
          <takeoffAngle>
            <value>102.0</value>
          </takeoffAngle>
          <timeResidual>0.03</timeResidual>
          <timeWeight>0.17</timeWeight>
          <creationInfo>
            <agencyID>CI</agencyID>
            <creationTime>2025-01-19T02:39:16.000000Z</creationTime>
          </creationInfo>
        </arrival>
        <arrival publicID="quakeml:service.scedc.caltech.edu/fdsnws/event/1/query?assocaro=266486917">
          <pickID>quakeml:service.scedc.caltech.edu/fdsnws/event/1/query?assocaro=266486917</pickID>
          <phase>S</phase>
          <timeCorrection>0.0</timeCorrection>
          <azimuth>323.0</azimuth>
          <distance>0.315</distance>
          <takeoffAngle>
            <value>102.0</value>
          </takeoffAngle>
          <timeResidual>0.6</timeResidual>
          <timeWeight>0.05</timeWeight>
          <creationInfo>
            <agencyID>CI</agencyID>
            <creationTime>2025-01-19T02:39:16.000000Z</creationTime>
          </creationInfo>
        </arrival>
        <arrival publicID="quakeml:service.scedc.caltech.edu/fdsnws/event/1/query?assocaro=266486925">
          <pickID>quakeml:service.scedc.caltech.edu/fdsnws/event/1/query?assocaro=266486925</pickID>
          <phase>P</phase>
          <timeCorrection>-0.02</timeCorrection>
          <azimuth>78.0</azimuth>
          <distance>0.3246</distance>
          <takeoffAngle>
            <value>101.0</value>
          </takeoffAngle>
          <timeResidual>-0.06</timeResidual>
          <timeWeight>0.22</timeWeight>
          <creationInfo>
            <agencyID>CI</agencyID>
            <creationTime>2025-01-19T02:39:16.000000Z</creationTime>
          </creationInfo>
        </arrival>
        <arrival publicID="quakeml:service.scedc.caltech.edu/fdsnws/event/1/query?assocaro=266486933">
          <pickID>quakeml:service.scedc.caltech.edu/fdsnws/event/1/query?assocaro=266486933</pickID>
          <phase>S</phase>
          <timeCorrection>-0.14</timeCorrection>
          <azimuth>78.0</azimuth>
          <distance>0.3246</distance>
          <takeoffAngle>
            <value>101.0</value>
          </takeoffAngle>
          <timeResidual>0.29</timeResidual>
          <timeWeight>0.06</timeWeight>
          <creationInfo>
            <agencyID>CI</agencyID>
            <creationTime>2025-01-19T02:39:16.000000Z</creationTime>
          </creationInfo>
        </arrival>
        <arrival publicID="quakeml:service.scedc.caltech.edu/fdsnws/event/1/query?assocaro=266486941">
          <pickID>quakeml:service.scedc.caltech.edu/fdsnws/event/1/query?assocaro=266486941</pickID>
          <phase>P</phase>
          <timeCorrection>-0.06</timeCorrection>
          <azimuth>353.0</azimuth>
          <distance>0.3433</distance>
          <takeoffAngle>
            <value>100.0</value>
          </takeoffAngle>
          <timeResidual>-0.06</timeResidual>
          <timeWeight>0.11</timeWeight>
          <creationInfo>
            <agencyID>CI</agencyID>
            <creationTime>2025-01-19T02:39:16.000000Z</creationTime>
          </creationInfo>
        </arrival>
        <arrival publicID="quakeml:service.scedc.caltech.edu/fdsnws/event/1/query?assocaro=266486949">
          <pickID>quakeml:service.scedc.caltech.edu/fdsnws/event/1/query?assocaro=266486949</pickID>
          <phase>S</phase>
          <timeCorrection>0.0</timeCorrection>
          <azimuth>304.0</azimuth>
          <distance>0.3485</distance>
          <takeoffAngle>
            <value>100.0</value>
          </takeoffAngle>
          <timeResidual>0.33</timeResidual>
          <timeWeight>0.06</timeWeight>
          <creationInfo>
            <agencyID>CI</agencyID>
            <creationTime>2025-01-19T02:39:16.000000Z</creationTime>
          </creationInfo>
        </arrival>
        <arrival publicID="quakeml:service.scedc.caltech.edu/fdsnws/event/1/query?assocaro=266486957">
          <pickID>quakeml:service.scedc.caltech.edu/fdsnws/event/1/query?assocaro=266486957</pickID>
          <phase>P</phase>
          <timeCorrection>-0.12</timeCorrection>
          <azimuth>190.0</azimuth>
          <distance>0.3809</distance>
          <takeoffAngle>
            <value>98.0</value>
          </takeoffAngle>
          <timeResidual>0.01</timeResidual>
          <timeWeight>0.17</timeWeight>
          <creationInfo>
            <agencyID>CI</agencyID>
            <creationTime>2025-01-19T02:39:16.000000Z</creationTime>
          </creationInfo>
        </arrival>
        <arrival publicID="quakeml:service.scedc.caltech.edu/fdsnws/event/1/query?assocaro=266486965">
