<?xml version='1.0' encoding='utf-8'?>
<q:quakeml xmlns="http://quakeml.org/xmlns/bed/1.2" xmlns:q="http://quakeml.org/xmlns/quakeml/1.2" xmlns:ns0="http://anss.org/xmlns/catalog/0.1">
  <eventParameters publicID="smi:local/5133fedf-1b41-4bfb-b3ca-e9384838cf7c">
    <event publicID="quakeml:service.scedc.caltech.edu/fdsnws/event/1/query?eventid=40833775" ns0:datasource="ci" ns0:dataid="ci40833775" ns0:eventsource="ci" ns0:eventid="40833775">
      <preferredOriginID>quakeml:service.scedc.caltech.edu/fdsnws/event/1/query?originid=108873420</preferredOriginID>
      <preferredMagnitudeID>quakeml:service.scedc.caltech.edu/fdsnws/event/1/query?magnitudeid=111259300</preferredMagnitudeID>
      <type>earthquake</type>
      <creationInfo>
        <agencyID>CI</agencyID>
        <agencyURI>quakeml:doi.org/10.7909/C3WD3xH1</agencyURI>
        <creationTime>2025-01-07T17:55:48.000000Z</creationTime>
        <version>4</version>
      </creationInfo>
      <origin publicID="quakeml:service.scedc.caltech.edu/fdsnws/event/1/query?originid=108873420" ns0:datasource="ci" ns0:dataid="ci40833775" ns0:eventsource="ci" ns0:eventid="40833775">
        <time>
          <value>2025-01-04T15:32:49.250000Z</value>
        </time>
        <latitude>
          <value>36.0933333</value>
        </latitude>
        <longitude>
          <value>-117.8591667</value>
        </longitude>
        <depth>
          <value>2520.0</value>
          <uncertainty>260.0</uncertainty>
        </depth>
        <depthType>from location</depthType>
        <timeFixed>false</timeFixed>
        <epicenterFixed>false</epicenterFixed>
        <methodID>smi:ci.anss.org/origin/HYP2000</methodID>
        <quality>
          <associatedPhaseCount>18</associatedPhaseCount>
          <usedPhaseCount>18</usedPhaseCount>
          <associatedStationCount>11</associatedStationCount>
          <usedStationCount>11</usedStationCount>
          <standardError>0.11</standardError>
          <azimuthalGap>122.0</azimuthalGap>
          <secondaryAzimuthalGap>483.0</secondaryAzimuthalGap>
          <minimumDistance>0.02445</minimumDistance>
          <maximumDistance>0.6687</maximumDistance>
          <medianDistance>0.2535</medianDistance>
        </quality>
        <type>hypocenter</type>
        <evaluationMode>manual</evaluationMode>
        <evaluationStatus>final</evaluationStatus>
        <creationInfo>
          <agencyID>CI</agencyID>
          <creationTime>2025-01-07T17:55:48.000000Z</creationTime>
        </creationInfo>
        <originUncertainty>
          <preferredDescription>confidence ellipsoid</preferredDescription>
          <horizontalUncertainty>300.0</horizontalUncertainty>
          <confidenceLevel>95.0</confidenceLevel>
          <confidenceEllipsoid>
            <semiMajorAxisLength>960.0</semiMajorAxisLength>
            <semiMinorAxisLength>408.0</semiMinorAxisLength>
            <semiIntermediateAxisLength>528.0</semiIntermediateAxisLength>
            <majorAxisPlunge>41.0</majorAxisPlunge>
            <majorAxisAzimuth>36.0</majorAxisAzimuth>
            <majorAxisRotation>69.0</majorAxisRotation>
          </confidenceEllipsoid>
        </originUncertainty>
        <arrival publicID="quakeml:service.scedc.caltech.edu/fdsnws/event/1/query?assocaro=424255948">
          <pickID>quakeml:service.scedc.caltech.edu/fdsnws/event/1/query?assocaro=424255948</pickID>
          <phase>P</phase>
          <timeCorrection>-0.09</timeCorrection>
          <azimuth>8.2</azimuth>
          <distance>0.02445</distance>
          <takeoffAngle>
            <value>144.0</value>
          </takeoffAngle>
          <timeResidual>0.02</timeResidual>
          <timeWeight>0.21</timeWeight>
          <creationInfo>
            <agencyID>CI</agencyID>
            <creationTime>2025-01-07T17:55:48.000000Z</creationTime>
          </creationInfo>
        </arrival>
        <arrival publicID="quakeml:service.scedc.caltech.edu/fdsnws/event/1/query?assocaro=424262996">
          <pickID>quakeml:service.scedc.caltech.edu/fdsnws/event/1/query?assocaro=424262996</pickID>
          <phase>S</phase>
          <timeCorrection>-0.27</timeCorrection>
          <azimuth>8.2</azimuth>
          <distance>0.02445</distance>
          <takeoffAngle>
            <value>144.0</value>
          </takeoffAngle>
          <timeResidual>-0.03</timeResidual>
          <timeWeight>0.05</timeWeight>
          <creationInfo>
            <agencyID>CI</agencyID>
            <creationTime>2025-01-07T17:55:48.000000Z</creationTime>
          </creationInfo>
        </arrival>
        <arrival publicID="quakeml:service.scedc.caltech.edu/fdsnws/event/1/query?assocaro=424263004">
          <pickID>quakeml:service.scedc.caltech.edu/fdsnws/event/1/query?assocaro=424263004</pickID>
          <phase>P</phase>
          <timeCorrection>-0.09</timeCorrection>
          <azimuth>196.4</azimuth>
          <distance>0.08909</distance>
          <takeoffAngle>
            <value>110.0</value>
          </takeoffAngle>
          <timeResidual>0.08</timeResidual>
          <timeWeight>0.16</timeWeight>
          <creationInfo>
            <agencyID>CI</agencyID>
            <creationTime>2025-01-07T17:55:48.000000Z</creationTime>
          </creationInfo>
        </arrival>
        <arrival publicID="quakeml:service.scedc.caltech.edu/fdsnws/event/1/query?assocaro=424263012">
          <pickID>quakeml:service.scedc.caltech.edu/fdsnws/event/1/query?assocaro=424263012</pickID>
          <phase>P</phase>
          <timeCorrection>-0.07</timeCorrection>
          <azimuth>131.9</azimuth>
          <distance>0.102</distance>
          <takeoffAngle>
            <value>108.0</value>
          </takeoffAngle>
          <timeResidual>-0.06</timeResidual>
          <timeWeight>0.16</timeWeight>
          <creationInfo>
            <agencyID>CI</agencyID>
            <creationTime>2025-01-07T17:55:48.000000Z</creationTime>
          </creationInfo>
        </arrival>
        <arrival publicID="quakeml:service.scedc.caltech.edu/fdsnws/event/1/query?assocaro=424263020">
          <pickID>quakeml:service.scedc.caltech.edu/fdsnws/event/1/query?assocaro=424263020</pickID>
          <phase>S</phase>
          <timeCorrection>-0.27</timeCorrection>
          <azimuth>131.9</azimuth>
          <distance>0.102</distance>
          <takeoffAngle>
            <value>108.0</value>
          </takeoffAngle>
          <timeResidual>-0.04</timeResidual>
          <timeWeight>0.05</timeWeight>
          <creationInfo>
            <agencyID>CI</agencyID>
            <creationTime>2025-01-07T17:55:48.000000Z</creationTime>
          </creationInfo>
        </arrival>
        <arrival publicID="quakeml:service.scedc.caltech.edu/fdsnws/event/1/query?assocaro=424263028">
          <pickID>quakeml:service.scedc.caltech.edu/fdsnws/event/1/query?assocaro=424263028</pickID>
          <phase>P</phase>
          <timeCorrection>-0.07</timeCorrection>
          <azimuth>159.8</azimuth>
          <distance>0.1179</distance>
          <takeoffAngle>
            <value>60.0</value>
          </takeoffAngle>
          <timeResidual>0.04</timeResidual>
          <timeWeight>0.16</timeWeight>
          <creationInfo>
            <agencyID>CI</agencyID>
            <creationTime>2025-01-07T17:55:48.000000Z</creationTime>
          </creationInfo>
        </arrival>
        <arrival publicID="quakeml:service.scedc.caltech.edu/fdsnws/event/1/query?assocaro=424263036">
          <pickID>quakeml:service.scedc.caltech.edu/fdsnws/event/1/query?assocaro=424263036</pickID>
          <phase>P</phase>
          <timeCorrection>-0.05</timeCorrection>
          <azimuth>130.7</azimuth>
          <distance>0.223</distance>
          <takeoffAngle>
            <value>60.0</value>
          </takeoffAngle>
          <timeResidual>0.0</timeResidual>
          <timeWeight>0.16</timeWeight>
          <creationInfo>
            <agencyID>CI</agencyID>
            <creationTime>2025-01-07T17:55:48.000000Z</creationTime>
          </creationInfo>
        </arrival>
        <arrival publicID="quakeml:service.scedc.caltech.edu/fdsnws/event/1/query?assocaro=424263044">
          <pickID>quakeml:service.scedc.caltech.edu/fdsnws/event/1/query?assocaro=424263044</pickID>
          <phase>S</phase>
          <timeCorrection>-0.18</timeCorrection>
          <azimuth>130.7</azimuth>
          <distance>0.223</distance>
          <takeoffAngle>
            <value>61.0</value>
          </takeoffAngle>
          <timeResidual>0.15</timeResidual>
          <timeWeight>0.05</timeWeight>
          <creationInfo>
            <agencyID>CI</agencyID>
            <creationTime>2025-01-07T17:55:48.000000Z</creationTime>
          </creationInfo>
        </arrival>
        <arrival publicID="quakeml:service.scedc.caltech.edu/fdsnws/event/1/query?assocaro=424263052">
          <pickID>quakeml:service.scedc.caltech.edu/fdsnws/event/1/query?assocaro=424263052</pickID>
          <phase>P</phase>
          <timeCorrection>-0.11</timeCorrection>
          <azimuth>188.6</azimuth>
          <distance>0.2535</distance>
          <takeoffAngle>
            <value>60.0</value>
          </takeoffAngle>
          <timeResidual>-0.03</timeResidual>
          <timeWeight>0.11</timeWeight>
          <creationInfo>
            <agencyID>CI</agencyID>
            <creationTime>2025-01-07T17:55:48.000000Z</creationTime>
          </creationInfo>
        </arrival>
        <arrival publicID="quakeml:service.scedc.caltech.edu/fdsnws/event/1/query?assocaro=424263060">
          <pickID>quakeml:service.scedc.caltech.edu/fdsnws/event/1/query?assocaro=424263060</pickID>
          <phase>S</phase>
          <timeCorrection>-0.36</timeCorrection>
          <azimuth>188.6</azimuth>
          <distance>0.2535</distance>
          <takeoffAngle>
            <value>61.0</value>
          </takeoffAngle>
          <timeResidual>0.16</timeResidual>
          <timeWeight>0.08</timeWeight>
          <creationInfo>
            <agencyID>CI</agencyID>
            <creationTime>2025-01-07T17:55:48.000000Z</creationTime>
          </creationInfo>
        </arrival>
        <arrival publicID="quakeml:service.scedc.caltech.edu/fdsnws/event/1/query?assocaro=424263068">
          <pickID>quakeml:service.scedc.caltech.edu/fdsnws/event/1/query?assocaro=424263068</pickID>
          <phase>P</phase>
          <timeCorrection>0.0</timeCorrection>
          <azimuth>219.0</azimuth>
          <distance>0.2764</distance>
          <takeoffAngle>
            <value>60.0</value>
          </takeoffAngle>
          <timeResidual>-0.2</timeResidual>
          <timeWeight>0.11</timeWeight>
          <creationInfo>
            <agencyID>CI</agencyID>
            <creationTime>2025-01-07T17:55:48.000000Z</creationTime>
          </creationInfo>
        </arrival>
        <arrival publicID="quakeml:service.scedc.caltech.edu/fdsnws/event/1/query?assocaro=424263076">
          <pickID>quakeml:service.scedc.caltech.edu/fdsnws/event/1/query?assocaro=424263076</pickID>
          <phase>S</phase>
          <timeCorrection>0.0</timeCorrection>
          <azimuth>219.0</azimuth>
          <distance>0.2764</distance>
          <takeoffAngle>
            <value>61.0</value>
          </takeoffAngle>
          <timeResidual>-0.14</timeResidual>
          <timeWeight>0.05</timeWeight>
          <creationInfo>
            <agencyID>CI</agencyID>
            <creationTime>2025-01-07T17:55:48.000000Z</creationTime>
          </creationInfo>
        </arrival>
        <arrival publicID="quakeml:service.scedc.caltech.edu/fdsnws/event/1/query?assocaro=424263084">
          <pickID>quakeml:service.scedc.caltech.edu/fdsnws/event/1/query?assocaro=424263084</pickID>
          <phase>P</phase>
          <timeCorrection>0.2</timeCorrection>
          <azimuth>165.0</azimuth>
          <distance>0.2943</distance>
          <takeoffAngle>
            <value>60.0</value>
          </takeoffAngle>
          <timeResidual>0.12</timeResidual>
          <timeWeight>0.11</timeWeight>
          <creationInfo>
            <agencyID>CI</agencyID>
            <creationTime>2025-01-07T17:55:48.000000Z</creationTime>
          </creationInfo>
        </arrival>
        <arrival publicID="quakeml:service.scedc.caltech.edu/fdsnws/event/1/query?assocaro=424263092">
          <pickID>quakeml:service.scedc.caltech.edu/fdsnws/event/1/query?assocaro=424263092</pickID>
          <phase>S</phase>
          <timeCorrection>-0.18</timeCorrection>
          <azimuth>165.0</azimuth>
          <distance>0.2943</distance>
          <takeoffAngle>
            <value>61.0</value>
          </takeoffAngle>
          <timeResidual>1.25</timeResidual>
          <timeWeight>0.03</timeWeight>
          <creationInfo>
            <agencyID>CI</agencyID>
            <creationTime>2025-01-07T17:55:48.000000Z</creationTime>
          </creationInfo>
        </arrival>
        <arrival publicID="quakeml:service.scedc.caltech.edu/fdsnws/event/1/query?assocaro=424263100">
          <pickID>quakeml:service.scedc.caltech.edu/fdsnws/event/1/query?assocaro=424263100</pickID>
          <phase>P</phase>
          <timeCorrection>-0.15</timeCorrection>
          <azimuth>279.2</azimuth>
          <distance>0.3722</distance>
          <takeoffAngle>
            <value>56.0</value>
          </takeoffAngle>
          <timeResidual>0.07</timeResidual>
          <timeWeight>0.16</timeWeight>
          <creationInfo>
            <agencyID>CI</agencyID>
            <creationTime>2025-01-07T17:55:48.000000Z</creationTime>
          </creationInfo>
        </arrival>
        <arrival publicID="quakeml:service.scedc.caltech.edu/fdsnws/event/1/query?assocaro=424263108">
          <pickID>quakeml:service.scedc.caltech.edu/fdsnws/event/1/query?assocaro=424263108</pickID>
          <phase>S</phase>
          <timeCorrection>-0.35</timeCorrection>
          <azimuth>279.2</azimuth>
          <distance>0.3722</distance>
          <takeoffAngle>
            <value>56.0</value>
          </takeoffAngle>
          <timeResidual>-0.55</timeResidual>
          <timeWeight>0.04</timeWeight>
          <creationInfo>
            <agencyID>CI</agencyID>
            <creationTime>2025-01-07T17:55:48.000000Z</creationTime>
          </creationInfo>
        </arrival>
        <arrival publicID="quakeml:service.scedc.caltech.edu/fdsnws/event/1/query?assocaro=424263116">
          <pickID>quakeml:service.scedc.caltech.edu/fdsnws/event/1/query?assocaro=424263116</pickID>
          <phase>S</phase>
          <timeCorrection>-0.35</timeCorrection>
          <azimuth>225.2</azimuth>
          <distance>0.5638</distance>
          <takeoffAngle>
            <value>55.0</value>
          </takeoffAngle>
          <timeResidual>0.28</timeResidual>
          <timeWeight>0.05</timeWeight>
          <creationInfo>
            <agencyID>CI</agencyID>
            <creationTime>2025-01-07T17:55:48.000000Z</creationTime>
          </creationInfo>
        </arrival>
        <arrival publicID="quakeml:service.scedc.caltech.edu/fdsnws/event/1/query?assocaro=424263124">
          <pickID>quakeml:service.scedc.caltech.edu/fdsnws/event/1/query?assocaro=424263124</pickID>
          <phase>S</phase>
          <timeCorrection>-0.36</timeCorrection>
          <azimuth>238.0</azimuth>
          <distance>0.6687</distance>
          <takeoffAngle>
            <value>55.0</value>
          </takeoffAngle>
          <timeResidual>0.38</timeResidual>
          <timeWeight>0.05</timeWeight>
          <creationInfo>
            <agencyID>CI</agencyID>
            <creationTime>2025-01-07T17:55:48.000000Z</creationTime>
          </creationInfo>
        </arrival>
      </origin>
      <magnitude publicID="quakeml:service.scedc.caltech.edu/fdsnws/event/1/query?magnitudeid=111259300">
        <mag>
          <value>0.64</value>
          <uncertainty>0.109</uncertainty>
        </mag>
        <type>Ml</type>
        <originID>quakeml:service.scedc.caltech.edu/fdsnws/event/1/query?originid=108873420</originID>
        <methodID>smi:ci.anss.org/magnitude/CISNml2</methodID>
        <stationCount>12</stationCount>
        <azimuthalGap>77.5</azimuthalGap>
        <evaluationMode>manual</evaluationMode>
        <evaluationStatus>reviewed</evaluationStatus>
        <stationMagnitudeContribution>
          <stationMagnitudeID>quakeml:service.scedc.caltech.edu/fdsnws/event/1/query?assocammid=872328804</stationMagnitudeID>
          <weight>1.0</weight>
          <residual>-0.01</residual>
        </stationMagnitudeContribution>
        <stationMagnitudeContribution>
          <stationMagnitudeID>quakeml:service.scedc.caltech.edu/fdsnws/event/1/query?assocammid=872328916</stationMagnitudeID>
          <weight>0.0</weight>
          <residual>-0.02</residual>
        </stationMagnitudeContribution>
        <stationMagnitudeContribution>
          <stationMagnitudeID>quakeml:service.scedc.caltech.edu/fdsnws/event/1/query?assocammid=872328876</stationMagnitudeID>
          <weight>1.0</weight>
          <residual>-0.08</residual>
        </stationMagnitudeContribution>
        <stationMagnitudeContribution>
          <stationMagnitudeID>quakeml:service.scedc.caltech.edu/fdsnws/event/1/query?assocammid=872328900</stationMagnitudeID>
          <weight>1.0</weight>
          <residual>-0.08</residual>
        </stationMagnitudeContribution>
        <stationMagnitudeContribution>
          <stationMagnitudeID>quakeml:service.scedc.caltech.edu/fdsnws/event/1/query?assocammid=872328932</stationMagnitudeID>
          <weight>0.0</weight>
          <residual>0.18</residual>
        </stationMagnitudeContribution>
        <stationMagnitudeContribution>
          <stationMagnitudeID>quakeml:service.scedc.caltech.edu/fdsnws/event/1/query?assocammid=872328852</stationMagnitudeID>
          <weight>1.0</weight>
          <residual>-0.12</residual>
        </stationMagnitudeContribution>
        <stationMagnitudeContribution>
          <stationMagnitudeID>quakeml:service.scedc.caltech.edu/fdsnws/event/1/query?assocammid=872328756</stationMagnitudeID>
          <weight>1.0</weight>
          <residual>-0.03</residual>
        </stationMagnitudeContribution>
        <stationMagnitudeContribution>
          <stationMagnitudeID>quakeml:service.scedc.caltech.edu/fdsnws/event/1/query?assocammid=872328788</stationMagnitudeID>
          <weight>1.0</weight>
          <residual>0.02</residual>
        </stationMagnitudeContribution>
        <stationMagnitudeContribution>
          <stationMagnitudeID>quakeml:service.scedc.caltech.edu/fdsnws/event/1/query?assocammid=872328748</stationMagnitudeID>
          <weight>0.0</weight>
          <residual>0.73</residual>
        </stationMagnitudeContribution>
        <stationMagnitudeContribution>
          <stationMagnitudeID>quakeml:service.scedc.caltech.edu/fdsnws/event/1/query?assocammid=872328924</stationMagnitudeID>
          <weight>0.0</weight>
          <residual>0.26</residual>
        </stationMagnitudeContribution>
        <stationMagnitudeContribution>
          <stationMagnitudeID>quakeml:service.scedc.caltech.edu/fdsnws/event/1/query?assocammid=872328908</stationMagnitudeID>
          <weight>0.0</weight>
          <residual>-0.16</residual>
        </stationMagnitudeContribution>
        <stationMagnitudeContribution>
          <stationMagnitudeID>quakeml:service.scedc.caltech.edu/fdsnws/event/1/query?assocammid=872328868</stationMagnitudeID>
          <weight>1.0</weight>
          <residual>-0.12</residual>
        </stationMagnitudeContribution>
        <stationMagnitudeContribution>
          <stationMagnitudeID>quakeml:service.scedc.caltech.edu/fdsnws/event/1/query?assocammid=872328796</stationMagnitudeID>
          <weight>1.0</weight>
          <residual>0.25</residual>
        </stationMagnitudeContribution>
        <stationMagnitudeContribution>
