<?xml version='1.0' encoding='utf-8'?>
<q:quakeml xmlns="http://quakeml.org/xmlns/bed/1.2" xmlns:q="http://quakeml.org/xmlns/quakeml/1.2" xmlns:ns0="http://anss.org/xmlns/catalog/0.1">
  <eventParameters publicID="smi:local/e9b34b64-223d-4f37-8422-e5b9b8dc8aa4">
    <event publicID="quakeml:service.scedc.caltech.edu/fdsnws/event/1/query?eventid=40837735" ns0:datasource="ci" ns0:dataid="ci40837735" ns0:eventsource="ci" ns0:eventid="40837735">
      <preferredOriginID>quakeml:service.scedc.caltech.edu/fdsnws/event/1/query?originid=7946607</preferredOriginID>
      <preferredMagnitudeID>quakeml:service.scedc.caltech.edu/fdsnws/event/1/query?magnitudeid=12815287</preferredMagnitudeID>
      <type>earthquake</type>
      <creationInfo>
        <agencyID>CI</agencyID>
        <agencyURI>quakeml:doi.org/10.7909/C3WD3xH1</agencyURI>
        <creationTime>2025-01-11T03:59:45.000000Z</creationTime>
        <version>4</version>
      </creationInfo>
      <origin publicID="quakeml:service.scedc.caltech.edu/fdsnws/event/1/query?originid=7946607" ns0:datasource="ci" ns0:dataid="ci40837735" ns0:eventsource="ci" ns0:eventid="40837735">
        <time>
          <value>2025-01-11T03:57:44.240000Z</value>
        </time>
        <latitude>
          <value>35.3499985</value>
        </latitude>
        <longitude>
          <value>-117.7910004</value>
        </longitude>
        <depth>
          <value>4890.0</value>
          <uncertainty>770.0</uncertainty>
        </depth>
        <depthType>from location</depthType>
        <timeFixed>false</timeFixed>
        <epicenterFixed>false</epicenterFixed>
        <methodID>smi:ci.anss.org/origin/BINDER</methodID>
        <quality>
          <associatedPhaseCount>87</associatedPhaseCount>
          <usedPhaseCount>58</usedPhaseCount>
          <associatedStationCount>70</associatedStationCount>
          <usedStationCount>47</usedStationCount>
          <standardError>0.19</standardError>
          <azimuthalGap>43.0</azimuthalGap>
          <secondaryAzimuthalGap>379.0</secondaryAzimuthalGap>
          <minimumDistance>0.0938</minimumDistance>
          <maximumDistance>3.198</maximumDistance>
          <medianDistance>0.8795</medianDistance>
        </quality>
        <type>hypocenter</type>
        <evaluationMode>manual</evaluationMode>
        <evaluationStatus>final</evaluationStatus>
        <creationInfo>
          <agencyID>CI</agencyID>
          <creationTime>2025-01-11T03:58:54.000000Z</creationTime>
        </creationInfo>
        <originUncertainty>
          <preferredDescription>confidence ellipsoid</preferredDescription>
          <horizontalUncertainty>220.0</horizontalUncertainty>
          <confidenceLevel>95.0</confidenceLevel>
          <confidenceEllipsoid>
            <semiMajorAxisLength>1848.0</semiMajorAxisLength>
            <semiMinorAxisLength>456.0</semiMinorAxisLength>
            <semiIntermediateAxisLength>552.0</semiIntermediateAxisLength>
            <majorAxisPlunge>86.0</majorAxisPlunge>
            <majorAxisAzimuth>149.0</majorAxisAzimuth>
            <majorAxisRotation>348.0</majorAxisRotation>
          </confidenceEllipsoid>
        </originUncertainty>
        <arrival publicID="quakeml:service.scedc.caltech.edu/fdsnws/event/1/query?assocaro=144581015">
          <pickID>quakeml:service.scedc.caltech.edu/fdsnws/event/1/query?assocaro=144581015</pickID>
          <phase>S</phase>
          <timeCorrection>-0.25</timeCorrection>
          <azimuth>324.0</azimuth>
          <distance>1.661</distance>
          <takeoffAngle>
            <value>48.0</value>
          </takeoffAngle>
          <timeResidual>2.28</timeResidual>
          <timeWeight>0.0</timeWeight>
          <creationInfo>
            <agencyID>CI</agencyID>
            <creationTime>2025-01-11T03:58:54.000000Z</creationTime>
          </creationInfo>
        </arrival>
        <arrival publicID="quakeml:service.scedc.caltech.edu/fdsnws/event/1/query?assocaro=144581023">
          <pickID>quakeml:service.scedc.caltech.edu/fdsnws/event/1/query?assocaro=144581023</pickID>
          <phase>S</phase>
          <timeCorrection>-0.08</timeCorrection>
          <azimuth>169.0</azimuth>
          <distance>1.394</distance>
          <takeoffAngle>
            <value>48.0</value>
          </takeoffAngle>
          <timeResidual>0.28</timeResidual>
          <timeWeight>0.0</timeWeight>
          <creationInfo>
            <agencyID>CI</agencyID>
            <creationTime>2025-01-11T03:58:54.000000Z</creationTime>
          </creationInfo>
        </arrival>
        <arrival publicID="quakeml:service.scedc.caltech.edu/fdsnws/event/1/query?assocaro=144581031">
          <pickID>quakeml:service.scedc.caltech.edu/fdsnws/event/1/query?assocaro=144581031</pickID>
          <phase>S</phase>
          <timeCorrection>0.0</timeCorrection>
          <azimuth>187.0</azimuth>
          <distance>1.635</distance>
          <takeoffAngle>
            <value>48.0</value>
          </takeoffAngle>
          <timeResidual>0.41</timeResidual>
          <timeWeight>0.0</timeWeight>
          <creationInfo>
            <agencyID>CI</agencyID>
            <creationTime>2025-01-11T03:58:54.000000Z</creationTime>
          </creationInfo>
        </arrival>
        <arrival publicID="quakeml:service.scedc.caltech.edu/fdsnws/event/1/query?assocaro=144581039">
          <pickID>quakeml:service.scedc.caltech.edu/fdsnws/event/1/query?assocaro=144581039</pickID>
          <phase>S</phase>
          <timeCorrection>0.0</timeCorrection>
          <azimuth>196.0</azimuth>
          <distance>1.615</distance>
          <takeoffAngle>
            <value>48.0</value>
          </takeoffAngle>
          <timeResidual>2.15</timeResidual>
          <timeWeight>0.0</timeWeight>
          <creationInfo>
            <agencyID>CI</agencyID>
            <creationTime>2025-01-11T03:58:54.000000Z</creationTime>
          </creationInfo>
        </arrival>
        <arrival publicID="quakeml:service.scedc.caltech.edu/fdsnws/event/1/query?assocaro=144581047">
          <pickID>quakeml:service.scedc.caltech.edu/fdsnws/event/1/query?assocaro=144581047</pickID>
          <phase>S</phase>
          <timeCorrection>0.0</timeCorrection>
          <azimuth>176.0</azimuth>
          <distance>1.292</distance>
          <takeoffAngle>
            <value>60.0</value>
          </takeoffAngle>
          <timeResidual>0.98</timeResidual>
          <timeWeight>0.0</timeWeight>
          <creationInfo>
            <agencyID>CI</agencyID>
            <creationTime>2025-01-11T03:58:54.000000Z</creationTime>
          </creationInfo>
        </arrival>
        <arrival publicID="quakeml:service.scedc.caltech.edu/fdsnws/event/1/query?assocaro=144581055">
          <pickID>quakeml:service.scedc.caltech.edu/fdsnws/event/1/query?assocaro=144581055</pickID>
          <phase>S</phase>
          <timeCorrection>0.08</timeCorrection>
          <azimuth>206.0</azimuth>
          <distance>1.244</distance>
          <takeoffAngle>
            <value>66.0</value>
          </takeoffAngle>
          <timeResidual>0.11</timeResidual>
          <timeWeight>0.0</timeWeight>
          <creationInfo>
            <agencyID>CI</agencyID>
            <creationTime>2025-01-11T03:58:54.000000Z</creationTime>
          </creationInfo>
        </arrival>
        <arrival publicID="quakeml:service.scedc.caltech.edu/fdsnws/event/1/query?assocaro=144581063">
          <pickID>quakeml:service.scedc.caltech.edu/fdsnws/event/1/query?assocaro=144581063</pickID>
          <phase>P</phase>
          <timeCorrection>0.0</timeCorrection>
          <azimuth>106.0</azimuth>
          <distance>1.004</distance>
          <takeoffAngle>
            <value>66.0</value>
          </takeoffAngle>
          <timeResidual>-0.01</timeResidual>
          <timeWeight>0.09</timeWeight>
          <creationInfo>
            <agencyID>CI</agencyID>
            <creationTime>2025-01-11T03:58:54.000000Z</creationTime>
          </creationInfo>
        </arrival>
        <arrival publicID="quakeml:service.scedc.caltech.edu/fdsnws/event/1/query?assocaro=144581071">
          <pickID>quakeml:service.scedc.caltech.edu/fdsnws/event/1/query?assocaro=144581071</pickID>
          <phase>S</phase>
          <timeCorrection>0.0</timeCorrection>
          <azimuth>133.0</azimuth>
          <distance>0.7324</distance>
          <takeoffAngle>
            <value>69.0</value>
          </takeoffAngle>
          <timeResidual>0.77</timeResidual>
          <timeWeight>0.05</timeWeight>
          <creationInfo>
            <agencyID>CI</agencyID>
            <creationTime>2025-01-11T03:58:54.000000Z</creationTime>
          </creationInfo>
        </arrival>
        <arrival publicID="quakeml:service.scedc.caltech.edu/fdsnws/event/1/query?assocaro=144581079">
          <pickID>quakeml:service.scedc.caltech.edu/fdsnws/event/1/query?assocaro=144581079</pickID>
          <phase>P</phase>
          <timeCorrection>0.0</timeCorrection>
          <azimuth>133.0</azimuth>
          <distance>0.7324</distance>
          <takeoffAngle>
            <value>70.0</value>
          </takeoffAngle>
          <timeResidual>-0.01</timeResidual>
          <timeWeight>0.15</timeWeight>
          <creationInfo>
            <agencyID>CI</agencyID>
            <creationTime>2025-01-11T03:58:54.000000Z</creationTime>
          </creationInfo>
        </arrival>
        <arrival publicID="quakeml:service.scedc.caltech.edu/fdsnws/event/1/query?assocaro=144581087">
          <pickID>quakeml:service.scedc.caltech.edu/fdsnws/event/1/query?assocaro=144581087</pickID>
          <phase>S</phase>
          <timeCorrection>-0.24</timeCorrection>
          <azimuth>224.0</azimuth>
          <distance>0.27</distance>
          <takeoffAngle>
            <value>72.0</value>
          </takeoffAngle>
          <timeResidual>0.45</timeResidual>
          <timeWeight>0.07</timeWeight>
          <creationInfo>
            <agencyID>CI</agencyID>
            <creationTime>2025-01-11T03:58:54.000000Z</creationTime>
          </creationInfo>
        </arrival>
        <arrival publicID="quakeml:service.scedc.caltech.edu/fdsnws/event/1/query?assocaro=144581095">
          <pickID>quakeml:service.scedc.caltech.edu/fdsnws/event/1/query?assocaro=144581095</pickID>
          <phase>P</phase>
          <timeCorrection>-0.01</timeCorrection>
          <azimuth>224.0</azimuth>
          <distance>0.27</distance>
          <takeoffAngle>
            <value>73.0</value>
          </takeoffAngle>
          <timeResidual>-0.03</timeResidual>
          <timeWeight>0.2</timeWeight>
          <creationInfo>
            <agencyID>CI</agencyID>
            <creationTime>2025-01-11T03:58:54.000000Z</creationTime>
          </creationInfo>
        </arrival>
        <arrival publicID="quakeml:service.scedc.caltech.edu/fdsnws/event/1/query?assocaro=144581103">
          <pickID>quakeml:service.scedc.caltech.edu/fdsnws/event/1/query?assocaro=144581103</pickID>
          <phase>S</phase>
          <timeCorrection>0.11</timeCorrection>
          <azimuth>63.0</azimuth>
          <distance>0.3895</distance>
          <takeoffAngle>
            <value>72.0</value>
          </takeoffAngle>
          <timeResidual>0.16</timeResidual>
          <timeWeight>0.1</timeWeight>
          <creationInfo>
            <agencyID>CI</agencyID>
            <creationTime>2025-01-11T03:58:54.000000Z</creationTime>
          </creationInfo>
        </arrival>
        <arrival publicID="quakeml:service.scedc.caltech.edu/fdsnws/event/1/query?assocaro=144581111">
          <pickID>quakeml:service.scedc.caltech.edu/fdsnws/event/1/query?assocaro=144581111</pickID>
          <phase>P</phase>
          <timeCorrection>0.13</timeCorrection>
          <azimuth>63.0</azimuth>
          <distance>0.3895</distance>
          <takeoffAngle>
            <value>73.0</value>
          </takeoffAngle>
          <timeResidual>-0.15</timeResidual>
          <timeWeight>0.2</timeWeight>
          <creationInfo>
            <agencyID>CI</agencyID>
            <creationTime>2025-01-11T03:58:54.000000Z</creationTime>
          </creationInfo>
        </arrival>
        <arrival publicID="quakeml:service.scedc.caltech.edu/fdsnws/event/1/query?assocaro=144581119">
          <pickID>quakeml:service.scedc.caltech.edu/fdsnws/event/1/query?assocaro=144581119</pickID>
          <phase>P</phase>
          <timeCorrection>0.0</timeCorrection>
          <azimuth>240.0</azimuth>
          <distance>0.3877</distance>
          <takeoffAngle>
            <value>73.0</value>
          </takeoffAngle>
          <timeResidual>-0.1</timeResidual>
          <timeWeight>0.2</timeWeight>
          <creationInfo>
            <agencyID>CI</agencyID>
            <creationTime>2025-01-11T03:58:54.000000Z</creationTime>
          </creationInfo>
        </arrival>
        <arrival publicID="quakeml:service.scedc.caltech.edu/fdsnws/event/1/query?assocaro=144581127">
          <pickID>quakeml:service.scedc.caltech.edu/fdsnws/event/1/query?assocaro=144581127</pickID>
          <phase>P</phase>
          <timeCorrection>0.0</timeCorrection>
          <azimuth>176.0</azimuth>
          <distance>1.438</distance>
          <takeoffAngle>
            <value>48.0</value>
          </takeoffAngle>
          <timeResidual>2.18</timeResidual>
          <timeWeight>0.0</timeWeight>
          <creationInfo>
            <agencyID>CI</agencyID>
            <creationTime>2025-01-11T03:58:54.000000Z</creationTime>
          </creationInfo>
        </arrival>
        <arrival publicID="quakeml:service.scedc.caltech.edu/fdsnws/event/1/query?assocaro=144581135">
          <pickID>quakeml:service.scedc.caltech.edu/fdsnws/event/1/query?assocaro=144581135</pickID>
          <phase>P</phase>
          <timeCorrection>-0.17</timeCorrection>
          <azimuth>200.0</azimuth>
          <distance>0.8683</distance>
          <takeoffAngle>
            <value>70.0</value>
          </takeoffAngle>
          <timeResidual>0.93</timeResidual>
          <timeWeight>0.05</timeWeight>
          <creationInfo>
            <agencyID>CI</agencyID>
            <creationTime>2025-01-11T03:58:54.000000Z</creationTime>
          </creationInfo>
        </arrival>
        <arrival publicID="quakeml:service.scedc.caltech.edu/fdsnws/event/1/query?assocaro=144581143">
          <pickID>quakeml:service.scedc.caltech.edu/fdsnws/event/1/query?assocaro=144581143</pickID>
          <phase>P</phase>
          <timeCorrection>0.0</timeCorrection>
          <azimuth>188.0</azimuth>
          <distance>1.487</distance>
          <takeoffAngle>
            <value>48.0</value>
          </takeoffAngle>
          <timeResidual>0.42</timeResidual>
          <timeWeight>0.0</timeWeight>
          <creationInfo>
            <agencyID>CI</agencyID>
            <creationTime>2025-01-11T03:58:54.000000Z</creationTime>
          </creationInfo>
        </arrival>
        <arrival publicID="quakeml:service.scedc.caltech.edu/fdsnws/event/1/query?assocaro=144581151">
          <pickID>quakeml:service.scedc.caltech.edu/fdsnws/event/1/query?assocaro=144581151</pickID>
          <phase>P</phase>
          <timeCorrection>0.0</timeCorrection>
          <azimuth>173.0</azimuth>
          <distance>1.798</distance>
          <takeoffAngle>
            <value>48.0</value>
          </takeoffAngle>
          <timeResidual>0.5</timeResidual>
          <timeWeight>0.0</timeWeight>
          <creationInfo>
            <agencyID>CI</agencyID>
            <creationTime>2025-01-11T03:58:54.000000Z</creationTime>
          </creationInfo>
        </arrival>
        <arrival publicID="quakeml:service.scedc.caltech.edu/fdsnws/event/1/query?assocaro=144581159">
          <pickID>quakeml:service.scedc.caltech.edu/fdsnws/event/1/query?assocaro=144581159</pickID>
          <phase>S</phase>
          <timeCorrection>-0.05</timeCorrection>
          <azimuth>203.0</azimuth>
          <distance>1.182</distance>
          <takeoffAngle>
            <value>66.0</value>
          </takeoffAngle>
          <timeResidual>2.05</timeResidual>
          <timeWeight>0.0</timeWeight>
          <creationInfo>
            <agencyID>CI</agencyID>
            <creationTime>2025-01-11T03:58:54.000000Z</creationTime>
          </creationInfo>
        </arrival>
        <arrival publicID="quakeml:service.scedc.caltech.edu/fdsnws/event/1/query?assocaro=144581167">
          <pickID>quakeml:service.scedc.caltech.edu/fdsnws/event/1/query?assocaro=144581167</pickID>
          <phase>P</phase>
          <timeCorrection>-0.17</timeCorrection>
          <azimuth>163.0</azimuth>
          <distance>2.449</distance>
          <takeoffAngle>
            <value>48.0</value>
          </takeoffAngle>
          <timeResidual>2.68</timeResidual>
          <timeWeight>0.0</timeWeight>
          <creationInfo>
            <agencyID>CI</agencyID>
            <creationTime>2025-01-11T03:58:54.000000Z</creationTime>
          </creationInfo>
        </arrival>
        <arrival publicID="quakeml:service.scedc.caltech.edu/fdsnws/event/1/query?assocaro=144581175">
          <pickID>quakeml:service.scedc.caltech.edu/fdsnws/event/1/query?assocaro=144581175</pickID>
          <phase>P</phase>
          <timeCorrection>0.49</timeCorrection>
          <azimuth>141.0</azimuth>
          <distance>3.198</distance>
          <takeoffAngle>
            <value>48.0</value>
          </takeoffAngle>
          <timeResidual>5.77</timeResidual>
          <timeWeight>0.0</timeWeight>
          <creationInfo>
            <agencyID>CI</agencyID>
            <creationTime>2025-01-11T03:58:54.000000Z</creationTime>
          </creationInfo>
        </arrival>
        <arrival publicID="quakeml:service.scedc.caltech.edu/fdsnws/event/1/query?assocaro=144581183">
          <pickID>quakeml:service.scedc.caltech.edu/fdsnws/event/1/query?assocaro=144581183</pickID>
          <phase>P</phase>
          <timeCorrection>0.0</timeCorrection>
          <azimuth>25.0</azimuth>
          <distance>0.2287</distance>
          <takeoffAngle>
            <value>73.0</value>
          </takeoffAngle>
          <timeResidual>-0.06</timeResidual>
          <timeWeight>0.15</timeWeight>
          <creationInfo>
            <agencyID>CI</agencyID>
            <creationTime>2025-01-11T03:58:54.000000Z</creationTime>
          </creationInfo>
        </arrival>
        <arrival publicID="quakeml:service.scedc.caltech.edu/fdsnws/event/1/query?assocaro=144581191">
          <pickID>quakeml:service.scedc.caltech.edu/fdsnws/event/1/query?assocaro=144581191</pickID>
          <phase>P</phase>
          <timeCorrection>-0.1</timeCorrection>
          <azimuth>209.0</azimuth>
          <distance>0.0938</distance>
          <takeoffAngle>
            <value>110.0</value>
          </takeoffAngle>
          <timeResidual>0.05</timeResidual>
          <timeWeight>0.2</timeWeight>
          <creationInfo>
            <agencyID>CI</agencyID>
            <creationTime>2025-01-11T03:58:54.000000Z</creationTime>
          </creationInfo>
        </arrival>
        <arrival publicID="quakeml:service.scedc.caltech.edu/fdsnws/event/1/query?assocaro=144581199">
          <pickID>quakeml:service.scedc.caltech.edu/fdsnws/event/1/query?assocaro=144581199</pickID>
          <phase>P</phase>
          <timeCorrection>-0.12</timeCorrection>
          <azimuth>200.0</azimuth>
          <distance>0.4965</distance>
          <takeoffAngle>
            <value>73.0</value>
          </takeoffAngle>
          <timeResidual>-0.22</timeResidual>
          <timeWeight>0.1</timeWeight>
          <creationInfo>
            <agencyID>CI</agencyID>
            <creationTime>2025-01-11T03:58:54.000000Z</creationTime>
          </creationInfo>
        </arrival>
        <arrival publicID="quakeml:service.scedc.caltech.edu/fdsnws/event/1/query?assocaro=144581207">
