<?xml version='1.0' encoding='utf-8'?>
<q:quakeml xmlns="http://quakeml.org/xmlns/bed/1.2" xmlns:q="http://quakeml.org/xmlns/quakeml/1.2" xmlns:ns0="http://anss.org/xmlns/catalog/0.1">
  <eventParameters publicID="smi:local/2b67a1ca-6294-46f5-85c5-62f38416236a">
    <event publicID="quakeml:service.scedc.caltech.edu/fdsnws/event/1/query?eventid=40831535" ns0:datasource="ci" ns0:dataid="ci40831535" ns0:eventsource="ci" ns0:eventid="40831535">
      <preferredOriginID>quakeml:service.scedc.caltech.edu/fdsnws/event/1/query?originid=108872172</preferredOriginID>
      <preferredMagnitudeID>quakeml:service.scedc.caltech.edu/fdsnws/event/1/query?magnitudeid=111258012</preferredMagnitudeID>
      <type>earthquake</type>
      <creationInfo>
        <agencyID>CI</agencyID>
        <agencyURI>quakeml:doi.org/10.7909/C3WD3xH1</agencyURI>
        <creationTime>2025-01-03T01:10:21.000000Z</creationTime>
        <version>7</version>
      </creationInfo>
      <origin publicID="quakeml:service.scedc.caltech.edu/fdsnws/event/1/query?originid=108872172" ns0:datasource="ci" ns0:dataid="ci40831535" ns0:eventsource="ci" ns0:eventid="40831535">
        <time>
          <value>2025-01-01T15:34:05.790000Z</value>
        </time>
        <latitude>
          <value>32.7806667</value>
        </latitude>
        <longitude>
          <value>-115.4391667</value>
        </longitude>
        <depth>
          <value>15000.0</value>
          <uncertainty>480.0</uncertainty>
        </depth>
        <depthType>from location</depthType>
        <timeFixed>false</timeFixed>
        <epicenterFixed>false</epicenterFixed>
        <methodID>smi:ci.anss.org/origin/HYP2000</methodID>
        <quality>
          <associatedPhaseCount>98</associatedPhaseCount>
          <usedPhaseCount>96</usedPhaseCount>
          <associatedStationCount>63</associatedStationCount>
          <usedStationCount>63</usedStationCount>
          <standardError>0.29</standardError>
          <azimuthalGap>32.0</azimuthalGap>
          <secondaryAzimuthalGap>365.0</secondaryAzimuthalGap>
          <minimumDistance>0.02541</minimumDistance>
          <maximumDistance>1.198</maximumDistance>
          <medianDistance>0.5987</medianDistance>
        </quality>
        <type>hypocenter</type>
        <evaluationMode>manual</evaluationMode>
        <evaluationStatus>final</evaluationStatus>
        <creationInfo>
          <agencyID>CI</agencyID>
          <creationTime>2025-01-03T01:10:21.000000Z</creationTime>
        </creationInfo>
        <originUncertainty>
          <preferredDescription>confidence ellipsoid</preferredDescription>
          <horizontalUncertainty>280.0</horizontalUncertainty>
          <confidenceLevel>95.0</confidenceLevel>
          <confidenceEllipsoid>
            <semiMajorAxisLength>1176.0</semiMajorAxisLength>
            <semiMinorAxisLength>552.0</semiMinorAxisLength>
            <semiIntermediateAxisLength>672.0</semiIntermediateAxisLength>
            <majorAxisPlunge>85.0</majorAxisPlunge>
            <majorAxisAzimuth>104.0</majorAxisAzimuth>
            <majorAxisRotation>80.0</majorAxisRotation>
          </confidenceEllipsoid>
        </originUncertainty>
        <arrival publicID="quakeml:service.scedc.caltech.edu/fdsnws/event/1/query?assocaro=266188973">
          <pickID>quakeml:service.scedc.caltech.edu/fdsnws/event/1/query?assocaro=266188973</pickID>
          <phase>P</phase>
          <timeCorrection>0.49</timeCorrection>
          <azimuth>345.4</azimuth>
          <distance>0.02541</distance>
          <takeoffAngle>
            <value>168.0</value>
          </takeoffAngle>
          <timeResidual>-0.88</timeResidual>
          <timeWeight>0.12</timeWeight>
          <creationInfo>
            <agencyID>CI</agencyID>
            <creationTime>2025-01-03T01:10:21.000000Z</creationTime>
          </creationInfo>
        </arrival>
        <arrival publicID="quakeml:service.scedc.caltech.edu/fdsnws/event/1/query?assocaro=266188989">
          <pickID>quakeml:service.scedc.caltech.edu/fdsnws/event/1/query?assocaro=266188989</pickID>
          <phase>P</phase>
          <timeCorrection>0.37</timeCorrection>
          <azimuth>1.9</azimuth>
          <distance>0.08099</distance>
          <takeoffAngle>
            <value>146.0</value>
          </takeoffAngle>
          <timeResidual>-0.39</timeResidual>
          <timeWeight>0.25</timeWeight>
          <creationInfo>
            <agencyID>CI</agencyID>
            <creationTime>2025-01-03T01:10:21.000000Z</creationTime>
          </creationInfo>
        </arrival>
        <arrival publicID="quakeml:service.scedc.caltech.edu/fdsnws/event/1/query?assocaro=266189005">
          <pickID>quakeml:service.scedc.caltech.edu/fdsnws/event/1/query?assocaro=266189005</pickID>
          <phase>P</phase>
          <timeCorrection>0.0</timeCorrection>
          <azimuth>257.6</azimuth>
          <distance>0.1346</distance>
          <takeoffAngle>
            <value>130.0</value>
          </takeoffAngle>
          <timeResidual>0.26</timeResidual>
          <timeWeight>0.25</timeWeight>
          <creationInfo>
            <agencyID>CI</agencyID>
            <creationTime>2025-01-03T01:10:21.000000Z</creationTime>
          </creationInfo>
        </arrival>
        <arrival publicID="quakeml:service.scedc.caltech.edu/fdsnws/event/1/query?assocaro=266189021">
          <pickID>quakeml:service.scedc.caltech.edu/fdsnws/event/1/query?assocaro=266189021</pickID>
          <phase>P</phase>
          <timeCorrection>0.0</timeCorrection>
          <azimuth>264.3</azimuth>
          <distance>0.1539</distance>
          <takeoffAngle>
            <value>126.0</value>
          </takeoffAngle>
          <timeResidual>0.41</timeResidual>
          <timeWeight>0.19</timeWeight>
          <creationInfo>
            <agencyID>CI</agencyID>
            <creationTime>2025-01-03T01:10:21.000000Z</creationTime>
          </creationInfo>
        </arrival>
        <arrival publicID="quakeml:service.scedc.caltech.edu/fdsnws/event/1/query?assocaro=266189069">
          <pickID>quakeml:service.scedc.caltech.edu/fdsnws/event/1/query?assocaro=266189069</pickID>
          <phase>S</phase>
          <timeCorrection>0.33</timeCorrection>
          <azimuth>286.1</azimuth>
          <distance>0.2533</distance>
          <takeoffAngle>
            <value>111.0</value>
          </takeoffAngle>
          <timeResidual>1.07</timeResidual>
          <timeWeight>0.01</timeWeight>
          <creationInfo>
            <agencyID>CI</agencyID>
            <creationTime>2025-01-03T01:10:21.000000Z</creationTime>
          </creationInfo>
        </arrival>
        <arrival publicID="quakeml:service.scedc.caltech.edu/fdsnws/event/1/query?assocaro=266189085">
          <pickID>quakeml:service.scedc.caltech.edu/fdsnws/event/1/query?assocaro=266189085</pickID>
          <phase>P</phase>
          <timeCorrection>0.26</timeCorrection>
          <azimuth>72.6</azimuth>
          <distance>0.2784</distance>
          <takeoffAngle>
            <value>108.0</value>
          </takeoffAngle>
          <timeResidual>0.26</timeResidual>
          <timeWeight>0.19</timeWeight>
          <creationInfo>
            <agencyID>CI</agencyID>
            <creationTime>2025-01-03T01:10:21.000000Z</creationTime>
          </creationInfo>
        </arrival>
        <arrival publicID="quakeml:service.scedc.caltech.edu/fdsnws/event/1/query?assocaro=266189173">
          <pickID>quakeml:service.scedc.caltech.edu/fdsnws/event/1/query?assocaro=266189173</pickID>
          <phase>S</phase>
          <timeCorrection>-0.27</timeCorrection>
          <azimuth>252.0</azimuth>
          <distance>0.4284</distance>
          <takeoffAngle>
            <value>99.0</value>
          </takeoffAngle>
          <timeResidual>0.13</timeResidual>
          <timeWeight>0.06</timeWeight>
          <creationInfo>
            <agencyID>CI</agencyID>
            <creationTime>2025-01-03T01:10:21.000000Z</creationTime>
          </creationInfo>
        </arrival>
        <arrival publicID="quakeml:service.scedc.caltech.edu/fdsnws/event/1/query?assocaro=266189189">
          <pickID>quakeml:service.scedc.caltech.edu/fdsnws/event/1/query?assocaro=266189189</pickID>
          <phase>S</phase>
          <timeCorrection>-0.08</timeCorrection>
          <azimuth>63.6</azimuth>
          <distance>0.4325</distance>
          <takeoffAngle>
            <value>99.0</value>
          </takeoffAngle>
          <timeResidual>0.47</timeResidual>
          <timeWeight>0.06</timeWeight>
          <creationInfo>
            <agencyID>CI</agencyID>
            <creationTime>2025-01-03T01:10:21.000000Z</creationTime>
          </creationInfo>
        </arrival>
        <arrival publicID="quakeml:service.scedc.caltech.edu/fdsnws/event/1/query?assocaro=266189293">
          <pickID>quakeml:service.scedc.caltech.edu/fdsnws/event/1/query?assocaro=266189293</pickID>
          <phase>P</phase>
          <timeCorrection>0.0</timeCorrection>
          <azimuth>155.4</azimuth>
          <distance>0.5648</distance>
          <takeoffAngle>
            <value>95.0</value>
          </takeoffAngle>
          <timeResidual>0.16</timeResidual>
          <timeWeight>0.12</timeWeight>
          <creationInfo>
            <agencyID>CI</agencyID>
            <creationTime>2025-01-03T01:10:21.000000Z</creationTime>
          </creationInfo>
        </arrival>
        <arrival publicID="quakeml:service.scedc.caltech.edu/fdsnws/event/1/query?assocaro=424226628">
          <pickID>quakeml:service.scedc.caltech.edu/fdsnws/event/1/query?assocaro=424226628</pickID>
          <phase>S</phase>
          <timeCorrection>1.03</timeCorrection>
          <azimuth>345.4</azimuth>
          <distance>0.02541</distance>
          <takeoffAngle>
            <value>168.0</value>
          </takeoffAngle>
          <timeResidual>-1.06</timeResidual>
          <timeWeight>0.06</timeWeight>
          <creationInfo>
            <agencyID>CI</agencyID>
            <creationTime>2025-01-03T01:10:21.000000Z</creationTime>
          </creationInfo>
        </arrival>
        <arrival publicID="quakeml:service.scedc.caltech.edu/fdsnws/event/1/query?assocaro=424226636">
          <pickID>quakeml:service.scedc.caltech.edu/fdsnws/event/1/query?assocaro=424226636</pickID>
          <phase>S</phase>
          <timeCorrection>0.69</timeCorrection>
          <azimuth>1.9</azimuth>
          <distance>0.08099</distance>
          <takeoffAngle>
            <value>146.0</value>
          </takeoffAngle>
          <timeResidual>-1.85</timeResidual>
          <timeWeight>0.0</timeWeight>
          <creationInfo>
            <agencyID>CI</agencyID>
            <creationTime>2025-01-03T01:10:21.000000Z</creationTime>
          </creationInfo>
        </arrival>
        <arrival publicID="quakeml:service.scedc.caltech.edu/fdsnws/event/1/query?assocaro=424226644">
          <pickID>quakeml:service.scedc.caltech.edu/fdsnws/event/1/query?assocaro=424226644</pickID>
          <phase>S</phase>
          <timeCorrection>0.0</timeCorrection>
          <azimuth>257.6</azimuth>
          <distance>0.1346</distance>
          <takeoffAngle>
            <value>130.0</value>
          </takeoffAngle>
          <timeResidual>0.27</timeResidual>
          <timeWeight>0.03</timeWeight>
          <creationInfo>
            <agencyID>CI</agencyID>
            <creationTime>2025-01-03T01:10:21.000000Z</creationTime>
          </creationInfo>
        </arrival>
        <arrival publicID="quakeml:service.scedc.caltech.edu/fdsnws/event/1/query?assocaro=424226652">
          <pickID>quakeml:service.scedc.caltech.edu/fdsnws/event/1/query?assocaro=424226652</pickID>
          <phase>P</phase>
          <timeCorrection>0.4</timeCorrection>
          <azimuth>181.8</azimuth>
          <distance>0.1487</distance>
          <takeoffAngle>
            <value>127.0</value>
          </takeoffAngle>
          <timeResidual>-0.33</timeResidual>
          <timeWeight>0.25</timeWeight>
          <creationInfo>
            <agencyID>CI</agencyID>
            <creationTime>2025-01-03T01:10:21.000000Z</creationTime>
          </creationInfo>
        </arrival>
        <arrival publicID="quakeml:service.scedc.caltech.edu/fdsnws/event/1/query?assocaro=424226660">
          <pickID>quakeml:service.scedc.caltech.edu/fdsnws/event/1/query?assocaro=424226660</pickID>
          <phase>S</phase>
          <timeCorrection>0.79</timeCorrection>
          <azimuth>181.8</azimuth>
          <distance>0.1487</distance>
          <takeoffAngle>
            <value>127.0</value>
          </takeoffAngle>
          <timeResidual>0.17</timeResidual>
          <timeWeight>0.06</timeWeight>
          <creationInfo>
            <agencyID>CI</agencyID>
            <creationTime>2025-01-03T01:10:21.000000Z</creationTime>
          </creationInfo>
        </arrival>
        <arrival publicID="quakeml:service.scedc.caltech.edu/fdsnws/event/1/query?assocaro=424226668">
          <pickID>quakeml:service.scedc.caltech.edu/fdsnws/event/1/query?assocaro=424226668</pickID>
          <phase>P</phase>
          <timeCorrection>0.27</timeCorrection>
          <azimuth>319.8</azimuth>
          <distance>0.1581</distance>
          <takeoffAngle>
            <value>125.0</value>
          </takeoffAngle>
          <timeResidual>0.22</timeResidual>
          <timeWeight>0.19</timeWeight>
          <creationInfo>
            <agencyID>CI</agencyID>
            <creationTime>2025-01-03T01:10:21.000000Z</creationTime>
          </creationInfo>
        </arrival>
        <arrival publicID="quakeml:service.scedc.caltech.edu/fdsnws/event/1/query?assocaro=424226676">
          <pickID>quakeml:service.scedc.caltech.edu/fdsnws/event/1/query?assocaro=424226676</pickID>
          <phase>S</phase>
          <timeCorrection>0.6</timeCorrection>
          <azimuth>319.8</azimuth>
          <distance>0.1581</distance>
          <takeoffAngle>
            <value>125.0</value>
          </takeoffAngle>
          <timeResidual>-0.76</timeResidual>
          <timeWeight>0.06</timeWeight>
          <creationInfo>
            <agencyID>CI</agencyID>
            <creationTime>2025-01-03T01:10:21.000000Z</creationTime>
          </creationInfo>
        </arrival>
        <arrival publicID="quakeml:service.scedc.caltech.edu/fdsnws/event/1/query?assocaro=424226684">
          <pickID>quakeml:service.scedc.caltech.edu/fdsnws/event/1/query?assocaro=424226684</pickID>
          <phase>P</phase>
          <timeCorrection>0.0</timeCorrection>
          <azimuth>29.1</azimuth>
          <distance>0.2047</distance>
          <takeoffAngle>
            <value>117.0</value>
          </takeoffAngle>
          <timeResidual>0.13</timeResidual>
          <timeWeight>0.06</timeWeight>
          <creationInfo>
            <agencyID>CI</agencyID>
            <creationTime>2025-01-03T01:10:21.000000Z</creationTime>
          </creationInfo>
        </arrival>
        <arrival publicID="quakeml:service.scedc.caltech.edu/fdsnws/event/1/query?assocaro=424226692">
          <pickID>quakeml:service.scedc.caltech.edu/fdsnws/event/1/query?assocaro=424226692</pickID>
          <phase>P</phase>
          <timeCorrection>0.33</timeCorrection>
          <azimuth>286.1</azimuth>
          <distance>0.2533</distance>
          <takeoffAngle>
            <value>111.0</value>
          </takeoffAngle>
          <timeResidual>0.13</timeResidual>
          <timeWeight>0.19</timeWeight>
          <creationInfo>
            <agencyID>CI</agencyID>
            <creationTime>2025-01-03T01:10:21.000000Z</creationTime>
          </creationInfo>
        </arrival>
        <arrival publicID="quakeml:service.scedc.caltech.edu/fdsnws/event/1/query?assocaro=424226700">
          <pickID>quakeml:service.scedc.caltech.edu/fdsnws/event/1/query?assocaro=424226700</pickID>
          <phase>P</phase>
          <timeCorrection>0.0</timeCorrection>
          <azimuth>206.3</azimuth>
          <distance>0.2703</distance>
          <takeoffAngle>
            <value>109.0</value>
          </takeoffAngle>
          <timeResidual>-0.24</timeResidual>
          <timeWeight>0.19</timeWeight>
          <creationInfo>
            <agencyID>CI</agencyID>
            <creationTime>2025-01-03T01:10:21.000000Z</creationTime>
          </creationInfo>
        </arrival>
        <arrival publicID="quakeml:service.scedc.caltech.edu/fdsnws/event/1/query?assocaro=424226708">
          <pickID>quakeml:service.scedc.caltech.edu/fdsnws/event/1/query?assocaro=424226708</pickID>
          <phase>S</phase>
          <timeCorrection>0.0</timeCorrection>
          <azimuth>206.3</azimuth>
          <distance>0.2703</distance>
          <takeoffAngle>
            <value>109.0</value>
          </takeoffAngle>
          <timeResidual>0.1</timeResidual>
          <timeWeight>0.06</timeWeight>
          <creationInfo>
            <agencyID>CI</agencyID>
            <creationTime>2025-01-03T01:10:21.000000Z</creationTime>
          </creationInfo>
        </arrival>
        <arrival publicID="quakeml:service.scedc.caltech.edu/fdsnws/event/1/query?assocaro=424226716">
          <pickID>quakeml:service.scedc.caltech.edu/fdsnws/event/1/query?assocaro=424226716</pickID>
          <phase>P</phase>
          <timeCorrection>0.05</timeCorrection>
          <azimuth>241.6</azimuth>
          <distance>0.2753</distance>
          <takeoffAngle>
            <value>109.0</value>
          </takeoffAngle>
          <timeResidual>-0.32</timeResidual>
          <timeWeight>0.12</timeWeight>
          <creationInfo>
            <agencyID>CI</agencyID>
            <creationTime>2025-01-03T01:10:21.000000Z</creationTime>
          </creationInfo>
        </arrival>
        <arrival publicID="quakeml:service.scedc.caltech.edu/fdsnws/event/1/query?assocaro=424226724">
          <pickID>quakeml:service.scedc.caltech.edu/fdsnws/event/1/query?assocaro=424226724</pickID>
          <phase>S</phase>
          <timeCorrection>-0.06</timeCorrection>
          <azimuth>241.6</azimuth>
          <distance>0.2753</distance>
          <takeoffAngle>
            <value>109.0</value>
          </takeoffAngle>
          <timeResidual>-0.13</timeResidual>
          <timeWeight>0.06</timeWeight>
          <creationInfo>
            <agencyID>CI</agencyID>
            <creationTime>2025-01-03T01:10:21.000000Z</creationTime>
          </creationInfo>
        </arrival>
        <arrival publicID="quakeml:service.scedc.caltech.edu/fdsnws/event/1/query?assocaro=424226732">
          <pickID>quakeml:service.scedc.caltech.edu/fdsnws/event/1/query?assocaro=424226732</pickID>
          <phase>S</phase>
          <timeCorrection>0.15</timeCorrection>
          <azimuth>72.6</azimuth>
          <distance>0.2784</distance>
          <takeoffAngle>
            <value>108.0</value>
          </takeoffAngle>
          <timeResidual>0.43</timeResidual>
          <timeWeight>0.06</timeWeight>
          <creationInfo>
            <agencyID>CI</agencyID>
            <creationTime>2025-01-03T01:10:21.000000Z</creationTime>
          </creationInfo>
        </arrival>
        <arrival publicID="quakeml:service.scedc.caltech.edu/fdsnws/event/1/query?assocaro=424226740">
          <pickID>quakeml:service.scedc.caltech.edu/fdsnws/event/1/query?assocaro=424226740</pickID>
          <phase>P</phase>
          <timeCorrection>0.33</timeCorrection>
          <azimuth>335.1</azimuth>
          <distance>0.2836</distance>
          <takeoffAngle>
            <value>108.0</value>
          </takeoffAngle>
          <timeResidual>0.37</timeResidual>
          <timeWeight>0.12</timeWeight>
          <creationInfo>
            <agencyID>CI</agencyID>
            <creationTime>2025-01-03T01:10:21.000000Z</creationTime>
          </creationInfo>
        </arrival>
        <arrival publicID="quakeml:service.scedc.caltech.edu/fdsnws/event/1/query?assocaro=424226748">
