<?xml version='1.0' encoding='utf-8'?>
<q:quakeml xmlns="http://quakeml.org/xmlns/bed/1.2" xmlns:q="http://quakeml.org/xmlns/quakeml/1.2" xmlns:ns0="http://anss.org/xmlns/catalog/0.1">
  <eventParameters publicID="smi:local/404e88b6-ac45-4511-8676-f9e5ba3de249">
    <event publicID="quakeml:service.scedc.caltech.edu/fdsnws/event/1/query?eventid=40841255" ns0:datasource="ci" ns0:dataid="ci40841255" ns0:eventsource="ci" ns0:eventid="40841255">
      <preferredOriginID>quakeml:service.scedc.caltech.edu/fdsnws/event/1/query?originid=108876732</preferredOriginID>
      <preferredMagnitudeID>quakeml:service.scedc.caltech.edu/fdsnws/event/1/query?magnitudeid=111262700</preferredMagnitudeID>
      <type>earthquake</type>
      <creationInfo>
        <agencyID>CI</agencyID>
        <agencyURI>quakeml:doi.org/10.7909/C3WD3xH1</agencyURI>
        <creationTime>2025-01-17T20:27:40.000000Z</creationTime>
        <version>6</version>
      </creationInfo>
      <origin publicID="quakeml:service.scedc.caltech.edu/fdsnws/event/1/query?originid=108876732" ns0:datasource="ci" ns0:dataid="ci40841255" ns0:eventsource="ci" ns0:eventid="40841255">
        <time>
          <value>2025-01-16T20:32:51.510000Z</value>
        </time>
        <latitude>
          <value>34.0541667</value>
        </latitude>
        <longitude>
          <value>-117.1401667</value>
        </longitude>
        <depth>
          <value>6890.0</value>
          <uncertainty>500.0</uncertainty>
        </depth>
        <depthType>from location</depthType>
        <timeFixed>false</timeFixed>
        <epicenterFixed>false</epicenterFixed>
        <methodID>smi:ci.anss.org/origin/HYP2000</methodID>
        <quality>
          <associatedPhaseCount>31</associatedPhaseCount>
          <usedPhaseCount>31</usedPhaseCount>
          <associatedStationCount>20</associatedStationCount>
          <usedStationCount>20</usedStationCount>
          <standardError>0.13</standardError>
          <azimuthalGap>122.0</azimuthalGap>
          <secondaryAzimuthalGap>393.0</secondaryAzimuthalGap>
          <minimumDistance>0.02965</minimumDistance>
          <maximumDistance>0.7529</maximumDistance>
          <medianDistance>0.362</medianDistance>
        </quality>
        <type>hypocenter</type>
        <evaluationMode>manual</evaluationMode>
        <evaluationStatus>final</evaluationStatus>
        <creationInfo>
          <agencyID>CI</agencyID>
          <creationTime>2025-01-17T20:27:40.000000Z</creationTime>
        </creationInfo>
        <originUncertainty>
          <preferredDescription>confidence ellipsoid</preferredDescription>
          <horizontalUncertainty>280.0</horizontalUncertainty>
          <confidenceLevel>95.0</confidenceLevel>
          <confidenceEllipsoid>
            <semiMajorAxisLength>1200.0</semiMajorAxisLength>
            <semiMinorAxisLength>456.0</semiMinorAxisLength>
            <semiIntermediateAxisLength>672.0</semiIntermediateAxisLength>
            <majorAxisPlunge>80.0</majorAxisPlunge>
            <majorAxisAzimuth>328.0</majorAxisAzimuth>
            <majorAxisRotation>339.0</majorAxisRotation>
          </confidenceEllipsoid>
        </originUncertainty>
        <arrival publicID="quakeml:service.scedc.caltech.edu/fdsnws/event/1/query?assocaro=144662991">
          <pickID>quakeml:service.scedc.caltech.edu/fdsnws/event/1/query?assocaro=144662991</pickID>
          <phase>P</phase>
          <timeCorrection>-0.12</timeCorrection>
          <azimuth>153.9</azimuth>
          <distance>0.408</distance>
          <takeoffAngle>
            <value>90.0</value>
          </takeoffAngle>
          <timeResidual>0.21</timeResidual>
          <timeWeight>0.07</timeWeight>
          <creationInfo>
            <agencyID>CI</agencyID>
            <creationTime>2025-01-17T20:27:40.000000Z</creationTime>
          </creationInfo>
        </arrival>
        <arrival publicID="quakeml:service.scedc.caltech.edu/fdsnws/event/1/query?assocaro=266444477">
          <pickID>quakeml:service.scedc.caltech.edu/fdsnws/event/1/query?assocaro=266444477</pickID>
          <phase>P</phase>
          <timeCorrection>-0.09</timeCorrection>
          <azimuth>76.8</azimuth>
          <distance>0.1741</distance>
          <takeoffAngle>
            <value>99.0</value>
          </takeoffAngle>
          <timeResidual>0.06</timeResidual>
          <timeWeight>0.27</timeWeight>
          <creationInfo>
            <agencyID>CI</agencyID>
            <creationTime>2025-01-17T20:27:40.000000Z</creationTime>
          </creationInfo>
        </arrival>
        <arrival publicID="quakeml:service.scedc.caltech.edu/fdsnws/event/1/query?assocaro=266444485">
          <pickID>quakeml:service.scedc.caltech.edu/fdsnws/event/1/query?assocaro=266444485</pickID>
          <phase>S</phase>
          <timeCorrection>-0.21</timeCorrection>
          <azimuth>76.8</azimuth>
          <distance>0.1741</distance>
          <takeoffAngle>
            <value>98.0</value>
          </takeoffAngle>
          <timeResidual>0.19</timeResidual>
          <timeWeight>0.07</timeWeight>
          <creationInfo>
            <agencyID>CI</agencyID>
            <creationTime>2025-01-17T20:27:40.000000Z</creationTime>
          </creationInfo>
        </arrival>
        <arrival publicID="quakeml:service.scedc.caltech.edu/fdsnws/event/1/query?assocaro=266444661">
          <pickID>quakeml:service.scedc.caltech.edu/fdsnws/event/1/query?assocaro=266444661</pickID>
          <phase>S</phase>
          <timeCorrection>-0.03</timeCorrection>
          <azimuth>92.1</azimuth>
          <distance>0.409</distance>
          <takeoffAngle>
            <value>90.0</value>
          </takeoffAngle>
          <timeResidual>0.52</timeResidual>
          <timeWeight>0.07</timeWeight>
          <creationInfo>
            <agencyID>CI</agencyID>
            <creationTime>2025-01-17T20:27:40.000000Z</creationTime>
          </creationInfo>
        </arrival>
        <arrival publicID="quakeml:service.scedc.caltech.edu/fdsnws/event/1/query?assocaro=424374972">
          <pickID>quakeml:service.scedc.caltech.edu/fdsnws/event/1/query?assocaro=424374972</pickID>
          <phase>P</phase>
          <timeCorrection>0.04</timeCorrection>
          <azimuth>129.1</azimuth>
          <distance>0.02965</distance>
          <takeoffAngle>
            <value>155.0</value>
          </takeoffAngle>
          <timeResidual>-0.03</timeResidual>
          <timeWeight>0.13</timeWeight>
          <creationInfo>
            <agencyID>CI</agencyID>
            <creationTime>2025-01-17T20:27:40.000000Z</creationTime>
          </creationInfo>
        </arrival>
        <arrival publicID="quakeml:service.scedc.caltech.edu/fdsnws/event/1/query?assocaro=424374980">
          <pickID>quakeml:service.scedc.caltech.edu/fdsnws/event/1/query?assocaro=424374980</pickID>
          <phase>S</phase>
          <timeCorrection>-0.24</timeCorrection>
          <azimuth>129.1</azimuth>
          <distance>0.02965</distance>
          <takeoffAngle>
            <value>154.0</value>
          </takeoffAngle>
          <timeResidual>0.36</timeResidual>
          <timeWeight>0.07</timeWeight>
          <creationInfo>
            <agencyID>CI</agencyID>
            <creationTime>2025-01-17T20:27:40.000000Z</creationTime>
          </creationInfo>
        </arrival>
        <arrival publicID="quakeml:service.scedc.caltech.edu/fdsnws/event/1/query?assocaro=424374988">
          <pickID>quakeml:service.scedc.caltech.edu/fdsnws/event/1/query?assocaro=424374988</pickID>
          <phase>P</phase>
          <timeCorrection>-0.03</timeCorrection>
          <azimuth>33.6</azimuth>
          <distance>0.06272</distance>
          <takeoffAngle>
            <value>133.0</value>
          </takeoffAngle>
          <timeResidual>-0.02</timeResidual>
          <timeWeight>0.13</timeWeight>
          <creationInfo>
            <agencyID>CI</agencyID>
            <creationTime>2025-01-17T20:27:40.000000Z</creationTime>
          </creationInfo>
        </arrival>
        <arrival publicID="quakeml:service.scedc.caltech.edu/fdsnws/event/1/query?assocaro=424374996">
          <pickID>quakeml:service.scedc.caltech.edu/fdsnws/event/1/query?assocaro=424374996</pickID>
          <phase>S</phase>
          <timeCorrection>-0.09</timeCorrection>
          <azimuth>33.6</azimuth>
          <distance>0.06272</distance>
          <takeoffAngle>
            <value>133.0</value>
          </takeoffAngle>
          <timeResidual>-0.06</timeResidual>
          <timeWeight>0.07</timeWeight>
          <creationInfo>
            <agencyID>CI</agencyID>
            <creationTime>2025-01-17T20:27:40.000000Z</creationTime>
          </creationInfo>
        </arrival>
        <arrival publicID="quakeml:service.scedc.caltech.edu/fdsnws/event/1/query?assocaro=424375004">
          <pickID>quakeml:service.scedc.caltech.edu/fdsnws/event/1/query?assocaro=424375004</pickID>
          <phase>P</phase>
          <timeCorrection>-0.12</timeCorrection>
          <azimuth>195.7</azimuth>
          <distance>0.1995</distance>
          <takeoffAngle>
            <value>94.0</value>
          </takeoffAngle>
          <timeResidual>0.09</timeResidual>
          <timeWeight>0.13</timeWeight>
          <creationInfo>
            <agencyID>CI</agencyID>
            <creationTime>2025-01-17T20:27:40.000000Z</creationTime>
          </creationInfo>
        </arrival>
        <arrival publicID="quakeml:service.scedc.caltech.edu/fdsnws/event/1/query?assocaro=424375012">
          <pickID>quakeml:service.scedc.caltech.edu/fdsnws/event/1/query?assocaro=424375012</pickID>
          <phase>S</phase>
          <timeCorrection>-0.26</timeCorrection>
          <azimuth>195.7</azimuth>
          <distance>0.1995</distance>
          <takeoffAngle>
            <value>94.0</value>
          </takeoffAngle>
          <timeResidual>0.3</timeResidual>
          <timeWeight>0.07</timeWeight>
          <creationInfo>
            <agencyID>CI</agencyID>
            <creationTime>2025-01-17T20:27:40.000000Z</creationTime>
          </creationInfo>
        </arrival>
        <arrival publicID="quakeml:service.scedc.caltech.edu/fdsnws/event/1/query?assocaro=424375020">
          <pickID>quakeml:service.scedc.caltech.edu/fdsnws/event/1/query?assocaro=424375020</pickID>
          <phase>P</phase>
          <timeCorrection>0.0</timeCorrection>
          <azimuth>28.8</azimuth>
          <distance>0.231</distance>
          <takeoffAngle>
            <value>91.0</value>
          </takeoffAngle>
          <timeResidual>0.03</timeResidual>
          <timeWeight>0.13</timeWeight>
          <creationInfo>
            <agencyID>CI</agencyID>
            <creationTime>2025-01-17T20:27:40.000000Z</creationTime>
          </creationInfo>
        </arrival>
        <arrival publicID="quakeml:service.scedc.caltech.edu/fdsnws/event/1/query?assocaro=424375028">
          <pickID>quakeml:service.scedc.caltech.edu/fdsnws/event/1/query?assocaro=424375028</pickID>
          <phase>S</phase>
          <timeCorrection>0.0</timeCorrection>
          <azimuth>28.8</azimuth>
          <distance>0.231</distance>
          <takeoffAngle>
            <value>91.0</value>
          </takeoffAngle>
          <timeResidual>-0.14</timeResidual>
          <timeWeight>0.07</timeWeight>
          <creationInfo>
            <agencyID>CI</agencyID>
            <creationTime>2025-01-17T20:27:40.000000Z</creationTime>
          </creationInfo>
        </arrival>
        <arrival publicID="quakeml:service.scedc.caltech.edu/fdsnws/event/1/query?assocaro=424375036">
          <pickID>quakeml:service.scedc.caltech.edu/fdsnws/event/1/query?assocaro=424375036</pickID>
          <phase>P</phase>
          <timeCorrection>0.0</timeCorrection>
          <azimuth>265.0</azimuth>
          <distance>0.2624</distance>
          <takeoffAngle>
            <value>90.0</value>
          </takeoffAngle>
          <timeResidual>-0.27</timeResidual>
          <timeWeight>0.07</timeWeight>
          <creationInfo>
            <agencyID>CI</agencyID>
            <creationTime>2025-01-17T20:27:40.000000Z</creationTime>
          </creationInfo>
        </arrival>
        <arrival publicID="quakeml:service.scedc.caltech.edu/fdsnws/event/1/query?assocaro=424375044">
          <pickID>quakeml:service.scedc.caltech.edu/fdsnws/event/1/query?assocaro=424375044</pickID>
          <phase>P</phase>
          <timeCorrection>-0.06</timeCorrection>
          <azimuth>93.9</azimuth>
          <distance>0.2766</distance>
          <takeoffAngle>
            <value>90.0</value>
          </takeoffAngle>
          <timeResidual>-0.12</timeResidual>
          <timeWeight>0.13</timeWeight>
          <creationInfo>
            <agencyID>CI</agencyID>
            <creationTime>2025-01-17T20:27:40.000000Z</creationTime>
          </creationInfo>
        </arrival>
        <arrival publicID="quakeml:service.scedc.caltech.edu/fdsnws/event/1/query?assocaro=424375052">
          <pickID>quakeml:service.scedc.caltech.edu/fdsnws/event/1/query?assocaro=424375052</pickID>
          <phase>S</phase>
          <timeCorrection>-0.18</timeCorrection>
          <azimuth>41.0</azimuth>
          <distance>0.2761</distance>
          <takeoffAngle>
            <value>90.0</value>
          </takeoffAngle>
          <timeResidual>0.26</timeResidual>
          <timeWeight>0.07</timeWeight>
          <creationInfo>
            <agencyID>CI</agencyID>
            <creationTime>2025-01-17T20:27:40.000000Z</creationTime>
          </creationInfo>
        </arrival>
        <arrival publicID="quakeml:service.scedc.caltech.edu/fdsnws/event/1/query?assocaro=424375060">
          <pickID>quakeml:service.scedc.caltech.edu/fdsnws/event/1/query?assocaro=424375060</pickID>
          <phase>P</phase>
          <timeCorrection>-0.08</timeCorrection>
          <azimuth>41.0</azimuth>
          <distance>0.2761</distance>
          <takeoffAngle>
            <value>90.0</value>
          </takeoffAngle>
          <timeResidual>0.03</timeResidual>
          <timeWeight>0.13</timeWeight>
          <creationInfo>
            <agencyID>CI</agencyID>
            <creationTime>2025-01-17T20:27:40.000000Z</creationTime>
          </creationInfo>
        </arrival>
        <arrival publicID="quakeml:service.scedc.caltech.edu/fdsnws/event/1/query?assocaro=424375068">
          <pickID>quakeml:service.scedc.caltech.edu/fdsnws/event/1/query?assocaro=424375068</pickID>
          <phase>P</phase>
          <timeCorrection>-0.16</timeCorrection>
          <azimuth>227.0</azimuth>
          <distance>0.3464</distance>
          <takeoffAngle>
            <value>90.0</value>
          </takeoffAngle>
          <timeResidual>-0.1</timeResidual>
          <timeWeight>0.13</timeWeight>
          <creationInfo>
            <agencyID>CI</agencyID>
            <creationTime>2025-01-17T20:27:40.000000Z</creationTime>
          </creationInfo>
        </arrival>
        <arrival publicID="quakeml:service.scedc.caltech.edu/fdsnws/event/1/query?assocaro=424375076">
          <pickID>quakeml:service.scedc.caltech.edu/fdsnws/event/1/query?assocaro=424375076</pickID>
          <phase>S</phase>
          <timeCorrection>-0.25</timeCorrection>
          <azimuth>127.7</azimuth>
          <distance>0.36</distance>
          <takeoffAngle>
            <value>90.0</value>
          </takeoffAngle>
          <timeResidual>0.51</timeResidual>
          <timeWeight>0.07</timeWeight>
          <creationInfo>
            <agencyID>CI</agencyID>
            <creationTime>2025-01-17T20:27:40.000000Z</creationTime>
          </creationInfo>
        </arrival>
        <arrival publicID="quakeml:service.scedc.caltech.edu/fdsnws/event/1/query?assocaro=424375084">
          <pickID>quakeml:service.scedc.caltech.edu/fdsnws/event/1/query?assocaro=424375084</pickID>
          <phase>P</phase>
          <timeCorrection>-0.15</timeCorrection>
          <azimuth>161.6</azimuth>
          <distance>0.3639</distance>
          <takeoffAngle>
            <value>90.0</value>
          </takeoffAngle>
          <timeResidual>-0.03</timeResidual>
          <timeWeight>0.13</timeWeight>
          <creationInfo>
            <agencyID>CI</agencyID>
            <creationTime>2025-01-17T20:27:40.000000Z</creationTime>
          </creationInfo>
        </arrival>
        <arrival publicID="quakeml:service.scedc.caltech.edu/fdsnws/event/1/query?assocaro=424375092">
          <pickID>quakeml:service.scedc.caltech.edu/fdsnws/event/1/query?assocaro=424375092</pickID>
          <phase>P</phase>
          <timeCorrection>-0.16</timeCorrection>
          <azimuth>214.0</azimuth>
          <distance>0.3732</distance>
          <takeoffAngle>
            <value>90.0</value>
          </takeoffAngle>
          <timeResidual>0.08</timeResidual>
          <timeWeight>0.13</timeWeight>
          <creationInfo>
            <agencyID>CI</agencyID>
            <creationTime>2025-01-17T20:27:40.000000Z</creationTime>
          </creationInfo>
        </arrival>
        <arrival publicID="quakeml:service.scedc.caltech.edu/fdsnws/event/1/query?assocaro=424375100">
          <pickID>quakeml:service.scedc.caltech.edu/fdsnws/event/1/query?assocaro=424375100</pickID>
          <phase>S</phase>
          <timeCorrection>-0.26</timeCorrection>
          <azimuth>214.0</azimuth>
          <distance>0.3732</distance>
          <takeoffAngle>
            <value>90.0</value>
          </takeoffAngle>
          <timeResidual>0.14</timeResidual>
          <timeWeight>0.07</timeWeight>
          <creationInfo>
            <agencyID>CI</agencyID>
            <creationTime>2025-01-17T20:27:40.000000Z</creationTime>
          </creationInfo>
        </arrival>
        <arrival publicID="quakeml:service.scedc.caltech.edu/fdsnws/event/1/query?assocaro=424375108">
          <pickID>quakeml:service.scedc.caltech.edu/fdsnws/event/1/query?assocaro=424375108</pickID>
          <phase>P</phase>
          <timeCorrection>-0.01</timeCorrection>
          <azimuth>92.1</azimuth>
          <distance>0.409</distance>
          <takeoffAngle>
            <value>90.0</value>
          </takeoffAngle>
          <timeResidual>-0.15</timeResidual>
          <timeWeight>0.13</timeWeight>
          <creationInfo>
            <agencyID>CI</agencyID>
            <creationTime>2025-01-17T20:27:40.000000Z</creationTime>
          </creationInfo>
        </arrival>
        <arrival publicID="quakeml:service.scedc.caltech.edu/fdsnws/event/1/query?assocaro=424375116">
          <pickID>quakeml:service.scedc.caltech.edu/fdsnws/event/1/query?assocaro=424375116</pickID>
          <phase>P</phase>
          <timeCorrection>-0.17</timeCorrection>
          <azimuth>133.6</azimuth>
          <distance>0.4919</distance>
          <takeoffAngle>
            <value>90.0</value>
          </takeoffAngle>
          <timeResidual>0.15</timeResidual>
          <timeWeight>0.13</timeWeight>
          <creationInfo>
            <agencyID>CI</agencyID>
            <creationTime>2025-01-17T20:27:40.000000Z</creationTime>
          </creationInfo>
        </arrival>
        <arrival publicID="quakeml:service.scedc.caltech.edu/fdsnws/event/1/query?assocaro=424375124">
          <pickID>quakeml:service.scedc.caltech.edu/fdsnws/event/1/query?assocaro=424375124</pickID>
          <phase>S</phase>
          <timeCorrection>-0.47</timeCorrection>
          <azimuth>133.6</azimuth>
          <distance>0.4919</distance>
          <takeoffAngle>
            <value>90.0</value>
          </takeoffAngle>
          <timeResidual>-0.04</timeResidual>
          <timeWeight>0.07</timeWeight>
          <creationInfo>
            <agencyID>CI</agencyID>
            <creationTime>2025-01-17T20:27:40.000000Z</creationTime>
          </creationInfo>
        </arrival>
        <arrival publicID="quakeml:service.scedc.caltech.edu/fdsnws/event/1/query?assocaro=424375132">
