<?xml version='1.0' encoding='utf-8'?>
<q:quakeml xmlns="http://quakeml.org/xmlns/bed/1.2" xmlns:q="http://quakeml.org/xmlns/quakeml/1.2" xmlns:ns0="http://anss.org/xmlns/catalog/0.1">
  <eventParameters publicID="smi:local/0527cd2b-e65e-483b-87a9-f1f9611fb590">
    <event publicID="quakeml:service.scedc.caltech.edu/fdsnws/event/1/query?eventid=40834399" ns0:datasource="ci" ns0:dataid="ci40834399" ns0:eventsource="ci" ns0:eventid="40834399">
      <preferredOriginID>quakeml:service.scedc.caltech.edu/fdsnws/event/1/query?originid=108872780</preferredOriginID>
      <preferredMagnitudeID>quakeml:service.scedc.caltech.edu/fdsnws/event/1/query?magnitudeid=111258660</preferredMagnitudeID>
      <type>earthquake</type>
      <creationInfo>
        <agencyID>CI</agencyID>
        <agencyURI>quakeml:doi.org/10.7909/C3WD3xH1</agencyURI>
        <creationTime>2025-01-06T16:19:57.000000Z</creationTime>
        <version>6</version>
      </creationInfo>
      <origin publicID="quakeml:service.scedc.caltech.edu/fdsnws/event/1/query?originid=108872780" ns0:datasource="ci" ns0:dataid="ci40834399" ns0:eventsource="ci" ns0:eventid="40834399">
        <time>
          <value>2025-01-06T05:44:24.200000Z</value>
        </time>
        <latitude>
          <value>33.2105</value>
        </latitude>
        <longitude>
          <value>-116.731</value>
        </longitude>
        <depth>
          <value>9000.0</value>
          <uncertainty>450.0</uncertainty>
        </depth>
        <depthType>from location</depthType>
        <timeFixed>false</timeFixed>
        <epicenterFixed>false</epicenterFixed>
        <methodID>smi:ci.anss.org/origin/HYP2000</methodID>
        <quality>
          <associatedPhaseCount>33</associatedPhaseCount>
          <usedPhaseCount>33</usedPhaseCount>
          <associatedStationCount>21</associatedStationCount>
          <usedStationCount>21</usedStationCount>
          <standardError>0.14</standardError>
          <azimuthalGap>54.0</azimuthalGap>
          <secondaryAzimuthalGap>399.0</secondaryAzimuthalGap>
          <minimumDistance>0.03446</minimumDistance>
          <maximumDistance>0.5268</maximumDistance>
          <medianDistance>0.3158</medianDistance>
        </quality>
        <type>hypocenter</type>
        <evaluationMode>manual</evaluationMode>
        <evaluationStatus>final</evaluationStatus>
        <creationInfo>
          <agencyID>CI</agencyID>
          <creationTime>2025-01-06T16:19:57.000000Z</creationTime>
        </creationInfo>
        <originUncertainty>
          <preferredDescription>confidence ellipsoid</preferredDescription>
          <horizontalUncertainty>220.0</horizontalUncertainty>
          <confidenceLevel>95.0</confidenceLevel>
          <confidenceEllipsoid>
            <semiMajorAxisLength>1128.0</semiMajorAxisLength>
            <semiMinorAxisLength>432.0</semiMinorAxisLength>
            <semiIntermediateAxisLength>528.0</semiIntermediateAxisLength>
            <majorAxisPlunge>75.0</majorAxisPlunge>
            <majorAxisAzimuth>107.0</majorAxisAzimuth>
            <majorAxisRotation>332.0</majorAxisRotation>
          </confidenceEllipsoid>
        </originUncertainty>
        <arrival publicID="quakeml:service.scedc.caltech.edu/fdsnws/event/1/query?assocaro=266282549">
          <pickID>quakeml:service.scedc.caltech.edu/fdsnws/event/1/query?assocaro=266282549</pickID>
          <phase>S</phase>
          <timeCorrection>-0.05</timeCorrection>
          <azimuth>317.7</azimuth>
          <distance>0.03446</distance>
          <takeoffAngle>
            <value>157.0</value>
          </takeoffAngle>
          <timeResidual>0.14</timeResidual>
          <timeWeight>0.06</timeWeight>
          <creationInfo>
            <agencyID>CI</agencyID>
            <creationTime>2025-01-06T16:19:57.000000Z</creationTime>
          </creationInfo>
        </arrival>
        <arrival publicID="quakeml:service.scedc.caltech.edu/fdsnws/event/1/query?assocaro=266282557">
          <pickID>quakeml:service.scedc.caltech.edu/fdsnws/event/1/query?assocaro=266282557</pickID>
          <phase>P</phase>
          <timeCorrection>-0.05</timeCorrection>
          <azimuth>99.2</azimuth>
          <distance>0.07111</distance>
          <takeoffAngle>
            <value>138.0</value>
          </takeoffAngle>
          <timeResidual>-0.04</timeResidual>
          <timeWeight>0.25</timeWeight>
          <creationInfo>
            <agencyID>CI</agencyID>
            <creationTime>2025-01-06T16:19:57.000000Z</creationTime>
          </creationInfo>
        </arrival>
        <arrival publicID="quakeml:service.scedc.caltech.edu/fdsnws/event/1/query?assocaro=266282565">
          <pickID>quakeml:service.scedc.caltech.edu/fdsnws/event/1/query?assocaro=266282565</pickID>
          <phase>S</phase>
          <timeCorrection>-0.25</timeCorrection>
          <azimuth>99.2</azimuth>
          <distance>0.07111</distance>
          <takeoffAngle>
            <value>138.0</value>
          </takeoffAngle>
          <timeResidual>0.02</timeResidual>
          <timeWeight>0.09</timeWeight>
          <creationInfo>
            <agencyID>CI</agencyID>
            <creationTime>2025-01-06T16:19:57.000000Z</creationTime>
          </creationInfo>
        </arrival>
        <arrival publicID="quakeml:service.scedc.caltech.edu/fdsnws/event/1/query?assocaro=266282621">
          <pickID>quakeml:service.scedc.caltech.edu/fdsnws/event/1/query?assocaro=266282621</pickID>
          <phase>S</phase>
          <timeCorrection>0.0</timeCorrection>
          <azimuth>276.9</azimuth>
          <distance>0.245</distance>
          <takeoffAngle>
            <value>101.0</value>
          </takeoffAngle>
          <timeResidual>-0.37</timeResidual>
          <timeWeight>0.06</timeWeight>
          <creationInfo>
            <agencyID>CI</agencyID>
            <creationTime>2025-01-06T16:19:57.000000Z</creationTime>
          </creationInfo>
        </arrival>
        <arrival publicID="quakeml:service.scedc.caltech.edu/fdsnws/event/1/query?assocaro=266282709">
          <pickID>quakeml:service.scedc.caltech.edu/fdsnws/event/1/query?assocaro=266282709</pickID>
          <phase>S</phase>
          <timeCorrection>0.0</timeCorrection>
          <azimuth>164.0</azimuth>
          <distance>0.3158</distance>
          <takeoffAngle>
            <value>97.0</value>
          </takeoffAngle>
          <timeResidual>-0.2</timeResidual>
          <timeWeight>0.06</timeWeight>
          <creationInfo>
            <agencyID>CI</agencyID>
            <creationTime>2025-01-06T16:19:57.000000Z</creationTime>
          </creationInfo>
        </arrival>
        <arrival publicID="quakeml:service.scedc.caltech.edu/fdsnws/event/1/query?assocaro=266282725">
          <pickID>quakeml:service.scedc.caltech.edu/fdsnws/event/1/query?assocaro=266282725</pickID>
          <phase>S</phase>
          <timeCorrection>-0.41</timeCorrection>
          <azimuth>196.8</azimuth>
          <distance>0.333</distance>
          <takeoffAngle>
            <value>97.0</value>
          </takeoffAngle>
          <timeResidual>0.3</timeResidual>
          <timeWeight>0.06</timeWeight>
          <creationInfo>
            <agencyID>CI</agencyID>
            <creationTime>2025-01-06T16:19:57.000000Z</creationTime>
          </creationInfo>
        </arrival>
        <arrival publicID="quakeml:service.scedc.caltech.edu/fdsnws/event/1/query?assocaro=266282741">
          <pickID>quakeml:service.scedc.caltech.edu/fdsnws/event/1/query?assocaro=266282741</pickID>
          <phase>S</phase>
          <timeCorrection>-0.33</timeCorrection>
          <azimuth>359.2</azimuth>
          <distance>0.354</distance>
          <takeoffAngle>
            <value>96.0</value>
          </takeoffAngle>
          <timeResidual>0.07</timeResidual>
          <timeWeight>0.09</timeWeight>
          <creationInfo>
            <agencyID>CI</agencyID>
            <creationTime>2025-01-06T16:19:57.000000Z</creationTime>
          </creationInfo>
        </arrival>
        <arrival publicID="quakeml:service.scedc.caltech.edu/fdsnws/event/1/query?assocaro=266282789">
          <pickID>quakeml:service.scedc.caltech.edu/fdsnws/event/1/query?assocaro=266282789</pickID>
          <phase>S</phase>
          <timeCorrection>0.0</timeCorrection>
          <azimuth>282.2</azimuth>
          <distance>0.3817</distance>
          <takeoffAngle>
            <value>95.0</value>
          </takeoffAngle>
          <timeResidual>-0.41</timeResidual>
          <timeWeight>0.06</timeWeight>
          <creationInfo>
            <agencyID>CI</agencyID>
            <creationTime>2025-01-06T16:19:57.000000Z</creationTime>
          </creationInfo>
        </arrival>
        <arrival publicID="quakeml:service.scedc.caltech.edu/fdsnws/event/1/query?assocaro=266282805">
          <pickID>quakeml:service.scedc.caltech.edu/fdsnws/event/1/query?assocaro=266282805</pickID>
          <phase>S</phase>
          <timeCorrection>0.0</timeCorrection>
          <azimuth>241.6</azimuth>
          <distance>0.4123</distance>
          <takeoffAngle>
            <value>94.0</value>
          </takeoffAngle>
          <timeResidual>-0.2</timeResidual>
          <timeWeight>0.06</timeWeight>
          <creationInfo>
            <agencyID>CI</agencyID>
            <creationTime>2025-01-06T16:19:57.000000Z</creationTime>
          </creationInfo>
        </arrival>
        <arrival publicID="quakeml:service.scedc.caltech.edu/fdsnws/event/1/query?assocaro=266282813">
          <pickID>quakeml:service.scedc.caltech.edu/fdsnws/event/1/query?assocaro=266282813</pickID>
          <phase>P</phase>
          <timeCorrection>-0.12</timeCorrection>
          <azimuth>346.9</azimuth>
          <distance>0.4296</distance>
          <takeoffAngle>
            <value>94.0</value>
          </takeoffAngle>
          <timeResidual>0.01</timeResidual>
          <timeWeight>0.12</timeWeight>
          <creationInfo>
            <agencyID>CI</agencyID>
            <creationTime>2025-01-06T16:19:57.000000Z</creationTime>
          </creationInfo>
        </arrival>
        <arrival publicID="quakeml:service.scedc.caltech.edu/fdsnws/event/1/query?assocaro=266282821">
          <pickID>quakeml:service.scedc.caltech.edu/fdsnws/event/1/query?assocaro=266282821</pickID>
          <phase>P</phase>
          <timeCorrection>0.0</timeCorrection>
          <azimuth>14.6</azimuth>
          <distance>0.4471</distance>
          <takeoffAngle>
            <value>94.0</value>
          </takeoffAngle>
          <timeResidual>0.07</timeResidual>
          <timeWeight>0.12</timeWeight>
          <creationInfo>
            <agencyID>CI</agencyID>
            <creationTime>2025-01-06T16:19:57.000000Z</creationTime>
          </creationInfo>
        </arrival>
        <arrival publicID="quakeml:service.scedc.caltech.edu/fdsnws/event/1/query?assocaro=266282829">
          <pickID>quakeml:service.scedc.caltech.edu/fdsnws/event/1/query?assocaro=266282829</pickID>
          <phase>S</phase>
          <timeCorrection>0.0</timeCorrection>
          <azimuth>14.6</azimuth>
          <distance>0.4471</distance>
          <takeoffAngle>
            <value>94.0</value>
          </takeoffAngle>
          <timeResidual>-0.01</timeResidual>
          <timeWeight>0.06</timeWeight>
          <creationInfo>
            <agencyID>CI</agencyID>
            <creationTime>2025-01-06T16:19:57.000000Z</creationTime>
          </creationInfo>
        </arrival>
        <arrival publicID="quakeml:service.scedc.caltech.edu/fdsnws/event/1/query?assocaro=266282877">
          <pickID>quakeml:service.scedc.caltech.edu/fdsnws/event/1/query?assocaro=266282877</pickID>
          <phase>S</phase>
          <timeCorrection>0.0</timeCorrection>
          <azimuth>182.3</azimuth>
          <distance>0.5062</distance>
          <takeoffAngle>
            <value>93.0</value>
          </takeoffAngle>
          <timeResidual>-0.12</timeResidual>
          <timeWeight>0.06</timeWeight>
          <creationInfo>
            <agencyID>CI</agencyID>
            <creationTime>2025-01-06T16:19:57.000000Z</creationTime>
          </creationInfo>
        </arrival>
        <arrival publicID="quakeml:service.scedc.caltech.edu/fdsnws/event/1/query?assocaro=424241444">
          <pickID>quakeml:service.scedc.caltech.edu/fdsnws/event/1/query?assocaro=424241444</pickID>
          <phase>P</phase>
          <timeCorrection>-0.07</timeCorrection>
          <azimuth>317.7</azimuth>
          <distance>0.03446</distance>
          <takeoffAngle>
            <value>157.0</value>
          </takeoffAngle>
          <timeResidual>0.09</timeResidual>
          <timeWeight>0.19</timeWeight>
          <creationInfo>
            <agencyID>CI</agencyID>
            <creationTime>2025-01-06T16:19:57.000000Z</creationTime>
          </creationInfo>
        </arrival>
        <arrival publicID="quakeml:service.scedc.caltech.edu/fdsnws/event/1/query?assocaro=424241452">
          <pickID>quakeml:service.scedc.caltech.edu/fdsnws/event/1/query?assocaro=424241452</pickID>
          <phase>S</phase>
          <timeCorrection>0.0</timeCorrection>
          <azimuth>192.9</azimuth>
          <distance>0.1403</distance>
          <takeoffAngle>
            <value>116.0</value>
          </takeoffAngle>
          <timeResidual>0.06</timeResidual>
          <timeWeight>0.06</timeWeight>
          <creationInfo>
            <agencyID>CI</agencyID>
            <creationTime>2025-01-06T16:19:57.000000Z</creationTime>
          </creationInfo>
        </arrival>
        <arrival publicID="quakeml:service.scedc.caltech.edu/fdsnws/event/1/query?assocaro=424241460">
          <pickID>quakeml:service.scedc.caltech.edu/fdsnws/event/1/query?assocaro=424241460</pickID>
          <phase>P</phase>
          <timeCorrection>-0.07</timeCorrection>
          <azimuth>139.2</azimuth>
          <distance>0.1709</distance>
          <takeoffAngle>
            <value>110.0</value>
          </takeoffAngle>
          <timeResidual>0.15</timeResidual>
          <timeWeight>0.12</timeWeight>
          <creationInfo>
            <agencyID>CI</agencyID>
            <creationTime>2025-01-06T16:19:57.000000Z</creationTime>
          </creationInfo>
        </arrival>
        <arrival publicID="quakeml:service.scedc.caltech.edu/fdsnws/event/1/query?assocaro=424241468">
          <pickID>quakeml:service.scedc.caltech.edu/fdsnws/event/1/query?assocaro=424241468</pickID>
          <phase>S</phase>
          <timeCorrection>-0.37</timeCorrection>
          <azimuth>139.2</azimuth>
          <distance>0.1709</distance>
          <takeoffAngle>
            <value>110.0</value>
          </takeoffAngle>
          <timeResidual>0.31</timeResidual>
          <timeWeight>0.06</timeWeight>
          <creationInfo>
            <agencyID>CI</agencyID>
            <creationTime>2025-01-06T16:19:57.000000Z</creationTime>
          </creationInfo>
        </arrival>
        <arrival publicID="quakeml:service.scedc.caltech.edu/fdsnws/event/1/query?assocaro=424241476">
          <pickID>quakeml:service.scedc.caltech.edu/fdsnws/event/1/query?assocaro=424241476</pickID>
          <phase>P</phase>
          <timeCorrection>-0.11</timeCorrection>
          <azimuth>322.5</azimuth>
          <distance>0.1804</distance>
          <takeoffAngle>
            <value>109.0</value>
          </takeoffAngle>
          <timeResidual>0.17</timeResidual>
          <timeWeight>0.12</timeWeight>
          <creationInfo>
            <agencyID>CI</agencyID>
            <creationTime>2025-01-06T16:19:57.000000Z</creationTime>
          </creationInfo>
        </arrival>
        <arrival publicID="quakeml:service.scedc.caltech.edu/fdsnws/event/1/query?assocaro=424241484">
          <pickID>quakeml:service.scedc.caltech.edu/fdsnws/event/1/query?assocaro=424241484</pickID>
          <phase>P</phase>
          <timeCorrection>-0.03</timeCorrection>
          <azimuth>45.1</azimuth>
          <distance>0.1999</distance>
          <takeoffAngle>
            <value>106.0</value>
          </takeoffAngle>
          <timeResidual>-0.09</timeResidual>
          <timeWeight>0.12</timeWeight>
          <creationInfo>
            <agencyID>CI</agencyID>
            <creationTime>2025-01-06T16:19:57.000000Z</creationTime>
          </creationInfo>
        </arrival>
        <arrival publicID="quakeml:service.scedc.caltech.edu/fdsnws/event/1/query?assocaro=424241492">
          <pickID>quakeml:service.scedc.caltech.edu/fdsnws/event/1/query?assocaro=424241492</pickID>
          <phase>S</phase>
          <timeCorrection>-0.2</timeCorrection>
          <azimuth>45.1</azimuth>
          <distance>0.1999</distance>
          <takeoffAngle>
            <value>106.0</value>
          </takeoffAngle>
          <timeResidual>0.16</timeResidual>
          <timeWeight>0.06</timeWeight>
          <creationInfo>
            <agencyID>CI</agencyID>
            <creationTime>2025-01-06T16:19:57.000000Z</creationTime>
          </creationInfo>
        </arrival>
        <arrival publicID="quakeml:service.scedc.caltech.edu/fdsnws/event/1/query?assocaro=424241500">
          <pickID>quakeml:service.scedc.caltech.edu/fdsnws/event/1/query?assocaro=424241500</pickID>
          <phase>P</phase>
          <timeCorrection>0.0</timeCorrection>
          <azimuth>276.9</azimuth>
          <distance>0.245</distance>
          <takeoffAngle>
            <value>102.0</value>
          </takeoffAngle>
          <timeResidual>-0.06</timeResidual>
          <timeWeight>0.12</timeWeight>
          <creationInfo>
            <agencyID>CI</agencyID>
            <creationTime>2025-01-06T16:19:57.000000Z</creationTime>
          </creationInfo>
        </arrival>
        <arrival publicID="quakeml:service.scedc.caltech.edu/fdsnws/event/1/query?assocaro=424241508">
          <pickID>quakeml:service.scedc.caltech.edu/fdsnws/event/1/query?assocaro=424241508</pickID>
          <phase>S</phase>
          <timeCorrection>-0.42</timeCorrection>
          <azimuth>219.9</azimuth>
          <distance>0.2754</distance>
          <takeoffAngle>
            <value>99.0</value>
          </takeoffAngle>
          <timeResidual>0.52</timeResidual>
          <timeWeight>0.06</timeWeight>
          <creationInfo>
            <agencyID>CI</agencyID>
            <creationTime>2025-01-06T16:19:57.000000Z</creationTime>
          </creationInfo>
        </arrival>
        <arrival publicID="quakeml:service.scedc.caltech.edu/fdsnws/event/1/query?assocaro=424241516">
          <pickID>quakeml:service.scedc.caltech.edu/fdsnws/event/1/query?assocaro=424241516</pickID>
          <phase>P</phase>
          <timeCorrection>0.0</timeCorrection>
          <azimuth>347.6</azimuth>
          <distance>0.2991</distance>
          <takeoffAngle>
            <value>98.0</value>
          </takeoffAngle>
          <timeResidual>-0.17</timeResidual>
          <timeWeight>0.12</timeWeight>
          <creationInfo>
            <agencyID>CI</agencyID>
            <creationTime>2025-01-06T16:19:57.000000Z</creationTime>
          </creationInfo>
        </arrival>
        <arrival publicID="quakeml:service.scedc.caltech.edu/fdsnws/event/1/query?assocaro=424241524">
          <pickID>quakeml:service.scedc.caltech.edu/fdsnws/event/1/query?assocaro=424241524</pickID>
          <phase>S</phase>
          <timeCorrection>-0.29</timeCorrection>
          <azimuth>305.5</azimuth>
          <distance>0.3085</distance>
          <takeoffAngle>
            <value>98.0</value>
          </takeoffAngle>
          <timeResidual>0.43</timeResidual>
          <timeWeight>0.06</timeWeight>
          <creationInfo>
            <agencyID>CI</agencyID>
            <creationTime>2025-01-06T16:19:57.000000Z</creationTime>
          </creationInfo>
        </arrival>
        <arrival publicID="quakeml:service.scedc.caltech.edu/fdsnws/event/1/query?assocaro=424241532">
