<?xml version='1.0' encoding='utf-8'?>
<q:quakeml xmlns="http://quakeml.org/xmlns/bed/1.2" xmlns:q="http://quakeml.org/xmlns/quakeml/1.2" xmlns:ns0="http://anss.org/xmlns/catalog/0.1">
  <eventParameters publicID="smi:local/dbbabef0-2a58-4a96-9248-33859115b0e9">
    <event publicID="quakeml:service.scedc.caltech.edu/fdsnws/event/1/query?eventid=40841167" ns0:datasource="ci" ns0:dataid="ci40841167" ns0:eventsource="ci" ns0:eventid="40841167">
      <preferredOriginID>quakeml:service.scedc.caltech.edu/fdsnws/event/1/query?originid=108876676</preferredOriginID>
      <preferredMagnitudeID>quakeml:service.scedc.caltech.edu/fdsnws/event/1/query?magnitudeid=111262644</preferredMagnitudeID>
      <type>earthquake</type>
      <creationInfo>
        <agencyID>CI</agencyID>
        <agencyURI>quakeml:doi.org/10.7909/C3WD3xH1</agencyURI>
        <creationTime>2025-01-17T19:20:54.000000Z</creationTime>
        <version>8</version>
      </creationInfo>
      <origin publicID="quakeml:service.scedc.caltech.edu/fdsnws/event/1/query?originid=108876676" ns0:datasource="ci" ns0:dataid="ci40841167" ns0:eventsource="ci" ns0:eventid="40841167">
        <time>
          <value>2025-01-16T18:44:56.220000Z</value>
        </time>
        <latitude>
          <value>34.6178333</value>
        </latitude>
        <longitude>
          <value>-119.058</value>
        </longitude>
        <depth>
          <value>5200.0</value>
          <uncertainty>840.0</uncertainty>
        </depth>
        <depthType>from location</depthType>
        <timeFixed>false</timeFixed>
        <epicenterFixed>false</epicenterFixed>
        <methodID>smi:ci.anss.org/origin/HYP2000</methodID>
        <quality>
          <associatedPhaseCount>73</associatedPhaseCount>
          <usedPhaseCount>72</usedPhaseCount>
          <associatedStationCount>43</associatedStationCount>
          <usedStationCount>43</usedStationCount>
          <standardError>0.19</standardError>
          <azimuthalGap>53.0</azimuthalGap>
          <secondaryAzimuthalGap>378.0</secondaryAzimuthalGap>
          <minimumDistance>0.1211</minimumDistance>
          <maximumDistance>0.8859</maximumDistance>
          <medianDistance>0.4962</medianDistance>
        </quality>
        <type>hypocenter</type>
        <evaluationMode>manual</evaluationMode>
        <evaluationStatus>final</evaluationStatus>
        <creationInfo>
          <agencyID>CI</agencyID>
          <creationTime>2025-01-17T19:20:54.000000Z</creationTime>
        </creationInfo>
        <originUncertainty>
          <preferredDescription>confidence ellipsoid</preferredDescription>
          <horizontalUncertainty>200.0</horizontalUncertainty>
          <confidenceLevel>95.0</confidenceLevel>
          <confidenceEllipsoid>
            <semiMajorAxisLength>2016.0</semiMajorAxisLength>
            <semiMinorAxisLength>360.0</semiMinorAxisLength>
            <semiIntermediateAxisLength>480.0</semiIntermediateAxisLength>
            <majorAxisPlunge>87.0</majorAxisPlunge>
            <majorAxisAzimuth>312.0</majorAxisAzimuth>
            <majorAxisRotation>53.0</majorAxisRotation>
          </confidenceEllipsoid>
        </originUncertainty>
        <arrival publicID="quakeml:service.scedc.caltech.edu/fdsnws/event/1/query?assocaro=266442037">
          <pickID>quakeml:service.scedc.caltech.edu/fdsnws/event/1/query?assocaro=266442037</pickID>
          <phase>P</phase>
          <timeCorrection>-0.07</timeCorrection>
          <azimuth>341.9</azimuth>
          <distance>0.1211</distance>
          <takeoffAngle>
            <value>104.0</value>
          </takeoffAngle>
          <timeResidual>0.05</timeResidual>
          <timeWeight>0.22</timeWeight>
          <creationInfo>
            <agencyID>CI</agencyID>
            <creationTime>2025-01-17T19:20:54.000000Z</creationTime>
          </creationInfo>
        </arrival>
        <arrival publicID="quakeml:service.scedc.caltech.edu/fdsnws/event/1/query?assocaro=266442093">
          <pickID>quakeml:service.scedc.caltech.edu/fdsnws/event/1/query?assocaro=266442093</pickID>
          <phase>S</phase>
          <timeCorrection>0.5</timeCorrection>
          <azimuth>199.9</azimuth>
          <distance>0.192</distance>
          <takeoffAngle>
            <value>94.0</value>
          </takeoffAngle>
          <timeResidual>-0.16</timeResidual>
          <timeWeight>0.06</timeWeight>
          <creationInfo>
            <agencyID>CI</agencyID>
            <creationTime>2025-01-17T19:20:54.000000Z</creationTime>
          </creationInfo>
        </arrival>
        <arrival publicID="quakeml:service.scedc.caltech.edu/fdsnws/event/1/query?assocaro=266442117">
          <pickID>quakeml:service.scedc.caltech.edu/fdsnws/event/1/query?assocaro=266442117</pickID>
          <phase>P</phase>
          <timeCorrection>0.0</timeCorrection>
          <azimuth>62.3</azimuth>
          <distance>0.2357</distance>
          <takeoffAngle>
            <value>93.0</value>
          </takeoffAngle>
          <timeResidual>0.16</timeResidual>
          <timeWeight>0.22</timeWeight>
          <creationInfo>
            <agencyID>CI</agencyID>
            <creationTime>2025-01-17T19:20:54.000000Z</creationTime>
          </creationInfo>
        </arrival>
        <arrival publicID="quakeml:service.scedc.caltech.edu/fdsnws/event/1/query?assocaro=266442133">
          <pickID>quakeml:service.scedc.caltech.edu/fdsnws/event/1/query?assocaro=266442133</pickID>
          <phase>P</phase>
          <timeCorrection>0.08</timeCorrection>
          <azimuth>276.1</azimuth>
          <distance>0.244</distance>
          <takeoffAngle>
            <value>93.0</value>
          </takeoffAngle>
          <timeResidual>-0.18</timeResidual>
          <timeWeight>0.22</timeWeight>
          <creationInfo>
            <agencyID>CI</agencyID>
            <creationTime>2025-01-17T19:20:54.000000Z</creationTime>
          </creationInfo>
        </arrival>
        <arrival publicID="quakeml:service.scedc.caltech.edu/fdsnws/event/1/query?assocaro=266442189">
          <pickID>quakeml:service.scedc.caltech.edu/fdsnws/event/1/query?assocaro=266442189</pickID>
          <phase>S</phase>
          <timeCorrection>0.02</timeCorrection>
          <azimuth>55.7</azimuth>
          <distance>0.2832</distance>
          <takeoffAngle>
            <value>92.0</value>
          </takeoffAngle>
          <timeResidual>0.4</timeResidual>
          <timeWeight>0.06</timeWeight>
          <creationInfo>
            <agencyID>CI</agencyID>
            <creationTime>2025-01-17T19:20:54.000000Z</creationTime>
          </creationInfo>
        </arrival>
        <arrival publicID="quakeml:service.scedc.caltech.edu/fdsnws/event/1/query?assocaro=266442197">
          <pickID>quakeml:service.scedc.caltech.edu/fdsnws/event/1/query?assocaro=266442197</pickID>
          <phase>P</phase>
          <timeCorrection>0.0</timeCorrection>
          <azimuth>292.1</azimuth>
          <distance>0.2973</distance>
          <takeoffAngle>
            <value>92.0</value>
          </takeoffAngle>
          <timeResidual>-0.02</timeResidual>
          <timeWeight>0.22</timeWeight>
          <creationInfo>
            <agencyID>CI</agencyID>
            <creationTime>2025-01-17T19:20:54.000000Z</creationTime>
          </creationInfo>
        </arrival>
        <arrival publicID="quakeml:service.scedc.caltech.edu/fdsnws/event/1/query?assocaro=266442221">
          <pickID>quakeml:service.scedc.caltech.edu/fdsnws/event/1/query?assocaro=266442221</pickID>
          <phase>S</phase>
          <timeCorrection>-0.1</timeCorrection>
          <azimuth>17.8</azimuth>
          <distance>0.319</distance>
          <takeoffAngle>
            <value>91.0</value>
          </takeoffAngle>
          <timeResidual>0.23</timeResidual>
          <timeWeight>0.06</timeWeight>
          <creationInfo>
            <agencyID>CI</agencyID>
            <creationTime>2025-01-17T19:20:54.000000Z</creationTime>
          </creationInfo>
        </arrival>
        <arrival publicID="quakeml:service.scedc.caltech.edu/fdsnws/event/1/query?assocaro=266442229">
          <pickID>quakeml:service.scedc.caltech.edu/fdsnws/event/1/query?assocaro=266442229</pickID>
          <phase>P</phase>
          <timeCorrection>0.0</timeCorrection>
          <azimuth>223.2</azimuth>
          <distance>0.3415</distance>
          <takeoffAngle>
            <value>91.0</value>
          </takeoffAngle>
          <timeResidual>-0.03</timeResidual>
          <timeWeight>0.22</timeWeight>
          <creationInfo>
            <agencyID>CI</agencyID>
            <creationTime>2025-01-17T19:20:54.000000Z</creationTime>
          </creationInfo>
        </arrival>
        <arrival publicID="quakeml:service.scedc.caltech.edu/fdsnws/event/1/query?assocaro=266442245">
          <pickID>quakeml:service.scedc.caltech.edu/fdsnws/event/1/query?assocaro=266442245</pickID>
          <phase>P</phase>
          <timeCorrection>0.0</timeCorrection>
          <azimuth>65.3</azimuth>
          <distance>0.3786</distance>
          <takeoffAngle>
            <value>91.0</value>
          </takeoffAngle>
          <timeResidual>-0.01</timeResidual>
          <timeWeight>0.22</timeWeight>
          <creationInfo>
            <agencyID>CI</agencyID>
            <creationTime>2025-01-17T19:20:54.000000Z</creationTime>
          </creationInfo>
        </arrival>
        <arrival publicID="quakeml:service.scedc.caltech.edu/fdsnws/event/1/query?assocaro=266442341">
          <pickID>quakeml:service.scedc.caltech.edu/fdsnws/event/1/query?assocaro=266442341</pickID>
          <phase>P</phase>
          <timeCorrection>-0.08</timeCorrection>
          <azimuth>289.1</azimuth>
          <distance>0.4962</distance>
          <takeoffAngle>
            <value>79.0</value>
          </takeoffAngle>
          <timeResidual>0.31</timeResidual>
          <timeWeight>0.22</timeWeight>
          <creationInfo>
            <agencyID>CI</agencyID>
            <creationTime>2025-01-17T19:20:54.000000Z</creationTime>
          </creationInfo>
        </arrival>
        <arrival publicID="quakeml:service.scedc.caltech.edu/fdsnws/event/1/query?assocaro=266442357">
          <pickID>quakeml:service.scedc.caltech.edu/fdsnws/event/1/query?assocaro=266442357</pickID>
          <phase>P</phase>
          <timeCorrection>0.08</timeCorrection>
          <azimuth>139.6</azimuth>
          <distance>0.4905</distance>
          <takeoffAngle>
            <value>79.0</value>
          </takeoffAngle>
          <timeResidual>0.82</timeResidual>
          <timeWeight>0.1</timeWeight>
          <creationInfo>
            <agencyID>CI</agencyID>
            <creationTime>2025-01-17T19:20:54.000000Z</creationTime>
          </creationInfo>
        </arrival>
        <arrival publicID="quakeml:service.scedc.caltech.edu/fdsnws/event/1/query?assocaro=266442445">
          <pickID>quakeml:service.scedc.caltech.edu/fdsnws/event/1/query?assocaro=266442445</pickID>
          <phase>P</phase>
          <timeCorrection>-0.13</timeCorrection>
          <azimuth>88.6</azimuth>
          <distance>0.6211</distance>
          <takeoffAngle>
            <value>79.0</value>
          </takeoffAngle>
          <timeResidual>-0.04</timeResidual>
          <timeWeight>0.22</timeWeight>
          <creationInfo>
            <agencyID>CI</agencyID>
            <creationTime>2025-01-17T19:20:54.000000Z</creationTime>
          </creationInfo>
        </arrival>
        <arrival publicID="quakeml:service.scedc.caltech.edu/fdsnws/event/1/query?assocaro=266442477">
          <pickID>quakeml:service.scedc.caltech.edu/fdsnws/event/1/query?assocaro=266442477</pickID>
          <phase>S</phase>
          <timeCorrection>0.0</timeCorrection>
          <azimuth>105.8</azimuth>
          <distance>0.6603</distance>
          <takeoffAngle>
            <value>79.0</value>
          </takeoffAngle>
          <timeResidual>0.4</timeResidual>
          <timeWeight>0.03</timeWeight>
          <creationInfo>
            <agencyID>CI</agencyID>
            <creationTime>2025-01-17T19:20:54.000000Z</creationTime>
          </creationInfo>
        </arrival>
        <arrival publicID="quakeml:service.scedc.caltech.edu/fdsnws/event/1/query?assocaro=266442485">
          <pickID>quakeml:service.scedc.caltech.edu/fdsnws/event/1/query?assocaro=266442485</pickID>
          <phase>P</phase>
          <timeCorrection>-0.01</timeCorrection>
          <azimuth>293.8</azimuth>
          <distance>0.6782</distance>
          <takeoffAngle>
            <value>79.0</value>
          </takeoffAngle>
          <timeResidual>0.03</timeResidual>
          <timeWeight>0.17</timeWeight>
          <creationInfo>
            <agencyID>CI</agencyID>
            <creationTime>2025-01-17T19:20:54.000000Z</creationTime>
          </creationInfo>
        </arrival>
        <arrival publicID="quakeml:service.scedc.caltech.edu/fdsnws/event/1/query?assocaro=266442493">
          <pickID>quakeml:service.scedc.caltech.edu/fdsnws/event/1/query?assocaro=266442493</pickID>
          <phase>S</phase>
          <timeCorrection>0.0</timeCorrection>
          <azimuth>293.8</azimuth>
          <distance>0.6782</distance>
          <takeoffAngle>
            <value>79.0</value>
          </takeoffAngle>
          <timeResidual>0.05</timeResidual>
          <timeWeight>0.06</timeWeight>
          <creationInfo>
            <agencyID>CI</agencyID>
            <creationTime>2025-01-17T19:20:54.000000Z</creationTime>
          </creationInfo>
        </arrival>
        <arrival publicID="quakeml:service.scedc.caltech.edu/fdsnws/event/1/query?assocaro=266442533">
          <pickID>quakeml:service.scedc.caltech.edu/fdsnws/event/1/query?assocaro=266442533</pickID>
          <phase>P</phase>
          <timeCorrection>-0.02</timeCorrection>
          <azimuth>80.0</azimuth>
          <distance>0.6837</distance>
          <takeoffAngle>
            <value>79.0</value>
          </takeoffAngle>
          <timeResidual>0.15</timeResidual>
          <timeWeight>0.11</timeWeight>
          <creationInfo>
            <agencyID>CI</agencyID>
            <creationTime>2025-01-17T19:20:54.000000Z</creationTime>
          </creationInfo>
        </arrival>
        <arrival publicID="quakeml:service.scedc.caltech.edu/fdsnws/event/1/query?assocaro=266442629">
          <pickID>quakeml:service.scedc.caltech.edu/fdsnws/event/1/query?assocaro=266442629</pickID>
          <phase>S</phase>
          <timeCorrection>-0.4</timeCorrection>
          <azimuth>37.6</azimuth>
          <distance>0.8517</distance>
          <takeoffAngle>
            <value>79.0</value>
          </takeoffAngle>
          <timeResidual>-0.34</timeResidual>
          <timeWeight>0.05</timeWeight>
          <creationInfo>
            <agencyID>CI</agencyID>
            <creationTime>2025-01-17T19:20:54.000000Z</creationTime>
          </creationInfo>
        </arrival>
        <arrival publicID="quakeml:service.scedc.caltech.edu/fdsnws/event/1/query?assocaro=266442645">
          <pickID>quakeml:service.scedc.caltech.edu/fdsnws/event/1/query?assocaro=266442645</pickID>
          <phase>P</phase>
          <timeCorrection>0.0</timeCorrection>
          <azimuth>299.6</azimuth>
          <distance>0.8638</distance>
          <takeoffAngle>
            <value>73.0</value>
          </takeoffAngle>
          <timeResidual>0.15</timeResidual>
          <timeWeight>0.1</timeWeight>
          <creationInfo>
            <agencyID>CI</agencyID>
            <creationTime>2025-01-17T19:20:54.000000Z</creationTime>
          </creationInfo>
        </arrival>
        <arrival publicID="quakeml:service.scedc.caltech.edu/fdsnws/event/1/query?assocaro=424373420">
          <pickID>quakeml:service.scedc.caltech.edu/fdsnws/event/1/query?assocaro=424373420</pickID>
          <phase>S</phase>
          <timeCorrection>0.02</timeCorrection>
          <azimuth>341.9</azimuth>
          <distance>0.1211</distance>
          <takeoffAngle>
            <value>104.0</value>
          </takeoffAngle>
          <timeResidual>0.06</timeResidual>
          <timeWeight>0.06</timeWeight>
          <creationInfo>
            <agencyID>CI</agencyID>
            <creationTime>2025-01-17T19:20:54.000000Z</creationTime>
          </creationInfo>
        </arrival>
        <arrival publicID="quakeml:service.scedc.caltech.edu/fdsnws/event/1/query?assocaro=424373428">
          <pickID>quakeml:service.scedc.caltech.edu/fdsnws/event/1/query?assocaro=424373428</pickID>
          <phase>P</phase>
          <timeCorrection>-0.17</timeCorrection>
          <azimuth>24.8</azimuth>
          <distance>0.1731</distance>
          <takeoffAngle>
            <value>96.0</value>
          </takeoffAngle>
          <timeResidual>0.16</timeResidual>
          <timeWeight>0.11</timeWeight>
          <creationInfo>
            <agencyID>CI</agencyID>
            <creationTime>2025-01-17T19:20:54.000000Z</creationTime>
          </creationInfo>
        </arrival>
        <arrival publicID="quakeml:service.scedc.caltech.edu/fdsnws/event/1/query?assocaro=424373436">
          <pickID>quakeml:service.scedc.caltech.edu/fdsnws/event/1/query?assocaro=424373436</pickID>
          <phase>S</phase>
          <timeCorrection>0.0</timeCorrection>
          <azimuth>24.8</azimuth>
          <distance>0.1731</distance>
          <takeoffAngle>
            <value>96.0</value>
          </takeoffAngle>
          <timeResidual>-0.09</timeResidual>
          <timeWeight>0.06</timeWeight>
          <creationInfo>
            <agencyID>CI</agencyID>
            <creationTime>2025-01-17T19:20:54.000000Z</creationTime>
          </creationInfo>
        </arrival>
        <arrival publicID="quakeml:service.scedc.caltech.edu/fdsnws/event/1/query?assocaro=424373444">
          <pickID>quakeml:service.scedc.caltech.edu/fdsnws/event/1/query?assocaro=424373444</pickID>
          <phase>P</phase>
          <timeCorrection>0.0</timeCorrection>
          <azimuth>139.9</azimuth>
          <distance>0.1808</distance>
          <takeoffAngle>
            <value>95.0</value>
          </takeoffAngle>
          <timeResidual>-0.12</timeResidual>
          <timeWeight>0.17</timeWeight>
          <creationInfo>
            <agencyID>CI</agencyID>
            <creationTime>2025-01-17T19:20:54.000000Z</creationTime>
          </creationInfo>
        </arrival>
        <arrival publicID="quakeml:service.scedc.caltech.edu/fdsnws/event/1/query?assocaro=424373452">
          <pickID>quakeml:service.scedc.caltech.edu/fdsnws/event/1/query?assocaro=424373452</pickID>
          <phase>S</phase>
          <timeCorrection>0.0</timeCorrection>
          <azimuth>139.9</azimuth>
          <distance>0.1808</distance>
          <takeoffAngle>
            <value>95.0</value>
          </takeoffAngle>
          <timeResidual>-0.01</timeResidual>
          <timeWeight>0.06</timeWeight>
          <creationInfo>
            <agencyID>CI</agencyID>
            <creationTime>2025-01-17T19:20:54.000000Z</creationTime>
          </creationInfo>
        </arrival>
        <arrival publicID="quakeml:service.scedc.caltech.edu/fdsnws/event/1/query?assocaro=424373460">
          <pickID>quakeml:service.scedc.caltech.edu/fdsnws/event/1/query?assocaro=424373460</pickID>
          <phase>P</phase>
          <timeCorrection>0.29</timeCorrection>
          <azimuth>199.9</azimuth>
          <distance>0.192</distance>
          <takeoffAngle>
            <value>94.0</value>
          </takeoffAngle>
          <timeResidual>-0.4</timeResidual>
          <timeWeight>0.11</timeWeight>
          <creationInfo>
            <agencyID>CI</agencyID>
            <creationTime>2025-01-17T19:20:54.000000Z</creationTime>
          </creationInfo>
        </arrival>
        <arrival publicID="quakeml:service.scedc.caltech.edu/fdsnws/event/1/query?assocaro=424373468">
