<?xml version='1.0' encoding='utf-8'?>
<q:quakeml xmlns="http://quakeml.org/xmlns/bed/1.2" xmlns:q="http://quakeml.org/xmlns/quakeml/1.2" xmlns:ns0="http://anss.org/xmlns/catalog/0.1">
  <eventParameters publicID="smi:local/60f9ac22-3766-436b-9af2-adf4f7cf552a">
    <event publicID="quakeml:service.scedc.caltech.edu/fdsnws/event/1/query?eventid=40833599" ns0:datasource="ci" ns0:dataid="ci40833599" ns0:eventsource="ci" ns0:eventid="40833599">
      <preferredOriginID>quakeml:service.scedc.caltech.edu/fdsnws/event/1/query?originid=108873108</preferredOriginID>
      <preferredMagnitudeID>quakeml:service.scedc.caltech.edu/fdsnws/event/1/query?magnitudeid=111258980</preferredMagnitudeID>
      <type>earthquake</type>
      <creationInfo>
        <agencyID>CI</agencyID>
        <agencyURI>quakeml:doi.org/10.7909/C3WD3xH1</agencyURI>
        <creationTime>2025-01-06T20:57:44.000000Z</creationTime>
        <version>7</version>
      </creationInfo>
      <origin publicID="quakeml:service.scedc.caltech.edu/fdsnws/event/1/query?originid=108873108" ns0:datasource="ci" ns0:dataid="ci40833599" ns0:eventsource="ci" ns0:eventid="40833599">
        <time>
          <value>2025-01-04T05:27:04.230000Z</value>
        </time>
        <latitude>
          <value>32.5393333</value>
        </latitude>
        <longitude>
          <value>-115.234</value>
        </longitude>
        <depth>
          <value>17930.0</value>
          <uncertainty>1200.0</uncertainty>
        </depth>
        <depthType>from location</depthType>
        <timeFixed>false</timeFixed>
        <epicenterFixed>false</epicenterFixed>
        <methodID>smi:ci.anss.org/origin/HYP2000</methodID>
        <quality>
          <associatedPhaseCount>51</associatedPhaseCount>
          <usedPhaseCount>44</usedPhaseCount>
          <associatedStationCount>28</associatedStationCount>
          <usedStationCount>27</usedStationCount>
          <standardError>0.24</standardError>
          <azimuthalGap>51.0</azimuthalGap>
          <secondaryAzimuthalGap>423.0</secondaryAzimuthalGap>
          <minimumDistance>0.1394</minimumDistance>
          <maximumDistance>0.8062</maximumDistance>
          <medianDistance>0.4683</medianDistance>
        </quality>
        <type>hypocenter</type>
        <evaluationMode>manual</evaluationMode>
        <evaluationStatus>final</evaluationStatus>
        <creationInfo>
          <agencyID>CI</agencyID>
          <creationTime>2025-01-06T20:57:44.000000Z</creationTime>
        </creationInfo>
        <originUncertainty>
          <preferredDescription>confidence ellipsoid</preferredDescription>
          <horizontalUncertainty>320.0</horizontalUncertainty>
          <confidenceLevel>95.0</confidenceLevel>
          <confidenceEllipsoid>
            <semiMajorAxisLength>2904.0</semiMajorAxisLength>
            <semiMinorAxisLength>648.0</semiMinorAxisLength>
            <semiIntermediateAxisLength>768.0</semiIntermediateAxisLength>
            <majorAxisPlunge>83.0</majorAxisPlunge>
            <majorAxisAzimuth>139.0</majorAxisAzimuth>
            <majorAxisRotation>30.0</majorAxisRotation>
          </confidenceEllipsoid>
        </originUncertainty>
        <arrival publicID="quakeml:service.scedc.caltech.edu/fdsnws/event/1/query?assocaro=266249069">
          <pickID>quakeml:service.scedc.caltech.edu/fdsnws/event/1/query?assocaro=266249069</pickID>
          <phase>S</phase>
          <timeCorrection>0.0</timeCorrection>
          <azimuth>114.9</azimuth>
          <distance>0.2506</distance>
          <takeoffAngle>
            <value>116.0</value>
          </takeoffAngle>
          <timeResidual>1.27</timeResidual>
          <timeWeight>0.0</timeWeight>
          <creationInfo>
            <agencyID>CI</agencyID>
            <creationTime>2025-01-06T20:57:44.000000Z</creationTime>
          </creationInfo>
        </arrival>
        <arrival publicID="quakeml:service.scedc.caltech.edu/fdsnws/event/1/query?assocaro=266249077">
          <pickID>quakeml:service.scedc.caltech.edu/fdsnws/event/1/query?assocaro=266249077</pickID>
          <phase>P</phase>
          <timeCorrection>0.0</timeCorrection>
          <azimuth>167.2</azimuth>
          <distance>0.2797</distance>
          <takeoffAngle>
            <value>112.0</value>
          </takeoffAngle>
          <timeResidual>0.05</timeResidual>
          <timeWeight>0.19</timeWeight>
          <creationInfo>
            <agencyID>CI</agencyID>
            <creationTime>2025-01-06T20:57:44.000000Z</creationTime>
          </creationInfo>
        </arrival>
        <arrival publicID="quakeml:service.scedc.caltech.edu/fdsnws/event/1/query?assocaro=266249085">
          <pickID>quakeml:service.scedc.caltech.edu/fdsnws/event/1/query?assocaro=266249085</pickID>
          <phase>S</phase>
          <timeCorrection>0.0</timeCorrection>
          <azimuth>167.2</azimuth>
          <distance>0.2797</distance>
          <takeoffAngle>
            <value>113.0</value>
          </takeoffAngle>
          <timeResidual>1.39</timeResidual>
          <timeWeight>0.0</timeWeight>
          <creationInfo>
            <agencyID>CI</agencyID>
            <creationTime>2025-01-06T20:57:44.000000Z</creationTime>
          </creationInfo>
        </arrival>
        <arrival publicID="quakeml:service.scedc.caltech.edu/fdsnws/event/1/query?assocaro=266249117">
          <pickID>quakeml:service.scedc.caltech.edu/fdsnws/event/1/query?assocaro=266249117</pickID>
          <phase>P</phase>
          <timeCorrection>0.26</timeCorrection>
          <azimuth>16.0</azimuth>
          <distance>0.3364</distance>
          <takeoffAngle>
            <value>106.0</value>
          </takeoffAngle>
          <timeResidual>0.06</timeResidual>
          <timeWeight>0.26</timeWeight>
          <creationInfo>
            <agencyID>CI</agencyID>
            <creationTime>2025-01-06T20:57:44.000000Z</creationTime>
          </creationInfo>
        </arrival>
        <arrival publicID="quakeml:service.scedc.caltech.edu/fdsnws/event/1/query?assocaro=266249125">
          <pickID>quakeml:service.scedc.caltech.edu/fdsnws/event/1/query?assocaro=266249125</pickID>
          <phase>S</phase>
          <timeCorrection>0.15</timeCorrection>
          <azimuth>16.0</azimuth>
          <distance>0.3364</distance>
          <takeoffAngle>
            <value>108.0</value>
          </takeoffAngle>
          <timeResidual>1.23</timeResidual>
          <timeWeight>0.01</timeWeight>
          <creationInfo>
            <agencyID>CI</agencyID>
            <creationTime>2025-01-06T20:57:44.000000Z</creationTime>
          </creationInfo>
        </arrival>
        <arrival publicID="quakeml:service.scedc.caltech.edu/fdsnws/event/1/query?assocaro=266249141">
          <pickID>quakeml:service.scedc.caltech.edu/fdsnws/event/1/query?assocaro=266249141</pickID>
          <phase>S</phase>
          <timeCorrection>0.69</timeCorrection>
          <azimuth>332.3</azimuth>
          <distance>0.3639</distance>
          <takeoffAngle>
            <value>106.0</value>
          </takeoffAngle>
          <timeResidual>1.27</timeResidual>
          <timeWeight>0.0</timeWeight>
          <creationInfo>
            <agencyID>CI</agencyID>
            <creationTime>2025-01-06T20:57:44.000000Z</creationTime>
          </creationInfo>
        </arrival>
        <arrival publicID="quakeml:service.scedc.caltech.edu/fdsnws/event/1/query?assocaro=266249173">
          <pickID>quakeml:service.scedc.caltech.edu/fdsnws/event/1/query?assocaro=266249173</pickID>
          <phase>S</phase>
          <timeCorrection>-0.06</timeCorrection>
          <azimuth>285.0</azimuth>
          <distance>0.4299</distance>
          <takeoffAngle>
            <value>101.0</value>
          </takeoffAngle>
          <timeResidual>0.64</timeResidual>
          <timeWeight>0.06</timeWeight>
          <creationInfo>
            <agencyID>CI</agencyID>
            <creationTime>2025-01-06T20:57:44.000000Z</creationTime>
          </creationInfo>
        </arrival>
        <arrival publicID="quakeml:service.scedc.caltech.edu/fdsnws/event/1/query?assocaro=266249189">
          <pickID>quakeml:service.scedc.caltech.edu/fdsnws/event/1/query?assocaro=266249189</pickID>
          <phase>P</phase>
          <timeCorrection>-0.06</timeCorrection>
          <azimuth>26.4</azimuth>
          <distance>0.4825</distance>
          <takeoffAngle>
            <value>97.0</value>
          </takeoffAngle>
          <timeResidual>-0.03</timeResidual>
          <timeWeight>0.26</timeWeight>
          <creationInfo>
            <agencyID>CI</agencyID>
            <creationTime>2025-01-06T20:57:44.000000Z</creationTime>
          </creationInfo>
        </arrival>
        <arrival publicID="quakeml:service.scedc.caltech.edu/fdsnws/event/1/query?assocaro=266249213">
          <pickID>quakeml:service.scedc.caltech.edu/fdsnws/event/1/query?assocaro=266249213</pickID>
          <phase>S</phase>
          <timeCorrection>0.0</timeCorrection>
          <azimuth>51.0</azimuth>
          <distance>0.4864</distance>
          <takeoffAngle>
            <value>99.0</value>
          </takeoffAngle>
          <timeResidual>-0.06</timeResidual>
          <timeWeight>0.07</timeWeight>
          <creationInfo>
            <agencyID>CI</agencyID>
            <creationTime>2025-01-06T20:57:44.000000Z</creationTime>
          </creationInfo>
        </arrival>
        <arrival publicID="quakeml:service.scedc.caltech.edu/fdsnws/event/1/query?assocaro=266249269">
          <pickID>quakeml:service.scedc.caltech.edu/fdsnws/event/1/query?assocaro=266249269</pickID>
          <phase>S</phase>
          <timeCorrection>-0.03</timeCorrection>
          <azimuth>310.6</azimuth>
          <distance>0.6254</distance>
          <takeoffAngle>
            <value>95.0</value>
          </takeoffAngle>
          <timeResidual>0.23</timeResidual>
          <timeWeight>0.07</timeWeight>
          <creationInfo>
            <agencyID>CI</agencyID>
            <creationTime>2025-01-06T20:57:44.000000Z</creationTime>
          </creationInfo>
        </arrival>
        <arrival publicID="quakeml:service.scedc.caltech.edu/fdsnws/event/1/query?assocaro=266249301">
          <pickID>quakeml:service.scedc.caltech.edu/fdsnws/event/1/query?assocaro=266249301</pickID>
          <phase>P</phase>
          <timeCorrection>0.0</timeCorrection>
          <azimuth>287.7</azimuth>
          <distance>0.6943</distance>
          <takeoffAngle>
            <value>93.0</value>
          </takeoffAngle>
          <timeResidual>0.29</timeResidual>
          <timeWeight>0.13</timeWeight>
          <creationInfo>
            <agencyID>CI</agencyID>
            <creationTime>2025-01-06T20:57:44.000000Z</creationTime>
          </creationInfo>
        </arrival>
        <arrival publicID="quakeml:service.scedc.caltech.edu/fdsnws/event/1/query?assocaro=266249325">
          <pickID>quakeml:service.scedc.caltech.edu/fdsnws/event/1/query?assocaro=266249325</pickID>
          <phase>P</phase>
          <timeCorrection>0.0</timeCorrection>
          <azimuth>86.3</azimuth>
          <distance>0.7426</distance>
          <takeoffAngle>
            <value>92.0</value>
          </takeoffAngle>
          <timeResidual>-0.09</timeResidual>
          <timeWeight>0.13</timeWeight>
          <creationInfo>
            <agencyID>CI</agencyID>
            <creationTime>2025-01-06T20:57:44.000000Z</creationTime>
          </creationInfo>
        </arrival>
        <arrival publicID="quakeml:service.scedc.caltech.edu/fdsnws/event/1/query?assocaro=266249349">
          <pickID>quakeml:service.scedc.caltech.edu/fdsnws/event/1/query?assocaro=266249349</pickID>
          <phase>P</phase>
          <timeCorrection>0.0</timeCorrection>
          <azimuth>289.4</azimuth>
          <distance>0.7704</distance>
          <takeoffAngle>
            <value>92.0</value>
          </takeoffAngle>
          <timeResidual>-0.2</timeResidual>
          <timeWeight>0.13</timeWeight>
          <creationInfo>
            <agencyID>CI</agencyID>
            <creationTime>2025-01-06T20:57:44.000000Z</creationTime>
          </creationInfo>
        </arrival>
        <arrival publicID="quakeml:service.scedc.caltech.edu/fdsnws/event/1/query?assocaro=266249365">
          <pickID>quakeml:service.scedc.caltech.edu/fdsnws/event/1/query?assocaro=266249365</pickID>
          <phase>S</phase>
          <timeCorrection>-0.25</timeCorrection>
          <azimuth>228.7</azimuth>
          <distance>0.8062</distance>
          <takeoffAngle>
            <value>75.0</value>
          </takeoffAngle>
          <timeResidual>0.51</timeResidual>
          <timeWeight>0.06</timeWeight>
          <creationInfo>
            <agencyID>CI</agencyID>
            <creationTime>2025-01-06T20:57:44.000000Z</creationTime>
          </creationInfo>
        </arrival>
        <arrival publicID="quakeml:service.scedc.caltech.edu/fdsnws/event/1/query?assocaro=424252340">
          <pickID>quakeml:service.scedc.caltech.edu/fdsnws/event/1/query?assocaro=424252340</pickID>
          <phase>P</phase>
          <timeCorrection>0.0</timeCorrection>
          <azimuth>130.8</azimuth>
          <distance>0.1394</distance>
          <takeoffAngle>
            <value>134.0</value>
          </takeoffAngle>
          <timeResidual>-0.02</timeResidual>
          <timeWeight>0.19</timeWeight>
          <creationInfo>
            <agencyID>CI</agencyID>
            <creationTime>2025-01-06T20:57:44.000000Z</creationTime>
          </creationInfo>
        </arrival>
        <arrival publicID="quakeml:service.scedc.caltech.edu/fdsnws/event/1/query?assocaro=424252348">
          <pickID>quakeml:service.scedc.caltech.edu/fdsnws/event/1/query?assocaro=424252348</pickID>
          <phase>S</phase>
          <timeCorrection>0.0</timeCorrection>
          <azimuth>130.8</azimuth>
          <distance>0.1394</distance>
          <takeoffAngle>
            <value>135.0</value>
          </takeoffAngle>
          <timeResidual>0.99</timeResidual>
          <timeWeight>0.02</timeWeight>
          <creationInfo>
            <agencyID>CI</agencyID>
            <creationTime>2025-01-06T20:57:44.000000Z</creationTime>
          </creationInfo>
        </arrival>
        <arrival publicID="quakeml:service.scedc.caltech.edu/fdsnws/event/1/query?assocaro=424252356">
          <pickID>quakeml:service.scedc.caltech.edu/fdsnws/event/1/query?assocaro=424252356</pickID>
          <phase>P</phase>
          <timeCorrection>0.4</timeCorrection>
          <azimuth>297.5</azimuth>
          <distance>0.2003</distance>
          <takeoffAngle>
            <value>122.0</value>
          </takeoffAngle>
          <timeResidual>-0.09</timeResidual>
          <timeWeight>0.13</timeWeight>
          <creationInfo>
            <agencyID>CI</agencyID>
            <creationTime>2025-01-06T20:57:44.000000Z</creationTime>
          </creationInfo>
        </arrival>
        <arrival publicID="quakeml:service.scedc.caltech.edu/fdsnws/event/1/query?assocaro=424252364">
          <pickID>quakeml:service.scedc.caltech.edu/fdsnws/event/1/query?assocaro=424252364</pickID>
          <phase>P</phase>
          <timeCorrection>0.0</timeCorrection>
          <azimuth>114.9</azimuth>
          <distance>0.2506</distance>
          <takeoffAngle>
            <value>115.0</value>
          </takeoffAngle>
          <timeResidual>0.25</timeResidual>
          <timeWeight>0.13</timeWeight>
          <creationInfo>
            <agencyID>CI</agencyID>
            <creationTime>2025-01-06T20:57:44.000000Z</creationTime>
          </creationInfo>
        </arrival>
        <arrival publicID="quakeml:service.scedc.caltech.edu/fdsnws/event/1/query?assocaro=424252372">
          <pickID>quakeml:service.scedc.caltech.edu/fdsnws/event/1/query?assocaro=424252372</pickID>
          <phase>P</phase>
          <timeCorrection>0.25</timeCorrection>
          <azimuth>150.5</azimuth>
          <distance>0.271</distance>
          <takeoffAngle>
            <value>113.0</value>
          </takeoffAngle>
          <timeResidual>-0.06</timeResidual>
          <timeWeight>0.13</timeWeight>
          <creationInfo>
            <agencyID>CI</agencyID>
            <creationTime>2025-01-06T20:57:44.000000Z</creationTime>
          </creationInfo>
        </arrival>
        <arrival publicID="quakeml:service.scedc.caltech.edu/fdsnws/event/1/query?assocaro=424252380">
          <pickID>quakeml:service.scedc.caltech.edu/fdsnws/event/1/query?assocaro=424252380</pickID>
          <phase>S</phase>
          <timeCorrection>0.52</timeCorrection>
          <azimuth>150.5</azimuth>
          <distance>0.271</distance>
          <takeoffAngle>
            <value>114.0</value>
          </takeoffAngle>
          <timeResidual>0.87</timeResidual>
          <timeWeight>0.01</timeWeight>
          <creationInfo>
            <agencyID>CI</agencyID>
            <creationTime>2025-01-06T20:57:44.000000Z</creationTime>
          </creationInfo>
        </arrival>
        <arrival publicID="quakeml:service.scedc.caltech.edu/fdsnws/event/1/query?assocaro=424252388">
          <pickID>quakeml:service.scedc.caltech.edu/fdsnws/event/1/query?assocaro=424252388</pickID>
          <phase>P</phase>
          <timeCorrection>0.37</timeCorrection>
          <azimuth>46.3</azimuth>
          <distance>0.2895</distance>
          <takeoffAngle>
            <value>111.0</value>
          </takeoffAngle>
          <timeResidual>0.04</timeResidual>
          <timeWeight>0.13</timeWeight>
          <creationInfo>
            <agencyID>CI</agencyID>
            <creationTime>2025-01-06T20:57:44.000000Z</creationTime>
          </creationInfo>
        </arrival>
        <arrival publicID="quakeml:service.scedc.caltech.edu/fdsnws/event/1/query?assocaro=424252396">
          <pickID>quakeml:service.scedc.caltech.edu/fdsnws/event/1/query?assocaro=424252396</pickID>
          <phase>S</phase>
          <timeCorrection>0.28</timeCorrection>
          <azimuth>46.3</azimuth>
          <distance>0.2895</distance>
          <takeoffAngle>
            <value>112.0</value>
          </takeoffAngle>
          <timeResidual>0.79</timeResidual>
          <timeWeight>0.05</timeWeight>
          <creationInfo>
            <agencyID>CI</agencyID>
            <creationTime>2025-01-06T20:57:44.000000Z</creationTime>
          </creationInfo>
        </arrival>
        <arrival publicID="quakeml:service.scedc.caltech.edu/fdsnws/event/1/query?assocaro=424252404">
          <pickID>quakeml:service.scedc.caltech.edu/fdsnws/event/1/query?assocaro=424252404</pickID>
          <phase>P</phase>
          <timeCorrection>0.0</timeCorrection>
          <azimuth>269.8</azimuth>
          <distance>0.2935</distance>
          <takeoffAngle>
            <value>110.0</value>
          </takeoffAngle>
          <timeResidual>-0.49</timeResidual>
          <timeWeight>0.13</timeWeight>
          <creationInfo>
            <agencyID>CI</agencyID>
            <creationTime>2025-01-06T20:57:44.000000Z</creationTime>
          </creationInfo>
        </arrival>
        <arrival publicID="quakeml:service.scedc.caltech.edu/fdsnws/event/1/query?assocaro=424252412">
          <pickID>quakeml:service.scedc.caltech.edu/fdsnws/event/1/query?assocaro=424252412</pickID>
          <phase>S</phase>
          <timeCorrection>0.0</timeCorrection>
          <azimuth>269.8</azimuth>
          <distance>0.2935</distance>
          <takeoffAngle>
            <value>111.0</value>
          </takeoffAngle>
          <timeResidual>-0.24</timeResidual>
          <timeWeight>0.07</timeWeight>
          <creationInfo>
            <agencyID>CI</agencyID>
            <creationTime>2025-01-06T20:57:44.000000Z</creationTime>
          </creationInfo>
        </arrival>
        <arrival publicID="quakeml:service.scedc.caltech.edu/fdsnws/event/1/query?assocaro=424252420">
