<?xml version='1.0' encoding='utf-8'?>
<q:quakeml xmlns="http://quakeml.org/xmlns/bed/1.2" xmlns:q="http://quakeml.org/xmlns/quakeml/1.2" xmlns:ns0="http://anss.org/xmlns/catalog/0.1">
  <eventParameters publicID="smi:local/2f175949-6c2e-48ec-986f-bdacc24a6735">
    <event publicID="quakeml:service.scedc.caltech.edu/fdsnws/event/1/query?eventid=40833943" ns0:datasource="ci" ns0:dataid="ci40833943" ns0:eventsource="ci" ns0:eventid="40833943">
      <preferredOriginID>quakeml:service.scedc.caltech.edu/fdsnws/event/1/query?originid=105807341</preferredOriginID>
      <preferredMagnitudeID>quakeml:service.scedc.caltech.edu/fdsnws/event/1/query?magnitudeid=109259509</preferredMagnitudeID>
      <type>earthquake</type>
      <creationInfo>
        <agencyID>CI</agencyID>
        <agencyURI>quakeml:doi.org/10.7909/C3WD3xH1</agencyURI>
        <creationTime>2025-01-05T01:59:51.000000Z</creationTime>
        <version>6</version>
      </creationInfo>
      <origin publicID="quakeml:service.scedc.caltech.edu/fdsnws/event/1/query?originid=105807341" ns0:datasource="ci" ns0:dataid="ci40833943" ns0:eventsource="ci" ns0:eventid="40833943">
        <time>
          <value>2025-01-05T01:55:59.630000Z</value>
        </time>
        <latitude>
          <value>33.3998333</value>
        </latitude>
        <longitude>
          <value>-116.3753333</value>
        </longitude>
        <depth>
          <value>1540.0</value>
          <uncertainty>400.0</uncertainty>
        </depth>
        <depthType>from location</depthType>
        <timeFixed>false</timeFixed>
        <epicenterFixed>false</epicenterFixed>
        <methodID>smi:ci.anss.org/origin/HYP2000</methodID>
        <quality>
          <associatedPhaseCount>80</associatedPhaseCount>
          <usedPhaseCount>79</usedPhaseCount>
          <associatedStationCount>47</associatedStationCount>
          <usedStationCount>47</usedStationCount>
          <standardError>0.24</standardError>
          <azimuthalGap>35.0</azimuthalGap>
          <secondaryAzimuthalGap>427.0</secondaryAzimuthalGap>
          <minimumDistance>0.06649</minimumDistance>
          <maximumDistance>0.8703</maximumDistance>
          <medianDistance>0.4566</medianDistance>
        </quality>
        <type>hypocenter</type>
        <evaluationMode>manual</evaluationMode>
        <evaluationStatus>final</evaluationStatus>
        <creationInfo>
          <agencyID>CI</agencyID>
          <creationTime>2025-01-05T01:59:37.000000Z</creationTime>
        </creationInfo>
        <originUncertainty>
          <preferredDescription>confidence ellipsoid</preferredDescription>
          <horizontalUncertainty>210.0</horizontalUncertainty>
          <confidenceLevel>95.0</confidenceLevel>
          <confidenceEllipsoid>
            <semiMajorAxisLength>984.0</semiMajorAxisLength>
            <semiMinorAxisLength>384.0</semiMinorAxisLength>
            <semiIntermediateAxisLength>504.0</semiIntermediateAxisLength>
            <majorAxisPlunge>75.0</majorAxisPlunge>
            <majorAxisAzimuth>168.0</majorAxisAzimuth>
            <majorAxisRotation>74.0</majorAxisRotation>
          </confidenceEllipsoid>
        </originUncertainty>
        <arrival publicID="quakeml:service.scedc.caltech.edu/fdsnws/event/1/query?assocaro=144510087">
          <pickID>quakeml:service.scedc.caltech.edu/fdsnws/event/1/query?assocaro=144510087</pickID>
          <phase>P</phase>
          <timeCorrection>0.0</timeCorrection>
          <azimuth>187.0</azimuth>
          <distance>0.7607</distance>
          <takeoffAngle>
            <value>55.0</value>
          </takeoffAngle>
          <timeResidual>-0.2</timeResidual>
          <timeWeight>0.11</timeWeight>
          <creationInfo>
            <agencyID>CI</agencyID>
            <creationTime>2025-01-05T01:59:37.000000Z</creationTime>
          </creationInfo>
        </arrival>
        <arrival publicID="quakeml:service.scedc.caltech.edu/fdsnws/event/1/query?assocaro=144510119">
          <pickID>quakeml:service.scedc.caltech.edu/fdsnws/event/1/query?assocaro=144510119</pickID>
          <phase>P</phase>
          <timeCorrection>-0.17</timeCorrection>
          <azimuth>231.0</azimuth>
          <distance>0.6209</distance>
          <takeoffAngle>
            <value>55.0</value>
          </takeoffAngle>
          <timeResidual>-0.2</timeResidual>
          <timeWeight>0.11</timeWeight>
          <creationInfo>
            <agencyID>CI</agencyID>
            <creationTime>2025-01-05T01:59:37.000000Z</creationTime>
          </creationInfo>
        </arrival>
        <arrival publicID="quakeml:service.scedc.caltech.edu/fdsnws/event/1/query?assocaro=144510199">
          <pickID>quakeml:service.scedc.caltech.edu/fdsnws/event/1/query?assocaro=144510199</pickID>
          <phase>P</phase>
          <timeCorrection>0.02</timeCorrection>
          <azimuth>174.0</azimuth>
          <distance>0.07323</distance>
          <takeoffAngle>
            <value>105.0</value>
          </takeoffAngle>
          <timeResidual>-0.04</timeResidual>
          <timeWeight>0.22</timeWeight>
          <creationInfo>
            <agencyID>CI</agencyID>
            <creationTime>2025-01-05T01:59:37.000000Z</creationTime>
          </creationInfo>
        </arrival>
        <arrival publicID="quakeml:service.scedc.caltech.edu/fdsnws/event/1/query?assocaro=266264325">
          <pickID>quakeml:service.scedc.caltech.edu/fdsnws/event/1/query?assocaro=266264325</pickID>
          <phase>P</phase>
          <timeCorrection>0.0</timeCorrection>
          <azimuth>124.0</azimuth>
          <distance>0.06649</distance>
          <takeoffAngle>
            <value>106.0</value>
          </takeoffAngle>
          <timeResidual>0.03</timeResidual>
          <timeWeight>0.22</timeWeight>
          <creationInfo>
            <agencyID>CI</agencyID>
            <creationTime>2025-01-05T01:59:37.000000Z</creationTime>
          </creationInfo>
        </arrival>
        <arrival publicID="quakeml:service.scedc.caltech.edu/fdsnws/event/1/query?assocaro=266264333">
          <pickID>quakeml:service.scedc.caltech.edu/fdsnws/event/1/query?assocaro=266264333</pickID>
          <phase>S</phase>
          <timeCorrection>0.0</timeCorrection>
          <azimuth>124.0</azimuth>
          <distance>0.06649</distance>
          <takeoffAngle>
            <value>106.0</value>
          </takeoffAngle>
          <timeResidual>0.06</timeResidual>
          <timeWeight>0.08</timeWeight>
          <creationInfo>
            <agencyID>CI</agencyID>
            <creationTime>2025-01-05T01:59:37.000000Z</creationTime>
          </creationInfo>
        </arrival>
        <arrival publicID="quakeml:service.scedc.caltech.edu/fdsnws/event/1/query?assocaro=266264341">
          <pickID>quakeml:service.scedc.caltech.edu/fdsnws/event/1/query?assocaro=266264341</pickID>
          <phase>P</phase>
          <timeCorrection>-0.07</timeCorrection>
          <azimuth>195.0</azimuth>
          <distance>0.1359</distance>
          <takeoffAngle>
            <value>98.0</value>
          </takeoffAngle>
          <timeResidual>-0.1</timeResidual>
          <timeWeight>0.22</timeWeight>
          <creationInfo>
            <agencyID>CI</agencyID>
            <creationTime>2025-01-05T01:59:37.000000Z</creationTime>
          </creationInfo>
        </arrival>
        <arrival publicID="quakeml:service.scedc.caltech.edu/fdsnws/event/1/query?assocaro=266264349">
          <pickID>quakeml:service.scedc.caltech.edu/fdsnws/event/1/query?assocaro=266264349</pickID>
          <phase>S</phase>
          <timeCorrection>-0.3</timeCorrection>
          <azimuth>195.0</azimuth>
          <distance>0.1359</distance>
          <takeoffAngle>
            <value>98.0</value>
          </takeoffAngle>
          <timeResidual>0.03</timeResidual>
          <timeWeight>0.06</timeWeight>
          <creationInfo>
            <agencyID>CI</agencyID>
            <creationTime>2025-01-05T01:59:37.000000Z</creationTime>
          </creationInfo>
        </arrival>
        <arrival publicID="quakeml:service.scedc.caltech.edu/fdsnws/event/1/query?assocaro=266264357">
          <pickID>quakeml:service.scedc.caltech.edu/fdsnws/event/1/query?assocaro=266264357</pickID>
          <phase>P</phase>
          <timeCorrection>-0.03</timeCorrection>
          <azimuth>253.0</azimuth>
          <distance>0.163</distance>
          <takeoffAngle>
            <value>96.0</value>
          </takeoffAngle>
          <timeResidual>0.07</timeResidual>
          <timeWeight>0.22</timeWeight>
          <creationInfo>
            <agencyID>CI</agencyID>
            <creationTime>2025-01-05T01:59:37.000000Z</creationTime>
          </creationInfo>
        </arrival>
        <arrival publicID="quakeml:service.scedc.caltech.edu/fdsnws/event/1/query?assocaro=266264365">
          <pickID>quakeml:service.scedc.caltech.edu/fdsnws/event/1/query?assocaro=266264365</pickID>
          <phase>S</phase>
          <timeCorrection>-0.2</timeCorrection>
          <azimuth>253.0</azimuth>
          <distance>0.163</distance>
          <takeoffAngle>
            <value>96.0</value>
          </takeoffAngle>
          <timeResidual>0.42</timeResidual>
          <timeWeight>0.08</timeWeight>
          <creationInfo>
            <agencyID>CI</agencyID>
            <creationTime>2025-01-05T01:59:37.000000Z</creationTime>
          </creationInfo>
        </arrival>
        <arrival publicID="quakeml:service.scedc.caltech.edu/fdsnws/event/1/query?assocaro=266264373">
          <pickID>quakeml:service.scedc.caltech.edu/fdsnws/event/1/query?assocaro=266264373</pickID>
          <phase>P</phase>
          <timeCorrection>-0.08</timeCorrection>
          <azimuth>297.0</azimuth>
          <distance>0.212</distance>
          <takeoffAngle>
            <value>60.0</value>
          </takeoffAngle>
          <timeResidual>0.14</timeResidual>
          <timeWeight>0.17</timeWeight>
          <creationInfo>
            <agencyID>CI</agencyID>
            <creationTime>2025-01-05T01:59:37.000000Z</creationTime>
          </creationInfo>
        </arrival>
        <arrival publicID="quakeml:service.scedc.caltech.edu/fdsnws/event/1/query?assocaro=266264381">
          <pickID>quakeml:service.scedc.caltech.edu/fdsnws/event/1/query?assocaro=266264381</pickID>
          <phase>S</phase>
          <timeCorrection>-0.33</timeCorrection>
          <azimuth>297.0</azimuth>
          <distance>0.212</distance>
          <takeoffAngle>
            <value>61.0</value>
          </takeoffAngle>
          <timeResidual>0.31</timeResidual>
          <timeWeight>0.06</timeWeight>
          <creationInfo>
            <agencyID>CI</agencyID>
            <creationTime>2025-01-05T01:59:37.000000Z</creationTime>
          </creationInfo>
        </arrival>
        <arrival publicID="quakeml:service.scedc.caltech.edu/fdsnws/event/1/query?assocaro=266264389">
          <pickID>quakeml:service.scedc.caltech.edu/fdsnws/event/1/query?assocaro=266264389</pickID>
          <phase>P</phase>
          <timeCorrection>-0.1</timeCorrection>
          <azimuth>35.0</azimuth>
          <distance>0.215</distance>
          <takeoffAngle>
            <value>60.0</value>
          </takeoffAngle>
          <timeResidual>-0.15</timeResidual>
          <timeWeight>0.22</timeWeight>
          <creationInfo>
            <agencyID>CI</agencyID>
            <creationTime>2025-01-05T01:59:37.000000Z</creationTime>
          </creationInfo>
        </arrival>
        <arrival publicID="quakeml:service.scedc.caltech.edu/fdsnws/event/1/query?assocaro=266264397">
          <pickID>quakeml:service.scedc.caltech.edu/fdsnws/event/1/query?assocaro=266264397</pickID>
          <phase>S</phase>
          <timeCorrection>-0.29</timeCorrection>
          <azimuth>35.0</azimuth>
          <distance>0.215</distance>
          <takeoffAngle>
            <value>61.0</value>
          </takeoffAngle>
          <timeResidual>-0.18</timeResidual>
          <timeWeight>0.06</timeWeight>
          <creationInfo>
            <agencyID>CI</agencyID>
            <creationTime>2025-01-05T01:59:37.000000Z</creationTime>
          </creationInfo>
        </arrival>
        <arrival publicID="quakeml:service.scedc.caltech.edu/fdsnws/event/1/query?assocaro=266264405">
          <pickID>quakeml:service.scedc.caltech.edu/fdsnws/event/1/query?assocaro=266264405</pickID>
          <phase>P</phase>
          <timeCorrection>-0.17</timeCorrection>
          <azimuth>342.0</azimuth>
          <distance>0.2227</distance>
          <takeoffAngle>
            <value>60.0</value>
          </takeoffAngle>
          <timeResidual>-0.11</timeResidual>
          <timeWeight>0.22</timeWeight>
          <creationInfo>
            <agencyID>CI</agencyID>
            <creationTime>2025-01-05T01:59:37.000000Z</creationTime>
          </creationInfo>
        </arrival>
        <arrival publicID="quakeml:service.scedc.caltech.edu/fdsnws/event/1/query?assocaro=266264413">
          <pickID>quakeml:service.scedc.caltech.edu/fdsnws/event/1/query?assocaro=266264413</pickID>
          <phase>S</phase>
          <timeCorrection>-0.43</timeCorrection>
          <azimuth>342.0</azimuth>
          <distance>0.2227</distance>
          <takeoffAngle>
            <value>61.0</value>
          </takeoffAngle>
          <timeResidual>-0.08</timeResidual>
          <timeWeight>0.06</timeWeight>
          <creationInfo>
            <agencyID>CI</agencyID>
            <creationTime>2025-01-05T01:59:37.000000Z</creationTime>
          </creationInfo>
        </arrival>
        <arrival publicID="quakeml:service.scedc.caltech.edu/fdsnws/event/1/query?assocaro=266264421">
          <pickID>quakeml:service.scedc.caltech.edu/fdsnws/event/1/query?assocaro=266264421</pickID>
          <phase>P</phase>
          <timeCorrection>0.07</timeCorrection>
          <azimuth>153.0</azimuth>
          <distance>0.2302</distance>
          <takeoffAngle>
            <value>60.0</value>
          </takeoffAngle>
          <timeResidual>0.02</timeResidual>
          <timeWeight>0.11</timeWeight>
          <creationInfo>
            <agencyID>CI</agencyID>
            <creationTime>2025-01-05T01:59:37.000000Z</creationTime>
          </creationInfo>
        </arrival>
        <arrival publicID="quakeml:service.scedc.caltech.edu/fdsnws/event/1/query?assocaro=266264429">
          <pickID>quakeml:service.scedc.caltech.edu/fdsnws/event/1/query?assocaro=266264429</pickID>
          <phase>S</phase>
          <timeCorrection>0.11</timeCorrection>
          <azimuth>153.0</azimuth>
          <distance>0.2302</distance>
          <takeoffAngle>
            <value>61.0</value>
          </takeoffAngle>
          <timeResidual>0.07</timeResidual>
          <timeWeight>0.03</timeWeight>
          <creationInfo>
            <agencyID>CI</agencyID>
            <creationTime>2025-01-05T01:59:37.000000Z</creationTime>
          </creationInfo>
        </arrival>
        <arrival publicID="quakeml:service.scedc.caltech.edu/fdsnws/event/1/query?assocaro=266264437">
          <pickID>quakeml:service.scedc.caltech.edu/fdsnws/event/1/query?assocaro=266264437</pickID>
          <phase>P</phase>
          <timeCorrection>0.0</timeCorrection>
          <azimuth>285.0</azimuth>
          <distance>0.2326</distance>
          <takeoffAngle>
            <value>60.0</value>
          </takeoffAngle>
          <timeResidual>0.14</timeResidual>
          <timeWeight>0.11</timeWeight>
          <creationInfo>
            <agencyID>CI</agencyID>
            <creationTime>2025-01-05T01:59:37.000000Z</creationTime>
          </creationInfo>
        </arrival>
        <arrival publicID="quakeml:service.scedc.caltech.edu/fdsnws/event/1/query?assocaro=266264445">
          <pickID>quakeml:service.scedc.caltech.edu/fdsnws/event/1/query?assocaro=266264445</pickID>
          <phase>S</phase>
          <timeCorrection>0.0</timeCorrection>
          <azimuth>285.0</azimuth>
          <distance>0.2326</distance>
          <takeoffAngle>
            <value>61.0</value>
          </takeoffAngle>
          <timeResidual>0.13</timeResidual>
          <timeWeight>0.06</timeWeight>
          <creationInfo>
            <agencyID>CI</agencyID>
            <creationTime>2025-01-05T01:59:37.000000Z</creationTime>
          </creationInfo>
        </arrival>
        <arrival publicID="quakeml:service.scedc.caltech.edu/fdsnws/event/1/query?assocaro=266264453">
          <pickID>quakeml:service.scedc.caltech.edu/fdsnws/event/1/query?assocaro=266264453</pickID>
          <phase>P</phase>
          <timeCorrection>-0.18</timeCorrection>
          <azimuth>0.0</azimuth>
          <distance>0.2474</distance>
          <takeoffAngle>
            <value>60.0</value>
          </takeoffAngle>
          <timeResidual>-0.18</timeResidual>
          <timeWeight>0.22</timeWeight>
          <creationInfo>
            <agencyID>CI</agencyID>
            <creationTime>2025-01-05T01:59:37.000000Z</creationTime>
          </creationInfo>
        </arrival>
        <arrival publicID="quakeml:service.scedc.caltech.edu/fdsnws/event/1/query?assocaro=266264461">
          <pickID>quakeml:service.scedc.caltech.edu/fdsnws/event/1/query?assocaro=266264461</pickID>
          <phase>S</phase>
          <timeCorrection>-0.46</timeCorrection>
          <azimuth>0.0</azimuth>
          <distance>0.2474</distance>
          <takeoffAngle>
            <value>61.0</value>
          </takeoffAngle>
          <timeResidual>-0.31</timeResidual>
          <timeWeight>0.08</timeWeight>
          <creationInfo>
            <agencyID>CI</agencyID>
            <creationTime>2025-01-05T01:59:37.000000Z</creationTime>
          </creationInfo>
        </arrival>
        <arrival publicID="quakeml:service.scedc.caltech.edu/fdsnws/event/1/query?assocaro=266264469">
          <pickID>quakeml:service.scedc.caltech.edu/fdsnws/event/1/query?assocaro=266264469</pickID>
          <phase>P</phase>
          <timeCorrection>-0.07</timeCorrection>
          <azimuth>308.0</azimuth>
          <distance>0.2499</distance>
          <takeoffAngle>
            <value>60.0</value>
          </takeoffAngle>
          <timeResidual>0.3</timeResidual>
          <timeWeight>0.11</timeWeight>
          <creationInfo>
            <agencyID>CI</agencyID>
            <creationTime>2025-01-05T01:59:37.000000Z</creationTime>
          </creationInfo>
        </arrival>
        <arrival publicID="quakeml:service.scedc.caltech.edu/fdsnws/event/1/query?assocaro=266264477">
          <pickID>quakeml:service.scedc.caltech.edu/fdsnws/event/1/query?assocaro=266264477</pickID>
          <phase>S</phase>
          <timeCorrection>-0.26</timeCorrection>
          <azimuth>308.0</azimuth>
          <distance>0.2499</distance>
          <takeoffAngle>
            <value>61.0</value>
          </takeoffAngle>
          <timeResidual>0.65</timeResidual>
          <timeWeight>0.06</timeWeight>
          <creationInfo>
            <agencyID>CI</agencyID>
            <creationTime>2025-01-05T01:59:37.000000Z</creationTime>
          </creationInfo>
        </arrival>
        <arrival publicID="quakeml:service.scedc.caltech.edu/fdsnws/event/1/query?assocaro=266264485">
          <pickID>quakeml:service.scedc.caltech.edu/fdsnws/event/1/query?assocaro=266264485</pickID>
          <phase>S</phase>
          <timeCorrection>-0.07</timeCorrection>
          <azimuth>309.0</azimuth>
          <distance>0.2705</distance>
          <takeoffAngle>
            <value>61.0</value>
          </takeoffAngle>
          <timeResidual>0.51</timeResidual>
          <timeWeight>0.06</timeWeight>
          <creationInfo>
            <agencyID>CI</agencyID>
            <creationTime>2025-01-05T01:59:37.000000Z</creationTime>
          </creationInfo>
        </arrival>
        <arrival publicID="quakeml:service.scedc.caltech.edu/fdsnws/event/1/query?assocaro=266264493">
