<?xml version='1.0' encoding='utf-8'?>
<q:quakeml xmlns="http://quakeml.org/xmlns/bed/1.2" xmlns:q="http://quakeml.org/xmlns/quakeml/1.2" xmlns:ns0="http://anss.org/xmlns/catalog/0.1">
  <eventParameters publicID="smi:local/c4a256d8-e616-4f82-b796-257a6869db91">
    <event publicID="quakeml:service.scedc.caltech.edu/fdsnws/event/1/query?eventid=40834383" ns0:datasource="ci" ns0:dataid="ci40834383" ns0:eventsource="ci" ns0:eventid="40834383">
      <preferredOriginID>quakeml:service.scedc.caltech.edu/fdsnws/event/1/query?originid=105807661</preferredOriginID>
      <preferredMagnitudeID>quakeml:service.scedc.caltech.edu/fdsnws/event/1/query?magnitudeid=109260149</preferredMagnitudeID>
      <type>earthquake</type>
      <creationInfo>
        <agencyID>CI</agencyID>
        <agencyURI>quakeml:doi.org/10.7909/C3WD3xH1</agencyURI>
        <creationTime>2025-01-06T05:22:56.000000Z</creationTime>
        <version>6</version>
      </creationInfo>
      <origin publicID="quakeml:service.scedc.caltech.edu/fdsnws/event/1/query?originid=105807661" ns0:datasource="ci" ns0:dataid="ci40834383" ns0:eventsource="ci" ns0:eventid="40834383">
        <time>
          <value>2025-01-06T05:18:47.890000Z</value>
        </time>
        <latitude>
          <value>33.2438333</value>
        </latitude>
        <longitude>
          <value>-116.367</value>
        </longitude>
        <depth>
          <value>3400.0</value>
          <uncertainty>280.0</uncertainty>
        </depth>
        <depthType>from location</depthType>
        <timeFixed>false</timeFixed>
        <epicenterFixed>false</epicenterFixed>
        <methodID>smi:ci.anss.org/origin/HYP2000</methodID>
        <quality>
          <associatedPhaseCount>130</associatedPhaseCount>
          <usedPhaseCount>129</usedPhaseCount>
          <associatedStationCount>70</associatedStationCount>
          <usedStationCount>70</usedStationCount>
          <standardError>0.21</standardError>
          <azimuthalGap>25.0</azimuthalGap>
          <secondaryAzimuthalGap>400.0</secondaryAzimuthalGap>
          <minimumDistance>0.04855</minimumDistance>
          <maximumDistance>0.8707</maximumDistance>
          <medianDistance>0.5478</medianDistance>
        </quality>
        <type>hypocenter</type>
        <evaluationMode>manual</evaluationMode>
        <evaluationStatus>final</evaluationStatus>
        <creationInfo>
          <agencyID>CI</agencyID>
          <creationTime>2025-01-06T05:22:45.000000Z</creationTime>
        </creationInfo>
        <originUncertainty>
          <preferredDescription>confidence ellipsoid</preferredDescription>
          <horizontalUncertainty>150.0</horizontalUncertainty>
          <confidenceLevel>95.0</confidenceLevel>
          <confidenceEllipsoid>
            <semiMajorAxisLength>672.0</semiMajorAxisLength>
            <semiMinorAxisLength>288.0</semiMinorAxisLength>
            <semiIntermediateAxisLength>360.0</semiIntermediateAxisLength>
            <majorAxisPlunge>82.0</majorAxisPlunge>
            <majorAxisAzimuth>76.0</majorAxisAzimuth>
            <majorAxisRotation>6.0</majorAxisRotation>
          </confidenceEllipsoid>
        </originUncertainty>
        <arrival publicID="quakeml:service.scedc.caltech.edu/fdsnws/event/1/query?assocaro=144522295">
          <pickID>quakeml:service.scedc.caltech.edu/fdsnws/event/1/query?assocaro=144522295</pickID>
          <phase>S</phase>
          <timeCorrection>0.14</timeCorrection>
          <azimuth>324.0</azimuth>
          <distance>0.848</distance>
          <takeoffAngle>
            <value>55.0</value>
          </takeoffAngle>
          <timeResidual>-0.43</timeResidual>
          <timeWeight>0.07</timeWeight>
          <creationInfo>
            <agencyID>CI</agencyID>
            <creationTime>2025-01-06T05:22:45.000000Z</creationTime>
          </creationInfo>
        </arrival>
        <arrival publicID="quakeml:service.scedc.caltech.edu/fdsnws/event/1/query?assocaro=144522615">
          <pickID>quakeml:service.scedc.caltech.edu/fdsnws/event/1/query?assocaro=144522615</pickID>
          <phase>P</phase>
          <timeCorrection>0.02</timeCorrection>
          <azimuth>0.0</azimuth>
          <distance>0.08267</distance>
          <takeoffAngle>
            <value>111.0</value>
          </takeoffAngle>
          <timeResidual>-0.23</timeResidual>
          <timeWeight>0.17</timeWeight>
          <creationInfo>
            <agencyID>CI</agencyID>
            <creationTime>2025-01-06T05:22:45.000000Z</creationTime>
          </creationInfo>
        </arrival>
        <arrival publicID="quakeml:service.scedc.caltech.edu/fdsnws/event/1/query?assocaro=266280717">
          <pickID>quakeml:service.scedc.caltech.edu/fdsnws/event/1/query?assocaro=266280717</pickID>
          <phase>P</phase>
          <timeCorrection>-0.07</timeCorrection>
          <azimuth>301.0</azimuth>
          <distance>0.04855</distance>
          <takeoffAngle>
            <value>124.0</value>
          </takeoffAngle>
          <timeResidual>0.04</timeResidual>
          <timeWeight>0.22</timeWeight>
          <creationInfo>
            <agencyID>CI</agencyID>
            <creationTime>2025-01-06T05:22:45.000000Z</creationTime>
          </creationInfo>
        </arrival>
        <arrival publicID="quakeml:service.scedc.caltech.edu/fdsnws/event/1/query?assocaro=266280725">
          <pickID>quakeml:service.scedc.caltech.edu/fdsnws/event/1/query?assocaro=266280725</pickID>
          <phase>S</phase>
          <timeCorrection>-0.3</timeCorrection>
          <azimuth>301.0</azimuth>
          <distance>0.04855</distance>
          <takeoffAngle>
            <value>124.0</value>
          </takeoffAngle>
          <timeResidual>0.23</timeResidual>
          <timeWeight>0.08</timeWeight>
          <creationInfo>
            <agencyID>CI</agencyID>
            <creationTime>2025-01-06T05:22:45.000000Z</creationTime>
          </creationInfo>
        </arrival>
        <arrival publicID="quakeml:service.scedc.caltech.edu/fdsnws/event/1/query?assocaro=266280733">
          <pickID>quakeml:service.scedc.caltech.edu/fdsnws/event/1/query?assocaro=266280733</pickID>
          <phase>P</phase>
          <timeCorrection>0.07</timeCorrection>
          <azimuth>118.0</azimuth>
          <distance>0.1076</distance>
          <takeoffAngle>
            <value>107.0</value>
          </takeoffAngle>
          <timeResidual>-0.1</timeResidual>
          <timeWeight>0.22</timeWeight>
          <creationInfo>
            <agencyID>CI</agencyID>
            <creationTime>2025-01-06T05:22:45.000000Z</creationTime>
          </creationInfo>
        </arrival>
        <arrival publicID="quakeml:service.scedc.caltech.edu/fdsnws/event/1/query?assocaro=266280741">
          <pickID>quakeml:service.scedc.caltech.edu/fdsnws/event/1/query?assocaro=266280741</pickID>
          <phase>S</phase>
          <timeCorrection>0.11</timeCorrection>
          <azimuth>118.0</azimuth>
          <distance>0.1076</distance>
          <takeoffAngle>
            <value>107.0</value>
          </takeoffAngle>
          <timeResidual>0.21</timeResidual>
          <timeWeight>0.06</timeWeight>
          <creationInfo>
            <agencyID>CI</agencyID>
            <creationTime>2025-01-06T05:22:45.000000Z</creationTime>
          </creationInfo>
        </arrival>
        <arrival publicID="quakeml:service.scedc.caltech.edu/fdsnws/event/1/query?assocaro=266280749">
          <pickID>quakeml:service.scedc.caltech.edu/fdsnws/event/1/query?assocaro=266280749</pickID>
          <phase>P</phase>
          <timeCorrection>0.0</timeCorrection>
          <azimuth>22.0</azimuth>
          <distance>0.1276</distance>
          <takeoffAngle>
            <value>60.0</value>
          </takeoffAngle>
          <timeResidual>-0.35</timeResidual>
          <timeWeight>0.22</timeWeight>
          <creationInfo>
            <agencyID>CI</agencyID>
            <creationTime>2025-01-06T05:22:45.000000Z</creationTime>
          </creationInfo>
        </arrival>
        <arrival publicID="quakeml:service.scedc.caltech.edu/fdsnws/event/1/query?assocaro=266280757">
          <pickID>quakeml:service.scedc.caltech.edu/fdsnws/event/1/query?assocaro=266280757</pickID>
          <phase>S</phase>
          <timeCorrection>0.0</timeCorrection>
          <azimuth>22.0</azimuth>
          <distance>0.1276</distance>
          <takeoffAngle>
            <value>61.0</value>
          </takeoffAngle>
          <timeResidual>-0.54</timeResidual>
          <timeWeight>0.08</timeWeight>
          <creationInfo>
            <agencyID>CI</agencyID>
            <creationTime>2025-01-06T05:22:45.000000Z</creationTime>
          </creationInfo>
        </arrival>
        <arrival publicID="quakeml:service.scedc.caltech.edu/fdsnws/event/1/query?assocaro=266280765">
          <pickID>quakeml:service.scedc.caltech.edu/fdsnws/event/1/query?assocaro=266280765</pickID>
          <phase>P</phase>
          <timeCorrection>0.0</timeCorrection>
          <azimuth>200.0</azimuth>
          <distance>0.1765</distance>
          <takeoffAngle>
            <value>60.0</value>
          </takeoffAngle>
          <timeResidual>0.12</timeResidual>
          <timeWeight>0.22</timeWeight>
          <creationInfo>
            <agencyID>CI</agencyID>
            <creationTime>2025-01-06T05:22:45.000000Z</creationTime>
          </creationInfo>
        </arrival>
        <arrival publicID="quakeml:service.scedc.caltech.edu/fdsnws/event/1/query?assocaro=266280773">
          <pickID>quakeml:service.scedc.caltech.edu/fdsnws/event/1/query?assocaro=266280773</pickID>
          <phase>S</phase>
          <timeCorrection>0.0</timeCorrection>
          <azimuth>200.0</azimuth>
          <distance>0.1765</distance>
          <takeoffAngle>
            <value>61.0</value>
          </takeoffAngle>
          <timeResidual>0.35</timeResidual>
          <timeWeight>0.06</timeWeight>
          <creationInfo>
            <agencyID>CI</agencyID>
            <creationTime>2025-01-06T05:22:45.000000Z</creationTime>
          </creationInfo>
        </arrival>
        <arrival publicID="quakeml:service.scedc.caltech.edu/fdsnws/event/1/query?assocaro=266280781">
          <pickID>quakeml:service.scedc.caltech.edu/fdsnws/event/1/query?assocaro=266280781</pickID>
          <phase>P</phase>
          <timeCorrection>0.0</timeCorrection>
          <azimuth>117.0</azimuth>
          <distance>0.1887</distance>
          <takeoffAngle>
            <value>60.0</value>
          </takeoffAngle>
          <timeResidual>-0.03</timeResidual>
          <timeWeight>0.11</timeWeight>
          <creationInfo>
            <agencyID>CI</agencyID>
            <creationTime>2025-01-06T05:22:45.000000Z</creationTime>
          </creationInfo>
        </arrival>
        <arrival publicID="quakeml:service.scedc.caltech.edu/fdsnws/event/1/query?assocaro=266280789">
          <pickID>quakeml:service.scedc.caltech.edu/fdsnws/event/1/query?assocaro=266280789</pickID>
          <phase>S</phase>
          <timeCorrection>0.0</timeCorrection>
          <azimuth>117.0</azimuth>
          <distance>0.1887</distance>
          <takeoffAngle>
            <value>61.0</value>
          </takeoffAngle>
          <timeResidual>0.11</timeResidual>
          <timeWeight>0.06</timeWeight>
          <creationInfo>
            <agencyID>CI</agencyID>
            <creationTime>2025-01-06T05:22:45.000000Z</creationTime>
          </creationInfo>
        </arrival>
        <arrival publicID="quakeml:service.scedc.caltech.edu/fdsnws/event/1/query?assocaro=266280797">
          <pickID>quakeml:service.scedc.caltech.edu/fdsnws/event/1/query?assocaro=266280797</pickID>
          <phase>P</phase>
          <timeCorrection>-0.03</timeCorrection>
          <azimuth>304.0</azimuth>
          <distance>0.1952</distance>
          <takeoffAngle>
            <value>60.0</value>
          </takeoffAngle>
          <timeResidual>0.17</timeResidual>
          <timeWeight>0.22</timeWeight>
          <creationInfo>
            <agencyID>CI</agencyID>
            <creationTime>2025-01-06T05:22:45.000000Z</creationTime>
          </creationInfo>
        </arrival>
        <arrival publicID="quakeml:service.scedc.caltech.edu/fdsnws/event/1/query?assocaro=266280805">
          <pickID>quakeml:service.scedc.caltech.edu/fdsnws/event/1/query?assocaro=266280805</pickID>
          <phase>S</phase>
          <timeCorrection>-0.2</timeCorrection>
          <azimuth>304.0</azimuth>
          <distance>0.1952</distance>
          <takeoffAngle>
            <value>61.0</value>
          </takeoffAngle>
          <timeResidual>0.51</timeResidual>
          <timeWeight>0.06</timeWeight>
          <creationInfo>
            <agencyID>CI</agencyID>
            <creationTime>2025-01-06T05:22:45.000000Z</creationTime>
          </creationInfo>
        </arrival>
        <arrival publicID="quakeml:service.scedc.caltech.edu/fdsnws/event/1/query?assocaro=266280813">
          <pickID>quakeml:service.scedc.caltech.edu/fdsnws/event/1/query?assocaro=266280813</pickID>
          <phase>P</phase>
          <timeCorrection>-0.05</timeCorrection>
          <azimuth>260.0</azimuth>
          <distance>0.2391</distance>
          <takeoffAngle>
            <value>60.0</value>
          </takeoffAngle>
          <timeResidual>0.11</timeResidual>
          <timeWeight>0.22</timeWeight>
          <creationInfo>
            <agencyID>CI</agencyID>
            <creationTime>2025-01-06T05:22:45.000000Z</creationTime>
          </creationInfo>
        </arrival>
        <arrival publicID="quakeml:service.scedc.caltech.edu/fdsnws/event/1/query?assocaro=266280821">
          <pickID>quakeml:service.scedc.caltech.edu/fdsnws/event/1/query?assocaro=266280821</pickID>
          <phase>S</phase>
          <timeCorrection>-0.25</timeCorrection>
          <azimuth>260.0</azimuth>
          <distance>0.2391</distance>
          <takeoffAngle>
            <value>61.0</value>
          </takeoffAngle>
          <timeResidual>0.19</timeResidual>
          <timeWeight>0.06</timeWeight>
          <creationInfo>
            <agencyID>CI</agencyID>
            <creationTime>2025-01-06T05:22:45.000000Z</creationTime>
          </creationInfo>
        </arrival>
        <arrival publicID="quakeml:service.scedc.caltech.edu/fdsnws/event/1/query?assocaro=266280829">
          <pickID>quakeml:service.scedc.caltech.edu/fdsnws/event/1/query?assocaro=266280829</pickID>
          <phase>P</phase>
          <timeCorrection>-0.07</timeCorrection>
          <azimuth>231.0</azimuth>
          <distance>0.2525</distance>
          <takeoffAngle>
            <value>60.0</value>
          </takeoffAngle>
          <timeResidual>0.16</timeResidual>
          <timeWeight>0.22</timeWeight>
          <creationInfo>
            <agencyID>CI</agencyID>
            <creationTime>2025-01-06T05:22:45.000000Z</creationTime>
          </creationInfo>
        </arrival>
        <arrival publicID="quakeml:service.scedc.caltech.edu/fdsnws/event/1/query?assocaro=266280837">
          <pickID>quakeml:service.scedc.caltech.edu/fdsnws/event/1/query?assocaro=266280837</pickID>
          <phase>S</phase>
          <timeCorrection>-0.37</timeCorrection>
          <azimuth>231.0</azimuth>
          <distance>0.2525</distance>
          <takeoffAngle>
            <value>61.0</value>
          </takeoffAngle>
          <timeResidual>0.58</timeResidual>
          <timeWeight>0.06</timeWeight>
          <creationInfo>
            <agencyID>CI</agencyID>
            <creationTime>2025-01-06T05:22:45.000000Z</creationTime>
          </creationInfo>
        </arrival>
        <arrival publicID="quakeml:service.scedc.caltech.edu/fdsnws/event/1/query?assocaro=266280845">
          <pickID>quakeml:service.scedc.caltech.edu/fdsnws/event/1/query?assocaro=266280845</pickID>
          <phase>P</phase>
          <timeCorrection>0.0</timeCorrection>
          <azimuth>188.0</azimuth>
          <distance>0.2737</distance>
          <takeoffAngle>
            <value>60.0</value>
          </takeoffAngle>
          <timeResidual>0.0</timeResidual>
          <timeWeight>0.22</timeWeight>
          <creationInfo>
            <agencyID>CI</agencyID>
            <creationTime>2025-01-06T05:22:45.000000Z</creationTime>
          </creationInfo>
        </arrival>
        <arrival publicID="quakeml:service.scedc.caltech.edu/fdsnws/event/1/query?assocaro=266280853">
          <pickID>quakeml:service.scedc.caltech.edu/fdsnws/event/1/query?assocaro=266280853</pickID>
          <phase>S</phase>
          <timeCorrection>0.0</timeCorrection>
          <azimuth>188.0</azimuth>
          <distance>0.2737</distance>
          <takeoffAngle>
            <value>61.0</value>
          </takeoffAngle>
          <timeResidual>0.22</timeResidual>
          <timeWeight>0.06</timeWeight>
          <creationInfo>
            <agencyID>CI</agencyID>
            <creationTime>2025-01-06T05:22:45.000000Z</creationTime>
          </creationInfo>
        </arrival>
        <arrival publicID="quakeml:service.scedc.caltech.edu/fdsnws/event/1/query?assocaro=266280861">
          <pickID>quakeml:service.scedc.caltech.edu/fdsnws/event/1/query?assocaro=266280861</pickID>
          <phase>P</phase>
          <timeCorrection>0.0</timeCorrection>
          <azimuth>313.0</azimuth>
          <distance>0.3163</distance>
          <takeoffAngle>
            <value>56.0</value>
          </takeoffAngle>
          <timeResidual>0.2</timeResidual>
          <timeWeight>0.11</timeWeight>
          <creationInfo>
            <agencyID>CI</agencyID>
            <creationTime>2025-01-06T05:22:45.000000Z</creationTime>
          </creationInfo>
        </arrival>
        <arrival publicID="quakeml:service.scedc.caltech.edu/fdsnws/event/1/query?assocaro=266280869">
          <pickID>quakeml:service.scedc.caltech.edu/fdsnws/event/1/query?assocaro=266280869</pickID>
          <phase>S</phase>
          <timeCorrection>0.0</timeCorrection>
          <azimuth>313.0</azimuth>
          <distance>0.3163</distance>
          <takeoffAngle>
            <value>56.0</value>
          </takeoffAngle>
          <timeResidual>-0.09</timeResidual>
          <timeWeight>0.06</timeWeight>
          <creationInfo>
            <agencyID>CI</agencyID>
            <creationTime>2025-01-06T05:22:45.000000Z</creationTime>
          </creationInfo>
        </arrival>
        <arrival publicID="quakeml:service.scedc.caltech.edu/fdsnws/event/1/query?assocaro=266280877">
          <pickID>quakeml:service.scedc.caltech.edu/fdsnws/event/1/query?assocaro=266280877</pickID>
          <phase>P</phase>
          <timeCorrection>-0.08</timeCorrection>
          <azimuth>322.0</azimuth>
          <distance>0.3183</distance>
          <takeoffAngle>
            <value>56.0</value>
          </takeoffAngle>
          <timeResidual>0.05</timeResidual>
          <timeWeight>0.11</timeWeight>
          <creationInfo>
            <agencyID>CI</agencyID>
            <creationTime>2025-01-06T05:22:45.000000Z</creationTime>
          </creationInfo>
        </arrival>
        <arrival publicID="quakeml:service.scedc.caltech.edu/fdsnws/event/1/query?assocaro=266280885">
          <pickID>quakeml:service.scedc.caltech.edu/fdsnws/event/1/query?assocaro=266280885</pickID>
          <phase>S</phase>
          <timeCorrection>-0.33</timeCorrection>
          <azimuth>322.0</azimuth>
          <distance>0.3183</distance>
          <takeoffAngle>
            <value>56.0</value>
          </takeoffAngle>
          <timeResidual>0.08</timeResidual>
          <timeWeight>0.08</timeWeight>
          <creationInfo>
            <agencyID>CI</agencyID>
            <creationTime>2025-01-06T05:22:45.000000Z</creationTime>
          </creationInfo>
        </arrival>
        <arrival publicID="quakeml:service.scedc.caltech.edu/fdsnws/event/1/query?assocaro=266280893">
