<?xml version='1.0' encoding='utf-8'?>
<q:quakeml xmlns="http://quakeml.org/xmlns/bed/1.2" xmlns:q="http://quakeml.org/xmlns/quakeml/1.2" xmlns:ns0="http://anss.org/xmlns/catalog/0.1">
  <eventParameters publicID="smi:local/ad8c7a83-5e3b-4e08-a2fc-fe2d48e56b97">
    <event publicID="quakeml:service.scedc.caltech.edu/fdsnws/event/1/query?eventid=40842207" ns0:datasource="ci" ns0:dataid="ci40842207" ns0:eventsource="ci" ns0:eventid="40842207">
      <preferredOriginID>quakeml:service.scedc.caltech.edu/fdsnws/event/1/query?originid=108877148</preferredOriginID>
      <preferredMagnitudeID>quakeml:service.scedc.caltech.edu/fdsnws/event/1/query?magnitudeid=111263196</preferredMagnitudeID>
      <type>earthquake</type>
      <creationInfo>
        <agencyID>CI</agencyID>
        <agencyURI>quakeml:doi.org/10.7909/C3WD3xH1</agencyURI>
        <creationTime>2025-01-19T18:16:00.000000Z</creationTime>
        <version>6</version>
      </creationInfo>
      <origin publicID="quakeml:service.scedc.caltech.edu/fdsnws/event/1/query?originid=108877148" ns0:datasource="ci" ns0:dataid="ci40842207" ns0:eventsource="ci" ns0:eventid="40842207">
        <time>
          <value>2025-01-18T00:58:30.680000Z</value>
        </time>
        <latitude>
          <value>33.2105</value>
        </latitude>
        <longitude>
          <value>-116.3363333</value>
        </longitude>
        <depth>
          <value>10790.0</value>
          <uncertainty>390.0</uncertainty>
        </depth>
        <depthType>from location</depthType>
        <timeFixed>false</timeFixed>
        <epicenterFixed>false</epicenterFixed>
        <methodID>smi:ci.anss.org/origin/HYP2000</methodID>
        <quality>
          <associatedPhaseCount>52</associatedPhaseCount>
          <usedPhaseCount>52</usedPhaseCount>
          <associatedStationCount>33</associatedStationCount>
          <usedStationCount>33</usedStationCount>
          <standardError>0.15</standardError>
          <azimuthalGap>82.0</azimuthalGap>
          <secondaryAzimuthalGap>456.0</secondaryAzimuthalGap>
          <minimumDistance>0.07129</minimumDistance>
          <maximumDistance>0.8385</maximumDistance>
          <medianDistance>0.4464</medianDistance>
        </quality>
        <type>hypocenter</type>
        <evaluationMode>manual</evaluationMode>
        <evaluationStatus>final</evaluationStatus>
        <creationInfo>
          <agencyID>CI</agencyID>
          <creationTime>2025-01-19T18:16:00.000000Z</creationTime>
        </creationInfo>
        <originUncertainty>
          <preferredDescription>confidence ellipsoid</preferredDescription>
          <horizontalUncertainty>200.0</horizontalUncertainty>
          <confidenceLevel>95.0</confidenceLevel>
          <confidenceEllipsoid>
            <semiMajorAxisLength>984.0</semiMajorAxisLength>
            <semiMinorAxisLength>384.0</semiMinorAxisLength>
            <semiIntermediateAxisLength>480.0</semiIntermediateAxisLength>
            <majorAxisPlunge>74.0</majorAxisPlunge>
            <majorAxisAzimuth>69.0</majorAxisAzimuth>
            <majorAxisRotation>348.0</majorAxisRotation>
          </confidenceEllipsoid>
        </originUncertainty>
        <arrival publicID="quakeml:service.scedc.caltech.edu/fdsnws/event/1/query?assocaro=266471501">
          <pickID>quakeml:service.scedc.caltech.edu/fdsnws/event/1/query?assocaro=266471501</pickID>
          <phase>P</phase>
          <timeCorrection>0.07</timeCorrection>
          <azimuth>104.5</azimuth>
          <distance>0.07129</distance>
          <takeoffAngle>
            <value>140.0</value>
          </takeoffAngle>
          <timeResidual>-0.01</timeResidual>
          <timeWeight>0.25</timeWeight>
          <creationInfo>
            <agencyID>CI</agencyID>
            <creationTime>2025-01-19T18:16:00.000000Z</creationTime>
          </creationInfo>
        </arrival>
        <arrival publicID="quakeml:service.scedc.caltech.edu/fdsnws/event/1/query?assocaro=266471517">
          <pickID>quakeml:service.scedc.caltech.edu/fdsnws/event/1/query?assocaro=266471517</pickID>
          <phase>P</phase>
          <timeCorrection>-0.07</timeCorrection>
          <azimuth>310.5</azimuth>
          <distance>0.08888</distance>
          <takeoffAngle>
            <value>133.0</value>
          </takeoffAngle>
          <timeResidual>-0.12</timeResidual>
          <timeWeight>0.19</timeWeight>
          <creationInfo>
            <agencyID>CI</agencyID>
            <creationTime>2025-01-19T18:16:00.000000Z</creationTime>
          </creationInfo>
        </arrival>
        <arrival publicID="quakeml:service.scedc.caltech.edu/fdsnws/event/1/query?assocaro=266471525">
          <pickID>quakeml:service.scedc.caltech.edu/fdsnws/event/1/query?assocaro=266471525</pickID>
          <phase>S</phase>
          <timeCorrection>-0.3</timeCorrection>
          <azimuth>310.5</azimuth>
          <distance>0.08888</distance>
          <takeoffAngle>
            <value>133.0</value>
          </takeoffAngle>
          <timeResidual>0.08</timeResidual>
          <timeWeight>0.09</timeWeight>
          <creationInfo>
            <agencyID>CI</agencyID>
            <creationTime>2025-01-19T18:16:00.000000Z</creationTime>
          </creationInfo>
        </arrival>
        <arrival publicID="quakeml:service.scedc.caltech.edu/fdsnws/event/1/query?assocaro=266471549">
          <pickID>quakeml:service.scedc.caltech.edu/fdsnws/event/1/query?assocaro=266471549</pickID>
          <phase>P</phase>
          <timeCorrection>-0.03</timeCorrection>
          <azimuth>306.9</azimuth>
          <distance>0.2353</distance>
          <takeoffAngle>
            <value>105.0</value>
          </takeoffAngle>
          <timeResidual>0.1</timeResidual>
          <timeWeight>0.25</timeWeight>
          <creationInfo>
            <agencyID>CI</agencyID>
            <creationTime>2025-01-19T18:16:00.000000Z</creationTime>
          </creationInfo>
        </arrival>
        <arrival publicID="quakeml:service.scedc.caltech.edu/fdsnws/event/1/query?assocaro=266471581">
          <pickID>quakeml:service.scedc.caltech.edu/fdsnws/event/1/query?assocaro=266471581</pickID>
          <phase>P</phase>
          <timeCorrection>-0.07</timeCorrection>
          <azimuth>239.4</azimuth>
          <distance>0.2544</distance>
          <takeoffAngle>
            <value>103.0</value>
          </takeoffAngle>
          <timeResidual>0.16</timeResidual>
          <timeWeight>0.12</timeWeight>
          <creationInfo>
            <agencyID>CI</agencyID>
            <creationTime>2025-01-19T18:16:00.000000Z</creationTime>
          </creationInfo>
        </arrival>
        <arrival publicID="quakeml:service.scedc.caltech.edu/fdsnws/event/1/query?assocaro=266471589">
          <pickID>quakeml:service.scedc.caltech.edu/fdsnws/event/1/query?assocaro=266471589</pickID>
          <phase>S</phase>
          <timeCorrection>-0.37</timeCorrection>
          <azimuth>239.4</azimuth>
          <distance>0.2544</distance>
          <takeoffAngle>
            <value>103.0</value>
          </takeoffAngle>
          <timeResidual>0.36</timeResidual>
          <timeWeight>0.06</timeWeight>
          <creationInfo>
            <agencyID>CI</agencyID>
            <creationTime>2025-01-19T18:16:00.000000Z</creationTime>
          </creationInfo>
        </arrival>
        <arrival publicID="quakeml:service.scedc.caltech.edu/fdsnws/event/1/query?assocaro=266471669">
          <pickID>quakeml:service.scedc.caltech.edu/fdsnws/event/1/query?assocaro=266471669</pickID>
          <phase>P</phase>
          <timeCorrection>0.0</timeCorrection>
          <azimuth>218.8</azimuth>
          <distance>0.3896</distance>
          <takeoffAngle>
            <value>97.0</value>
          </takeoffAngle>
          <timeResidual>0.03</timeResidual>
          <timeWeight>0.12</timeWeight>
          <creationInfo>
            <agencyID>CI</agencyID>
            <creationTime>2025-01-19T18:16:00.000000Z</creationTime>
          </creationInfo>
        </arrival>
        <arrival publicID="quakeml:service.scedc.caltech.edu/fdsnws/event/1/query?assocaro=266471709">
          <pickID>quakeml:service.scedc.caltech.edu/fdsnws/event/1/query?assocaro=266471709</pickID>
          <phase>P</phase>
          <timeCorrection>-0.18</timeCorrection>
          <azimuth>355.5</azimuth>
          <distance>0.4376</distance>
          <takeoffAngle>
            <value>96.0</value>
          </takeoffAngle>
          <timeResidual>-0.08</timeResidual>
          <timeWeight>0.25</timeWeight>
          <creationInfo>
            <agencyID>CI</agencyID>
            <creationTime>2025-01-19T18:16:00.000000Z</creationTime>
          </creationInfo>
        </arrival>
        <arrival publicID="quakeml:service.scedc.caltech.edu/fdsnws/event/1/query?assocaro=266471773">
          <pickID>quakeml:service.scedc.caltech.edu/fdsnws/event/1/query?assocaro=266471773</pickID>
          <phase>P</phase>
          <timeCorrection>0.0</timeCorrection>
          <azimuth>306.7</azimuth>
          <distance>0.4913</distance>
          <takeoffAngle>
            <value>95.0</value>
          </takeoffAngle>
          <timeResidual>0.03</timeResidual>
          <timeWeight>0.25</timeWeight>
          <creationInfo>
            <agencyID>CI</agencyID>
            <creationTime>2025-01-19T18:16:00.000000Z</creationTime>
          </creationInfo>
        </arrival>
        <arrival publicID="quakeml:service.scedc.caltech.edu/fdsnws/event/1/query?assocaro=266471805">
          <pickID>quakeml:service.scedc.caltech.edu/fdsnws/event/1/query?assocaro=266471805</pickID>
          <phase>P</phase>
          <timeCorrection>-0.01</timeCorrection>
          <azimuth>161.2</azimuth>
          <distance>0.5905</distance>
          <takeoffAngle>
            <value>77.0</value>
          </takeoffAngle>
          <timeResidual>0.0</timeResidual>
          <timeWeight>0.12</timeWeight>
          <creationInfo>
            <agencyID>CI</agencyID>
            <creationTime>2025-01-19T18:16:00.000000Z</creationTime>
          </creationInfo>
        </arrival>
        <arrival publicID="quakeml:service.scedc.caltech.edu/fdsnws/event/1/query?assocaro=424385404">
          <pickID>quakeml:service.scedc.caltech.edu/fdsnws/event/1/query?assocaro=424385404</pickID>
          <phase>P</phase>
          <timeCorrection>0.02</timeCorrection>
          <azimuth>347.5</azimuth>
          <distance>0.1188</distance>
          <takeoffAngle>
            <value>124.0</value>
          </takeoffAngle>
          <timeResidual>0.03</timeResidual>
          <timeWeight>0.12</timeWeight>
          <creationInfo>
            <agencyID>CI</agencyID>
            <creationTime>2025-01-19T18:16:00.000000Z</creationTime>
          </creationInfo>
        </arrival>
        <arrival publicID="quakeml:service.scedc.caltech.edu/fdsnws/event/1/query?assocaro=424385412">
          <pickID>quakeml:service.scedc.caltech.edu/fdsnws/event/1/query?assocaro=424385412</pickID>
          <phase>S</phase>
          <timeCorrection>-0.13</timeCorrection>
          <azimuth>347.5</azimuth>
          <distance>0.1188</distance>
          <takeoffAngle>
            <value>124.0</value>
          </takeoffAngle>
          <timeResidual>0.01</timeResidual>
          <timeWeight>0.06</timeWeight>
          <creationInfo>
            <agencyID>CI</agencyID>
            <creationTime>2025-01-19T18:16:00.000000Z</creationTime>
          </creationInfo>
        </arrival>
        <arrival publicID="quakeml:service.scedc.caltech.edu/fdsnws/event/1/query?assocaro=424385420">
          <pickID>quakeml:service.scedc.caltech.edu/fdsnws/event/1/query?assocaro=424385420</pickID>
          <phase>P</phase>
          <timeCorrection>0.0</timeCorrection>
          <azimuth>8.4</azimuth>
          <distance>0.1531</distance>
          <takeoffAngle>
            <value>116.0</value>
          </takeoffAngle>
          <timeResidual>-0.22</timeResidual>
          <timeWeight>0.12</timeWeight>
          <creationInfo>
            <agencyID>CI</agencyID>
            <creationTime>2025-01-19T18:16:00.000000Z</creationTime>
          </creationInfo>
        </arrival>
        <arrival publicID="quakeml:service.scedc.caltech.edu/fdsnws/event/1/query?assocaro=424385428">
          <pickID>quakeml:service.scedc.caltech.edu/fdsnws/event/1/query?assocaro=424385428</pickID>
          <phase>S</phase>
          <timeCorrection>0.0</timeCorrection>
          <azimuth>8.4</azimuth>
          <distance>0.1531</distance>
          <takeoffAngle>
            <value>116.0</value>
          </takeoffAngle>
          <timeResidual>-0.29</timeResidual>
          <timeWeight>0.06</timeWeight>
          <creationInfo>
            <agencyID>CI</agencyID>
            <creationTime>2025-01-19T18:16:00.000000Z</creationTime>
          </creationInfo>
        </arrival>
        <arrival publicID="quakeml:service.scedc.caltech.edu/fdsnws/event/1/query?assocaro=424385436">
          <pickID>quakeml:service.scedc.caltech.edu/fdsnws/event/1/query?assocaro=424385436</pickID>
          <phase>S</phase>
          <timeCorrection>-0.2</timeCorrection>
          <azimuth>306.9</azimuth>
          <distance>0.2353</distance>
          <takeoffAngle>
            <value>105.0</value>
          </takeoffAngle>
          <timeResidual>0.54</timeResidual>
          <timeWeight>0.06</timeWeight>
          <creationInfo>
            <agencyID>CI</agencyID>
            <creationTime>2025-01-19T18:16:00.000000Z</creationTime>
          </creationInfo>
        </arrival>
        <arrival publicID="quakeml:service.scedc.caltech.edu/fdsnws/event/1/query?assocaro=424385444">
          <pickID>quakeml:service.scedc.caltech.edu/fdsnws/event/1/query?assocaro=424385444</pickID>
          <phase>P</phase>
          <timeCorrection>0.0</timeCorrection>
          <azimuth>194.6</azimuth>
          <distance>0.2461</distance>
          <takeoffAngle>
            <value>104.0</value>
          </takeoffAngle>
          <timeResidual>0.04</timeResidual>
          <timeWeight>0.12</timeWeight>
          <creationInfo>
            <agencyID>CI</agencyID>
            <creationTime>2025-01-19T18:16:00.000000Z</creationTime>
          </creationInfo>
        </arrival>
        <arrival publicID="quakeml:service.scedc.caltech.edu/fdsnws/event/1/query?assocaro=424385452">
          <pickID>quakeml:service.scedc.caltech.edu/fdsnws/event/1/query?assocaro=424385452</pickID>
          <phase>S</phase>
          <timeCorrection>0.0</timeCorrection>
          <azimuth>194.6</azimuth>
          <distance>0.2461</distance>
          <takeoffAngle>
            <value>104.0</value>
          </takeoffAngle>
          <timeResidual>0.09</timeResidual>
          <timeWeight>0.06</timeWeight>
          <creationInfo>
            <agencyID>CI</agencyID>
            <creationTime>2025-01-19T18:16:00.000000Z</creationTime>
          </creationInfo>
        </arrival>
        <arrival publicID="quakeml:service.scedc.caltech.edu/fdsnws/event/1/query?assocaro=424385460">
          <pickID>quakeml:service.scedc.caltech.edu/fdsnws/event/1/query?assocaro=424385460</pickID>
          <phase>S</phase>
          <timeCorrection>0.0</timeCorrection>
          <azimuth>173.8</azimuth>
          <distance>0.2567</distance>
          <takeoffAngle>
            <value>103.0</value>
          </takeoffAngle>
          <timeResidual>-0.25</timeResidual>
          <timeWeight>0.06</timeWeight>
          <creationInfo>
            <agencyID>CI</agencyID>
            <creationTime>2025-01-19T18:16:00.000000Z</creationTime>
          </creationInfo>
        </arrival>
        <arrival publicID="quakeml:service.scedc.caltech.edu/fdsnws/event/1/query?assocaro=424385468">
          <pickID>quakeml:service.scedc.caltech.edu/fdsnws/event/1/query?assocaro=424385468</pickID>
          <phase>P</phase>
          <timeCorrection>-0.05</timeCorrection>
          <azimuth>267.6</azimuth>
          <distance>0.2609</distance>
          <takeoffAngle>
            <value>103.0</value>
          </takeoffAngle>
          <timeResidual>0.03</timeResidual>
          <timeWeight>0.12</timeWeight>
          <creationInfo>
            <agencyID>CI</agencyID>
            <creationTime>2025-01-19T18:16:00.000000Z</creationTime>
          </creationInfo>
        </arrival>
        <arrival publicID="quakeml:service.scedc.caltech.edu/fdsnws/event/1/query?assocaro=424385476">
          <pickID>quakeml:service.scedc.caltech.edu/fdsnws/event/1/query?assocaro=424385476</pickID>
          <phase>S</phase>
          <timeCorrection>-0.25</timeCorrection>
          <azimuth>267.6</azimuth>
          <distance>0.2609</distance>
          <takeoffAngle>
            <value>103.0</value>
          </takeoffAngle>
          <timeResidual>0.31</timeResidual>
          <timeWeight>0.06</timeWeight>
          <creationInfo>
            <agencyID>CI</agencyID>
            <creationTime>2025-01-19T18:16:00.000000Z</creationTime>
          </creationInfo>
        </arrival>
        <arrival publicID="quakeml:service.scedc.caltech.edu/fdsnws/event/1/query?assocaro=424385484">
          <pickID>quakeml:service.scedc.caltech.edu/fdsnws/event/1/query?assocaro=424385484</pickID>
          <phase>P</phase>
          <timeCorrection>0.0</timeCorrection>
          <azimuth>96.9</azimuth>
          <distance>0.3029</distance>
          <takeoffAngle>
            <value>100.0</value>
          </takeoffAngle>
          <timeResidual>0.14</timeResidual>
          <timeWeight>0.12</timeWeight>
          <creationInfo>
            <agencyID>CI</agencyID>
            <creationTime>2025-01-19T18:16:00.000000Z</creationTime>
          </creationInfo>
        </arrival>
        <arrival publicID="quakeml:service.scedc.caltech.edu/fdsnws/event/1/query?assocaro=424385492">
          <pickID>quakeml:service.scedc.caltech.edu/fdsnws/event/1/query?assocaro=424385492</pickID>
          <phase>S</phase>
          <timeCorrection>0.0</timeCorrection>
          <azimuth>96.9</azimuth>
          <distance>0.3029</distance>
          <takeoffAngle>
            <value>100.0</value>
          </takeoffAngle>
          <timeResidual>0.24</timeResidual>
          <timeWeight>0.06</timeWeight>
          <creationInfo>
            <agencyID>CI</agencyID>
            <creationTime>2025-01-19T18:16:00.000000Z</creationTime>
          </creationInfo>
        </arrival>
        <arrival publicID="quakeml:service.scedc.caltech.edu/fdsnws/event/1/query?assocaro=424385500">
          <pickID>quakeml:service.scedc.caltech.edu/fdsnws/event/1/query?assocaro=424385500</pickID>
          <phase>P</phase>
          <timeCorrection>-0.07</timeCorrection>
          <azimuth>274.2</azimuth>
          <distance>0.355</distance>
          <takeoffAngle>
            <value>98.0</value>
          </takeoffAngle>
          <timeResidual>0.09</timeResidual>
          <timeWeight>0.12</timeWeight>
          <creationInfo>
            <agencyID>CI</agencyID>
            <creationTime>2025-01-19T18:16:00.000000Z</creationTime>
          </creationInfo>
        </arrival>
        <arrival publicID="quakeml:service.scedc.caltech.edu/fdsnws/event/1/query?assocaro=424385508">
          <pickID>quakeml:service.scedc.caltech.edu/fdsnws/event/1/query?assocaro=424385508</pickID>
          <phase>P</phase>
          <timeCorrection>-0.08</timeCorrection>
          <azimuth>322.1</azimuth>
          <distance>0.3604</distance>
          <takeoffAngle>
            <value>98.0</value>
          </takeoffAngle>
          <timeResidual>0.04</timeResidual>
          <timeWeight>0.12</timeWeight>
          <creationInfo>
            <agencyID>CI</agencyID>
            <creationTime>2025-01-19T18:16:00.000000Z</creationTime>
          </creationInfo>
        </arrival>
        <arrival publicID="quakeml:service.scedc.caltech.edu/fdsnws/event/1/query?assocaro=424385516">
