<?xml version='1.0' encoding='utf-8'?>
<q:quakeml xmlns="http://quakeml.org/xmlns/bed/1.2" xmlns:q="http://quakeml.org/xmlns/quakeml/1.2" xmlns:ns0="http://anss.org/xmlns/catalog/0.1">
  <eventParameters publicID="smi:local/8f2238d1-6795-455e-a0de-1edc4607e5ff">
    <event publicID="quakeml:service.scedc.caltech.edu/fdsnws/event/1/query?eventid=40835559" ns0:datasource="ci" ns0:dataid="ci40835559" ns0:eventsource="ci" ns0:eventid="40835559">
      <preferredOriginID>quakeml:service.scedc.caltech.edu/fdsnws/event/1/query?originid=105808341</preferredOriginID>
      <preferredMagnitudeID>quakeml:service.scedc.caltech.edu/fdsnws/event/1/query?magnitudeid=109261429</preferredMagnitudeID>
      <type>earthquake</type>
      <creationInfo>
        <agencyID>CI</agencyID>
        <agencyURI>quakeml:doi.org/10.7909/C3WD3xH1</agencyURI>
        <creationTime>2025-01-07T19:32:05.000000Z</creationTime>
        <version>6</version>
      </creationInfo>
      <origin publicID="quakeml:service.scedc.caltech.edu/fdsnws/event/1/query?originid=105808341" ns0:datasource="ci" ns0:dataid="ci40835559" ns0:eventsource="ci" ns0:eventid="40835559">
        <time>
          <value>2025-01-07T19:28:10.710000Z</value>
        </time>
        <latitude>
          <value>34.2243333</value>
        </latitude>
        <longitude>
          <value>-117.0318333</value>
        </longitude>
        <depth>
          <value>2390.0</value>
          <uncertainty>350.0</uncertainty>
        </depth>
        <depthType>from location</depthType>
        <timeFixed>false</timeFixed>
        <epicenterFixed>false</epicenterFixed>
        <methodID>smi:ci.anss.org/origin/HYP2000</methodID>
        <quality>
          <associatedPhaseCount>123</associatedPhaseCount>
          <usedPhaseCount>123</usedPhaseCount>
          <associatedStationCount>75</associatedStationCount>
          <usedStationCount>75</usedStationCount>
          <standardError>0.14</standardError>
          <azimuthalGap>20.0</azimuthalGap>
          <secondaryAzimuthalGap>383.0</secondaryAzimuthalGap>
          <minimumDistance>0.03911</minimumDistance>
          <maximumDistance>0.8957</maximumDistance>
          <medianDistance>0.5645</medianDistance>
        </quality>
        <type>hypocenter</type>
        <evaluationMode>manual</evaluationMode>
        <evaluationStatus>final</evaluationStatus>
        <creationInfo>
          <agencyID>CI</agencyID>
          <creationTime>2025-01-07T19:31:49.000000Z</creationTime>
        </creationInfo>
        <originUncertainty>
          <preferredDescription>confidence ellipsoid</preferredDescription>
          <horizontalUncertainty>100.0</horizontalUncertainty>
          <confidenceLevel>95.0</confidenceLevel>
          <confidenceEllipsoid>
            <semiMajorAxisLength>840.0</semiMajorAxisLength>
            <semiMinorAxisLength>216.0</semiMinorAxisLength>
            <semiIntermediateAxisLength>240.0</semiIntermediateAxisLength>
            <majorAxisPlunge>84.0</majorAxisPlunge>
            <majorAxisAzimuth>32.0</majorAxisAzimuth>
            <majorAxisRotation>35.0</majorAxisRotation>
          </confidenceEllipsoid>
        </originUncertainty>
        <arrival publicID="quakeml:service.scedc.caltech.edu/fdsnws/event/1/query?assocaro=144546383">
          <pickID>quakeml:service.scedc.caltech.edu/fdsnws/event/1/query?assocaro=144546383</pickID>
          <phase>S</phase>
          <timeCorrection>-0.34</timeCorrection>
          <azimuth>177.0</azimuth>
          <distance>0.5155</distance>
          <takeoffAngle>
            <value>72.0</value>
          </takeoffAngle>
          <timeResidual>0.14</timeResidual>
          <timeWeight>0.05</timeWeight>
          <creationInfo>
            <agencyID>CI</agencyID>
            <creationTime>2025-01-07T19:31:50.000000Z</creationTime>
          </creationInfo>
        </arrival>
        <arrival publicID="quakeml:service.scedc.caltech.edu/fdsnws/event/1/query?assocaro=144546391">
          <pickID>quakeml:service.scedc.caltech.edu/fdsnws/event/1/query?assocaro=144546391</pickID>
          <phase>P</phase>
          <timeCorrection>-0.15</timeCorrection>
          <azimuth>177.0</azimuth>
          <distance>0.5155</distance>
          <takeoffAngle>
            <value>73.0</value>
          </takeoffAngle>
          <timeResidual>-0.03</timeResidual>
          <timeWeight>0.21</timeWeight>
          <creationInfo>
            <agencyID>CI</agencyID>
            <creationTime>2025-01-07T19:31:50.000000Z</creationTime>
          </creationInfo>
        </arrival>
        <arrival publicID="quakeml:service.scedc.caltech.edu/fdsnws/event/1/query?assocaro=144546527">
          <pickID>quakeml:service.scedc.caltech.edu/fdsnws/event/1/query?assocaro=144546527</pickID>
          <phase>S</phase>
          <timeCorrection>-0.05</timeCorrection>
          <azimuth>298.0</azimuth>
          <distance>0.3111</distance>
          <takeoffAngle>
            <value>72.0</value>
          </takeoffAngle>
          <timeResidual>0.27</timeResidual>
          <timeWeight>0.03</timeWeight>
          <creationInfo>
            <agencyID>CI</agencyID>
            <creationTime>2025-01-07T19:31:50.000000Z</creationTime>
          </creationInfo>
        </arrival>
        <arrival publicID="quakeml:service.scedc.caltech.edu/fdsnws/event/1/query?assocaro=144546599">
          <pickID>quakeml:service.scedc.caltech.edu/fdsnws/event/1/query?assocaro=144546599</pickID>
          <phase>S</phase>
          <timeCorrection>-0.29</timeCorrection>
          <azimuth>181.0</azimuth>
          <distance>0.8331</distance>
          <takeoffAngle>
            <value>69.0</value>
          </takeoffAngle>
          <timeResidual>0.86</timeResidual>
          <timeWeight>0.06</timeWeight>
          <creationInfo>
            <agencyID>CI</agencyID>
            <creationTime>2025-01-07T19:31:50.000000Z</creationTime>
          </creationInfo>
        </arrival>
        <arrival publicID="quakeml:service.scedc.caltech.edu/fdsnws/event/1/query?assocaro=144546631">
          <pickID>quakeml:service.scedc.caltech.edu/fdsnws/event/1/query?assocaro=144546631</pickID>
          <phase>P</phase>
          <timeCorrection>-0.12</timeCorrection>
          <azimuth>170.0</azimuth>
          <distance>0.5434</distance>
          <takeoffAngle>
            <value>73.0</value>
          </takeoffAngle>
          <timeResidual>0.07</timeResidual>
          <timeWeight>0.21</timeWeight>
          <creationInfo>
            <agencyID>CI</agencyID>
            <creationTime>2025-01-07T19:31:50.000000Z</creationTime>
          </creationInfo>
        </arrival>
        <arrival publicID="quakeml:service.scedc.caltech.edu/fdsnws/event/1/query?assocaro=144546695">
          <pickID>quakeml:service.scedc.caltech.edu/fdsnws/event/1/query?assocaro=144546695</pickID>
          <phase>P</phase>
          <timeCorrection>-0.06</timeCorrection>
          <azimuth>135.0</azimuth>
          <distance>0.2649</distance>
          <takeoffAngle>
            <value>90.0</value>
          </takeoffAngle>
          <timeResidual>0.0</timeResidual>
          <timeWeight>0.21</timeWeight>
          <creationInfo>
            <agencyID>CI</agencyID>
            <creationTime>2025-01-07T19:31:50.000000Z</creationTime>
          </creationInfo>
        </arrival>
        <arrival publicID="quakeml:service.scedc.caltech.edu/fdsnws/event/1/query?assocaro=266314301">
          <pickID>quakeml:service.scedc.caltech.edu/fdsnws/event/1/query?assocaro=266314301</pickID>
          <phase>P</phase>
          <timeCorrection>0.0</timeCorrection>
          <azimuth>33.0</azimuth>
          <distance>0.03911</distance>
          <takeoffAngle>
            <value>123.0</value>
          </takeoffAngle>
          <timeResidual>0.16</timeResidual>
          <timeWeight>0.16</timeWeight>
          <creationInfo>
            <agencyID>CI</agencyID>
            <creationTime>2025-01-07T19:31:50.000000Z</creationTime>
          </creationInfo>
        </arrival>
        <arrival publicID="quakeml:service.scedc.caltech.edu/fdsnws/event/1/query?assocaro=266314309">
          <pickID>quakeml:service.scedc.caltech.edu/fdsnws/event/1/query?assocaro=266314309</pickID>
          <phase>S</phase>
          <timeCorrection>0.0</timeCorrection>
          <azimuth>33.0</azimuth>
          <distance>0.03911</distance>
          <takeoffAngle>
            <value>124.0</value>
          </takeoffAngle>
          <timeResidual>0.54</timeResidual>
          <timeWeight>0.08</timeWeight>
          <creationInfo>
            <agencyID>CI</agencyID>
            <creationTime>2025-01-07T19:31:50.000000Z</creationTime>
          </creationInfo>
        </arrival>
        <arrival publicID="quakeml:service.scedc.caltech.edu/fdsnws/event/1/query?assocaro=266314317">
          <pickID>quakeml:service.scedc.caltech.edu/fdsnws/event/1/query?assocaro=266314317</pickID>
          <phase>P</phase>
          <timeCorrection>0.0</timeCorrection>
          <azimuth>251.0</azimuth>
          <distance>0.08283</distance>
          <takeoffAngle>
            <value>92.0</value>
          </takeoffAngle>
          <timeResidual>-0.05</timeResidual>
          <timeWeight>0.21</timeWeight>
          <creationInfo>
            <agencyID>CI</agencyID>
            <creationTime>2025-01-07T19:31:50.000000Z</creationTime>
          </creationInfo>
        </arrival>
        <arrival publicID="quakeml:service.scedc.caltech.edu/fdsnws/event/1/query?assocaro=266314325">
          <pickID>quakeml:service.scedc.caltech.edu/fdsnws/event/1/query?assocaro=266314325</pickID>
          <phase>P</phase>
          <timeCorrection>-0.08</timeCorrection>
          <azimuth>67.0</azimuth>
          <distance>0.09951</distance>
          <takeoffAngle>
            <value>91.0</value>
          </takeoffAngle>
          <timeResidual>-0.01</timeResidual>
          <timeWeight>0.21</timeWeight>
          <creationInfo>
            <agencyID>CI</agencyID>
            <creationTime>2025-01-07T19:31:50.000000Z</creationTime>
          </creationInfo>
        </arrival>
        <arrival publicID="quakeml:service.scedc.caltech.edu/fdsnws/event/1/query?assocaro=266314333">
          <pickID>quakeml:service.scedc.caltech.edu/fdsnws/event/1/query?assocaro=266314333</pickID>
          <phase>S</phase>
          <timeCorrection>-0.18</timeCorrection>
          <azimuth>67.0</azimuth>
          <distance>0.09951</distance>
          <takeoffAngle>
            <value>91.0</value>
          </takeoffAngle>
          <timeResidual>0.28</timeResidual>
          <timeWeight>0.05</timeWeight>
          <creationInfo>
            <agencyID>CI</agencyID>
            <creationTime>2025-01-07T19:31:50.000000Z</creationTime>
          </creationInfo>
        </arrival>
        <arrival publicID="quakeml:service.scedc.caltech.edu/fdsnws/event/1/query?assocaro=266314341">
          <pickID>quakeml:service.scedc.caltech.edu/fdsnws/event/1/query?assocaro=266314341</pickID>
          <phase>P</phase>
          <timeCorrection>-0.03</timeCorrection>
          <azimuth>206.0</azimuth>
          <distance>0.1298</distance>
          <takeoffAngle>
            <value>90.0</value>
          </takeoffAngle>
          <timeResidual>-0.02</timeResidual>
          <timeWeight>0.16</timeWeight>
          <creationInfo>
            <agencyID>CI</agencyID>
            <creationTime>2025-01-07T19:31:50.000000Z</creationTime>
          </creationInfo>
        </arrival>
        <arrival publicID="quakeml:service.scedc.caltech.edu/fdsnws/event/1/query?assocaro=266314349">
          <pickID>quakeml:service.scedc.caltech.edu/fdsnws/event/1/query?assocaro=266314349</pickID>
          <phase>S</phase>
          <timeCorrection>-0.09</timeCorrection>
          <azimuth>206.0</azimuth>
          <distance>0.1298</distance>
          <takeoffAngle>
            <value>90.0</value>
          </takeoffAngle>
          <timeResidual>0.04</timeResidual>
          <timeWeight>0.05</timeWeight>
          <creationInfo>
            <agencyID>CI</agencyID>
            <creationTime>2025-01-07T19:31:50.000000Z</creationTime>
          </creationInfo>
        </arrival>
        <arrival publicID="quakeml:service.scedc.caltech.edu/fdsnws/event/1/query?assocaro=266314357">
          <pickID>quakeml:service.scedc.caltech.edu/fdsnws/event/1/query?assocaro=266314357</pickID>
          <phase>P</phase>
          <timeCorrection>-0.09</timeCorrection>
          <azimuth>148.0</azimuth>
          <distance>0.1528</distance>
          <takeoffAngle>
            <value>90.0</value>
          </takeoffAngle>
          <timeResidual>-0.13</timeResidual>
          <timeWeight>0.21</timeWeight>
          <creationInfo>
            <agencyID>CI</agencyID>
            <creationTime>2025-01-07T19:31:50.000000Z</creationTime>
          </creationInfo>
        </arrival>
        <arrival publicID="quakeml:service.scedc.caltech.edu/fdsnws/event/1/query?assocaro=266314365">
          <pickID>quakeml:service.scedc.caltech.edu/fdsnws/event/1/query?assocaro=266314365</pickID>
          <phase>S</phase>
          <timeCorrection>-0.21</timeCorrection>
          <azimuth>148.0</azimuth>
          <distance>0.1528</distance>
          <takeoffAngle>
            <value>90.0</value>
          </takeoffAngle>
          <timeResidual>0.04</timeResidual>
          <timeWeight>0.05</timeWeight>
          <creationInfo>
            <agencyID>CI</agencyID>
            <creationTime>2025-01-07T19:31:50.000000Z</creationTime>
          </creationInfo>
        </arrival>
        <arrival publicID="quakeml:service.scedc.caltech.edu/fdsnws/event/1/query?assocaro=266314373">
          <pickID>quakeml:service.scedc.caltech.edu/fdsnws/event/1/query?assocaro=266314373</pickID>
          <phase>P</phase>
          <timeCorrection>-0.05</timeCorrection>
          <azimuth>273.0</azimuth>
          <distance>0.1684</distance>
          <takeoffAngle>
            <value>90.0</value>
          </takeoffAngle>
          <timeResidual>-0.04</timeResidual>
          <timeWeight>0.16</timeWeight>
          <creationInfo>
            <agencyID>CI</agencyID>
            <creationTime>2025-01-07T19:31:50.000000Z</creationTime>
          </creationInfo>
        </arrival>
        <arrival publicID="quakeml:service.scedc.caltech.edu/fdsnws/event/1/query?assocaro=266314381">
          <pickID>quakeml:service.scedc.caltech.edu/fdsnws/event/1/query?assocaro=266314381</pickID>
          <phase>S</phase>
          <timeCorrection>-0.2</timeCorrection>
          <azimuth>273.0</azimuth>
          <distance>0.1684</distance>
          <takeoffAngle>
            <value>90.0</value>
          </takeoffAngle>
          <timeResidual>0.76</timeResidual>
          <timeWeight>0.03</timeWeight>
          <creationInfo>
            <agencyID>CI</agencyID>
            <creationTime>2025-01-07T19:31:50.000000Z</creationTime>
          </creationInfo>
        </arrival>
        <arrival publicID="quakeml:service.scedc.caltech.edu/fdsnws/event/1/query?assocaro=266314389">
          <pickID>quakeml:service.scedc.caltech.edu/fdsnws/event/1/query?assocaro=266314389</pickID>
          <phase>P</phase>
          <timeCorrection>0.02</timeCorrection>
          <azimuth>237.0</azimuth>
          <distance>0.1861</distance>
          <takeoffAngle>
            <value>90.0</value>
          </takeoffAngle>
          <timeResidual>0.0</timeResidual>
          <timeWeight>0.11</timeWeight>
          <creationInfo>
            <agencyID>CI</agencyID>
            <creationTime>2025-01-07T19:31:50.000000Z</creationTime>
          </creationInfo>
        </arrival>
        <arrival publicID="quakeml:service.scedc.caltech.edu/fdsnws/event/1/query?assocaro=266314397">
          <pickID>quakeml:service.scedc.caltech.edu/fdsnws/event/1/query?assocaro=266314397</pickID>
          <phase>S</phase>
          <timeCorrection>-0.03</timeCorrection>
          <azimuth>237.0</azimuth>
          <distance>0.1861</distance>
          <takeoffAngle>
            <value>90.0</value>
          </takeoffAngle>
          <timeResidual>0.23</timeResidual>
          <timeWeight>0.05</timeWeight>
          <creationInfo>
            <agencyID>CI</agencyID>
            <creationTime>2025-01-07T19:31:50.000000Z</creationTime>
          </creationInfo>
        </arrival>
        <arrival publicID="quakeml:service.scedc.caltech.edu/fdsnws/event/1/query?assocaro=266314405">
          <pickID>quakeml:service.scedc.caltech.edu/fdsnws/event/1/query?assocaro=266314405</pickID>
          <phase>P</phase>
          <timeCorrection>0.04</timeCorrection>
          <azimuth>200.0</azimuth>
          <distance>0.1999</distance>
          <takeoffAngle>
            <value>90.0</value>
          </takeoffAngle>
          <timeResidual>-0.08</timeResidual>
          <timeWeight>0.11</timeWeight>
          <creationInfo>
            <agencyID>CI</agencyID>
            <creationTime>2025-01-07T19:31:50.000000Z</creationTime>
          </creationInfo>
        </arrival>
        <arrival publicID="quakeml:service.scedc.caltech.edu/fdsnws/event/1/query?assocaro=266314413">
          <pickID>quakeml:service.scedc.caltech.edu/fdsnws/event/1/query?assocaro=266314413</pickID>
          <phase>S</phase>
          <timeCorrection>-0.24</timeCorrection>
          <azimuth>200.0</azimuth>
          <distance>0.1999</distance>
          <takeoffAngle>
            <value>90.0</value>
          </takeoffAngle>
          <timeResidual>0.59</timeResidual>
          <timeWeight>0.05</timeWeight>
          <creationInfo>
            <agencyID>CI</agencyID>
            <creationTime>2025-01-07T19:31:50.000000Z</creationTime>
          </creationInfo>
        </arrival>
        <arrival publicID="quakeml:service.scedc.caltech.edu/fdsnws/event/1/query?assocaro=266314421">
          <pickID>quakeml:service.scedc.caltech.edu/fdsnws/event/1/query?assocaro=266314421</pickID>
          <phase>P</phase>
          <timeCorrection>-0.06</timeCorrection>
          <azimuth>53.0</azimuth>
          <distance>0.2094</distance>
          <takeoffAngle>
            <value>90.0</value>
          </takeoffAngle>
          <timeResidual>-0.1</timeResidual>
          <timeWeight>0.16</timeWeight>
          <creationInfo>
            <agencyID>CI</agencyID>
            <creationTime>2025-01-07T19:31:50.000000Z</creationTime>
          </creationInfo>
        </arrival>
        <arrival publicID="quakeml:service.scedc.caltech.edu/fdsnws/event/1/query?assocaro=266314429">
          <pickID>quakeml:service.scedc.caltech.edu/fdsnws/event/1/query?assocaro=266314429</pickID>
          <phase>S</phase>
          <timeCorrection>-0.35</timeCorrection>
          <azimuth>53.0</azimuth>
          <distance>0.2094</distance>
          <takeoffAngle>
            <value>90.0</value>
          </takeoffAngle>
          <timeResidual>0.22</timeResidual>
          <timeWeight>0.05</timeWeight>
          <creationInfo>
            <agencyID>CI</agencyID>
            <creationTime>2025-01-07T19:31:50.000000Z</creationTime>
          </creationInfo>
        </arrival>
        <arrival publicID="quakeml:service.scedc.caltech.edu/fdsnws/event/1/query?assocaro=266314437">
          <pickID>quakeml:service.scedc.caltech.edu/fdsnws/event/1/query?assocaro=266314437</pickID>
          <phase>P</phase>
          <timeCorrection>-0.06</timeCorrection>
          <azimuth>13.0</azimuth>
          <distance>0.2381</distance>
          <takeoffAngle>
            <value>90.0</value>
          </takeoffAngle>
          <timeResidual>-0.21</timeResidual>
          <timeWeight>0.21</timeWeight>
          <creationInfo>
            <agencyID>CI</agencyID>
            <creationTime>2025-01-07T19:31:50.000000Z</creationTime>
          </creationInfo>
        </arrival>
        <arrival publicID="quakeml:service.scedc.caltech.edu/fdsnws/event/1/query?assocaro=266314445">
