<?xml version='1.0' encoding='utf-8'?>
<q:quakeml xmlns="http://quakeml.org/xmlns/bed/1.2" xmlns:q="http://quakeml.org/xmlns/quakeml/1.2" xmlns:ns0="http://anss.org/xmlns/catalog/0.1">
  <eventParameters publicID="smi:local/a090b639-7587-48e0-bae5-18b512504c2b">
    <event publicID="quakeml:service.scedc.caltech.edu/fdsnws/event/1/query?eventid=40832063" ns0:datasource="ci" ns0:dataid="ci40832063" ns0:eventsource="ci" ns0:eventid="40832063">
      <preferredOriginID>quakeml:service.scedc.caltech.edu/fdsnws/event/1/query?originid=108872532</preferredOriginID>
      <preferredMagnitudeID>quakeml:service.scedc.caltech.edu/fdsnws/event/1/query?magnitudeid=111258388</preferredMagnitudeID>
      <type>earthquake</type>
      <creationInfo>
        <agencyID>CI</agencyID>
        <agencyURI>quakeml:doi.org/10.7909/C3WD3xH1</agencyURI>
        <creationTime>2025-01-04T01:02:01.000000Z</creationTime>
        <version>6</version>
      </creationInfo>
      <origin publicID="quakeml:service.scedc.caltech.edu/fdsnws/event/1/query?originid=108872532" ns0:datasource="ci" ns0:dataid="ci40832063" ns0:eventsource="ci" ns0:eventid="40832063">
        <time>
          <value>2025-01-02T06:33:56.590000Z</value>
        </time>
        <latitude>
          <value>35.8658333</value>
        </latitude>
        <longitude>
          <value>-117.66</value>
        </longitude>
        <depth>
          <value>8520.0</value>
          <uncertainty>670.0</uncertainty>
        </depth>
        <depthType>from location</depthType>
        <timeFixed>false</timeFixed>
        <epicenterFixed>false</epicenterFixed>
        <methodID>smi:ci.anss.org/origin/HYP2000</methodID>
        <quality>
          <associatedPhaseCount>28</associatedPhaseCount>
          <usedPhaseCount>28</usedPhaseCount>
          <associatedStationCount>18</associatedStationCount>
          <usedStationCount>18</usedStationCount>
          <standardError>0.15</standardError>
          <azimuthalGap>80.0</azimuthalGap>
          <secondaryAzimuthalGap>499.0</secondaryAzimuthalGap>
          <minimumDistance>0.08226</minimumDistance>
          <maximumDistance>0.7406</maximumDistance>
          <medianDistance>0.3075</medianDistance>
        </quality>
        <type>hypocenter</type>
        <evaluationMode>manual</evaluationMode>
        <evaluationStatus>final</evaluationStatus>
        <creationInfo>
          <agencyID>CI</agencyID>
          <creationTime>2025-01-04T01:02:01.000000Z</creationTime>
        </creationInfo>
        <originUncertainty>
          <preferredDescription>confidence ellipsoid</preferredDescription>
          <horizontalUncertainty>260.0</horizontalUncertainty>
          <confidenceLevel>95.0</confidenceLevel>
          <confidenceEllipsoid>
            <semiMajorAxisLength>1608.0</semiMajorAxisLength>
            <semiMinorAxisLength>504.0</semiMinorAxisLength>
            <semiIntermediateAxisLength>624.0</semiIntermediateAxisLength>
            <majorAxisPlunge>85.0</majorAxisPlunge>
            <majorAxisAzimuth>34.0</majorAxisAzimuth>
            <majorAxisRotation>47.0</majorAxisRotation>
          </confidenceEllipsoid>
        </originUncertainty>
        <arrival publicID="quakeml:service.scedc.caltech.edu/fdsnws/event/1/query?assocaro=266213901">
          <pickID>quakeml:service.scedc.caltech.edu/fdsnws/event/1/query?assocaro=266213901</pickID>
          <phase>P</phase>
          <timeCorrection>-0.05</timeCorrection>
          <azimuth>5.4</azimuth>
          <distance>0.08226</distance>
          <takeoffAngle>
            <value>130.0</value>
          </takeoffAngle>
          <timeResidual>-0.03</timeResidual>
          <timeWeight>0.25</timeWeight>
          <creationInfo>
            <agencyID>CI</agencyID>
            <creationTime>2025-01-04T01:02:01.000000Z</creationTime>
          </creationInfo>
        </arrival>
        <arrival publicID="quakeml:service.scedc.caltech.edu/fdsnws/event/1/query?assocaro=266213917">
          <pickID>quakeml:service.scedc.caltech.edu/fdsnws/event/1/query?assocaro=266213917</pickID>
          <phase>P</phase>
          <timeCorrection>0.2</timeCorrection>
          <azimuth>236.1</azimuth>
          <distance>0.1026</distance>
          <takeoffAngle>
            <value>123.0</value>
          </takeoffAngle>
          <timeResidual>-0.13</timeResidual>
          <timeWeight>0.25</timeWeight>
          <creationInfo>
            <agencyID>CI</agencyID>
            <creationTime>2025-01-04T01:02:01.000000Z</creationTime>
          </creationInfo>
        </arrival>
        <arrival publicID="quakeml:service.scedc.caltech.edu/fdsnws/event/1/query?assocaro=266213941">
          <pickID>quakeml:service.scedc.caltech.edu/fdsnws/event/1/query?assocaro=266213941</pickID>
          <phase>S</phase>
          <timeCorrection>-0.23</timeCorrection>
          <azimuth>314.1</azimuth>
          <distance>0.1678</distance>
          <takeoffAngle>
            <value>108.0</value>
          </takeoffAngle>
          <timeResidual>0.41</timeResidual>
          <timeWeight>0.06</timeWeight>
          <creationInfo>
            <agencyID>CI</agencyID>
            <creationTime>2025-01-04T01:02:01.000000Z</creationTime>
          </creationInfo>
        </arrival>
        <arrival publicID="quakeml:service.scedc.caltech.edu/fdsnws/event/1/query?assocaro=266213957">
          <pickID>quakeml:service.scedc.caltech.edu/fdsnws/event/1/query?assocaro=266213957</pickID>
          <phase>S</phase>
          <timeCorrection>-0.01</timeCorrection>
          <azimuth>203.0</azimuth>
          <distance>0.1881</distance>
          <takeoffAngle>
            <value>105.0</value>
          </takeoffAngle>
          <timeResidual>0.75</timeResidual>
          <timeWeight>0.09</timeWeight>
          <creationInfo>
            <agencyID>CI</agencyID>
            <creationTime>2025-01-04T01:02:01.000000Z</creationTime>
          </creationInfo>
        </arrival>
        <arrival publicID="quakeml:service.scedc.caltech.edu/fdsnws/event/1/query?assocaro=266213965">
          <pickID>quakeml:service.scedc.caltech.edu/fdsnws/event/1/query?assocaro=266213965</pickID>
          <phase>P</phase>
          <timeCorrection>-0.11</timeCorrection>
          <azimuth>263.3</azimuth>
          <distance>0.2014</distance>
          <takeoffAngle>
            <value>103.0</value>
          </takeoffAngle>
          <timeResidual>-0.03</timeResidual>
          <timeWeight>0.12</timeWeight>
          <creationInfo>
            <agencyID>CI</agencyID>
            <creationTime>2025-01-04T01:02:01.000000Z</creationTime>
          </creationInfo>
        </arrival>
        <arrival publicID="quakeml:service.scedc.caltech.edu/fdsnws/event/1/query?assocaro=266213973">
          <pickID>quakeml:service.scedc.caltech.edu/fdsnws/event/1/query?assocaro=266213973</pickID>
          <phase>S</phase>
          <timeCorrection>-0.36</timeCorrection>
          <azimuth>263.3</azimuth>
          <distance>0.2014</distance>
          <takeoffAngle>
            <value>103.0</value>
          </takeoffAngle>
          <timeResidual>0.43</timeResidual>
          <timeWeight>0.06</timeWeight>
          <creationInfo>
            <agencyID>CI</agencyID>
            <creationTime>2025-01-04T01:02:01.000000Z</creationTime>
          </creationInfo>
        </arrival>
        <arrival publicID="quakeml:service.scedc.caltech.edu/fdsnws/event/1/query?assocaro=266213981">
          <pickID>quakeml:service.scedc.caltech.edu/fdsnws/event/1/query?assocaro=266213981</pickID>
          <phase>P</phase>
          <timeCorrection>-0.09</timeCorrection>
          <azimuth>307.3</azimuth>
          <distance>0.2345</distance>
          <takeoffAngle>
            <value>100.0</value>
          </takeoffAngle>
          <timeResidual>0.01</timeResidual>
          <timeWeight>0.25</timeWeight>
          <creationInfo>
            <agencyID>CI</agencyID>
            <creationTime>2025-01-04T01:02:01.000000Z</creationTime>
          </creationInfo>
        </arrival>
        <arrival publicID="quakeml:service.scedc.caltech.edu/fdsnws/event/1/query?assocaro=266213989">
          <pickID>quakeml:service.scedc.caltech.edu/fdsnws/event/1/query?assocaro=266213989</pickID>
          <phase>S</phase>
          <timeCorrection>-0.28</timeCorrection>
          <azimuth>307.3</azimuth>
          <distance>0.2345</distance>
          <takeoffAngle>
            <value>100.0</value>
          </takeoffAngle>
          <timeResidual>0.2</timeResidual>
          <timeWeight>0.09</timeWeight>
          <creationInfo>
            <agencyID>CI</agencyID>
            <creationTime>2025-01-04T01:02:01.000000Z</creationTime>
          </creationInfo>
        </arrival>
        <arrival publicID="quakeml:service.scedc.caltech.edu/fdsnws/event/1/query?assocaro=266213997">
          <pickID>quakeml:service.scedc.caltech.edu/fdsnws/event/1/query?assocaro=266213997</pickID>
          <phase>S</phase>
          <timeCorrection>-0.27</timeCorrection>
          <azimuth>328.0</azimuth>
          <distance>0.2968</distance>
          <takeoffAngle>
            <value>96.0</value>
          </takeoffAngle>
          <timeResidual>0.47</timeResidual>
          <timeWeight>0.06</timeWeight>
          <creationInfo>
            <agencyID>CI</agencyID>
            <creationTime>2025-01-04T01:02:01.000000Z</creationTime>
          </creationInfo>
        </arrival>
        <arrival publicID="quakeml:service.scedc.caltech.edu/fdsnws/event/1/query?assocaro=266214005">
          <pickID>quakeml:service.scedc.caltech.edu/fdsnws/event/1/query?assocaro=266214005</pickID>
          <phase>P</phase>
          <timeCorrection>-0.01</timeCorrection>
          <azimuth>85.2</azimuth>
          <distance>0.3069</distance>
          <takeoffAngle>
            <value>96.0</value>
          </takeoffAngle>
          <timeResidual>0.01</timeResidual>
          <timeWeight>0.12</timeWeight>
          <creationInfo>
            <agencyID>CI</agencyID>
            <creationTime>2025-01-04T01:02:01.000000Z</creationTime>
          </creationInfo>
        </arrival>
        <arrival publicID="quakeml:service.scedc.caltech.edu/fdsnws/event/1/query?assocaro=266214013">
          <pickID>quakeml:service.scedc.caltech.edu/fdsnws/event/1/query?assocaro=266214013</pickID>
          <phase>S</phase>
          <timeCorrection>-0.14</timeCorrection>
          <azimuth>85.2</azimuth>
          <distance>0.3069</distance>
          <takeoffAngle>
            <value>96.0</value>
          </takeoffAngle>
          <timeResidual>0.27</timeResidual>
          <timeWeight>0.06</timeWeight>
          <creationInfo>
            <agencyID>CI</agencyID>
            <creationTime>2025-01-04T01:02:01.000000Z</creationTime>
          </creationInfo>
        </arrival>
        <arrival publicID="quakeml:service.scedc.caltech.edu/fdsnws/event/1/query?assocaro=266214045">
          <pickID>quakeml:service.scedc.caltech.edu/fdsnws/event/1/query?assocaro=266214045</pickID>
          <phase>S</phase>
          <timeCorrection>-0.25</timeCorrection>
          <azimuth>182.7</azimuth>
          <distance>0.3859</distance>
          <takeoffAngle>
            <value>93.0</value>
          </takeoffAngle>
          <timeResidual>0.15</timeResidual>
          <timeWeight>0.06</timeWeight>
          <creationInfo>
            <agencyID>CI</agencyID>
            <creationTime>2025-01-04T01:02:01.000000Z</creationTime>
          </creationInfo>
        </arrival>
        <arrival publicID="quakeml:service.scedc.caltech.edu/fdsnws/event/1/query?assocaro=266214085">
          <pickID>quakeml:service.scedc.caltech.edu/fdsnws/event/1/query?assocaro=266214085</pickID>
          <phase>S</phase>
          <timeCorrection>-0.35</timeCorrection>
          <azimuth>253.3</azimuth>
          <distance>0.5878</distance>
          <takeoffAngle>
            <value>91.0</value>
          </takeoffAngle>
          <timeResidual>0.01</timeResidual>
          <timeWeight>0.06</timeWeight>
          <creationInfo>
            <agencyID>CI</agencyID>
            <creationTime>2025-01-04T01:02:01.000000Z</creationTime>
          </creationInfo>
        </arrival>
        <arrival publicID="quakeml:service.scedc.caltech.edu/fdsnws/event/1/query?assocaro=266214093">
          <pickID>quakeml:service.scedc.caltech.edu/fdsnws/event/1/query?assocaro=266214093</pickID>
          <phase>P</phase>
          <timeCorrection>-0.15</timeCorrection>
          <azimuth>298.6</azimuth>
          <distance>0.6017</distance>
          <takeoffAngle>
            <value>91.0</value>
          </takeoffAngle>
          <timeResidual>0.04</timeResidual>
          <timeWeight>0.12</timeWeight>
          <creationInfo>
            <agencyID>CI</agencyID>
            <creationTime>2025-01-04T01:02:01.000000Z</creationTime>
          </creationInfo>
        </arrival>
        <arrival publicID="quakeml:service.scedc.caltech.edu/fdsnws/event/1/query?assocaro=266214101">
          <pickID>quakeml:service.scedc.caltech.edu/fdsnws/event/1/query?assocaro=266214101</pickID>
          <phase>S</phase>
          <timeCorrection>-0.35</timeCorrection>
          <azimuth>298.6</azimuth>
          <distance>0.6017</distance>
          <takeoffAngle>
            <value>91.0</value>
          </takeoffAngle>
          <timeResidual>0.14</timeResidual>
          <timeWeight>0.06</timeWeight>
          <creationInfo>
            <agencyID>CI</agencyID>
            <creationTime>2025-01-04T01:02:01.000000Z</creationTime>
          </creationInfo>
        </arrival>
        <arrival publicID="quakeml:service.scedc.caltech.edu/fdsnws/event/1/query?assocaro=266214125">
          <pickID>quakeml:service.scedc.caltech.edu/fdsnws/event/1/query?assocaro=266214125</pickID>
          <phase>S</phase>
          <timeCorrection>-0.36</timeCorrection>
          <azimuth>260.3</azimuth>
          <distance>0.7406</distance>
          <takeoffAngle>
            <value>77.0</value>
          </takeoffAngle>
          <timeResidual>0.72</timeResidual>
          <timeWeight>0.03</timeWeight>
          <creationInfo>
            <agencyID>CI</agencyID>
            <creationTime>2025-01-04T01:02:01.000000Z</creationTime>
          </creationInfo>
        </arrival>
        <arrival publicID="quakeml:service.scedc.caltech.edu/fdsnws/event/1/query?assocaro=424236940">
          <pickID>quakeml:service.scedc.caltech.edu/fdsnws/event/1/query?assocaro=424236940</pickID>
          <phase>S</phase>
          <timeCorrection>-0.18</timeCorrection>
          <azimuth>5.4</azimuth>
          <distance>0.08226</distance>
          <takeoffAngle>
            <value>130.0</value>
          </takeoffAngle>
          <timeResidual>0.4</timeResidual>
          <timeWeight>0.06</timeWeight>
          <creationInfo>
            <agencyID>CI</agencyID>
            <creationTime>2025-01-04T01:02:01.000000Z</creationTime>
          </creationInfo>
        </arrival>
        <arrival publicID="quakeml:service.scedc.caltech.edu/fdsnws/event/1/query?assocaro=424236948">
          <pickID>quakeml:service.scedc.caltech.edu/fdsnws/event/1/query?assocaro=424236948</pickID>
          <phase>S</phase>
          <timeCorrection>-0.18</timeCorrection>
          <azimuth>236.1</azimuth>
          <distance>0.1026</distance>
          <takeoffAngle>
            <value>123.0</value>
          </takeoffAngle>
          <timeResidual>0.99</timeResidual>
          <timeWeight>0.06</timeWeight>
          <creationInfo>
            <agencyID>CI</agencyID>
            <creationTime>2025-01-04T01:02:01.000000Z</creationTime>
          </creationInfo>
        </arrival>
        <arrival publicID="quakeml:service.scedc.caltech.edu/fdsnws/event/1/query?assocaro=424236956">
          <pickID>quakeml:service.scedc.caltech.edu/fdsnws/event/1/query?assocaro=424236956</pickID>
          <phase>P</phase>
          <timeCorrection>-0.07</timeCorrection>
          <azimuth>314.1</azimuth>
          <distance>0.1678</distance>
          <takeoffAngle>
            <value>108.0</value>
          </takeoffAngle>
          <timeResidual>0.0</timeResidual>
          <timeWeight>0.12</timeWeight>
          <creationInfo>
            <agencyID>CI</agencyID>
            <creationTime>2025-01-04T01:02:01.000000Z</creationTime>
          </creationInfo>
        </arrival>
        <arrival publicID="quakeml:service.scedc.caltech.edu/fdsnws/event/1/query?assocaro=424236964">
          <pickID>quakeml:service.scedc.caltech.edu/fdsnws/event/1/query?assocaro=424236964</pickID>
          <phase>S</phase>
          <timeCorrection>-0.27</timeCorrection>
          <azimuth>331.9</azimuth>
          <distance>0.1805</distance>
          <takeoffAngle>
            <value>106.0</value>
          </takeoffAngle>
          <timeResidual>0.3</timeResidual>
          <timeWeight>0.06</timeWeight>
          <creationInfo>
            <agencyID>CI</agencyID>
            <creationTime>2025-01-04T01:02:01.000000Z</creationTime>
          </creationInfo>
        </arrival>
        <arrival publicID="quakeml:service.scedc.caltech.edu/fdsnws/event/1/query?assocaro=424236972">
          <pickID>quakeml:service.scedc.caltech.edu/fdsnws/event/1/query?assocaro=424236972</pickID>
          <phase>P</phase>
          <timeCorrection>0.18</timeCorrection>
          <azimuth>203.0</azimuth>
          <distance>0.1881</distance>
          <takeoffAngle>
            <value>105.0</value>
          </takeoffAngle>
          <timeResidual>-0.15</timeResidual>
          <timeWeight>0.12</timeWeight>
          <creationInfo>
            <agencyID>CI</agencyID>
            <creationTime>2025-01-04T01:02:01.000000Z</creationTime>
          </creationInfo>
        </arrival>
        <arrival publicID="quakeml:service.scedc.caltech.edu/fdsnws/event/1/query?assocaro=424236980">
          <pickID>quakeml:service.scedc.caltech.edu/fdsnws/event/1/query?assocaro=424236980</pickID>
          <phase>P</phase>
          <timeCorrection>-0.09</timeCorrection>
          <azimuth>328.0</azimuth>
          <distance>0.2968</distance>
          <takeoffAngle>
            <value>96.0</value>
          </takeoffAngle>
          <timeResidual>0.06</timeResidual>
          <timeWeight>0.12</timeWeight>
          <creationInfo>
            <agencyID>CI</agencyID>
            <creationTime>2025-01-04T01:02:01.000000Z</creationTime>
          </creationInfo>
        </arrival>
        <arrival publicID="quakeml:service.scedc.caltech.edu/fdsnws/event/1/query?assocaro=424236988">
          <pickID>quakeml:service.scedc.caltech.edu/fdsnws/event/1/query?assocaro=424236988</pickID>
          <phase>S</phase>
          <timeCorrection>0.0</timeCorrection>
          <azimuth>181.7</azimuth>
          <distance>0.3081</distance>
          <takeoffAngle>
            <value>96.0</value>
          </takeoffAngle>
          <timeResidual>0.11</timeResidual>
          <timeWeight>0.06</timeWeight>
          <creationInfo>
            <agencyID>CI</agencyID>
            <creationTime>2025-01-04T01:02:01.000000Z</creationTime>
          </creationInfo>
        </arrival>
        <arrival publicID="quakeml:service.scedc.caltech.edu/fdsnws/event/1/query?assocaro=424236996">
          <pickID>quakeml:service.scedc.caltech.edu/fdsnws/event/1/query?assocaro=424236996</pickID>
          <phase>S</phase>
          <timeCorrection>0.0</timeCorrection>
          <azimuth>272.3</azimuth>
          <distance>0.3366</distance>
          <takeoffAngle>
            <value>95.0</value>
          </takeoffAngle>
          <timeResidual>-0.21</timeResidual>
          <timeWeight>0.06</timeWeight>
          <creationInfo>
            <agencyID>CI</agencyID>
            <creationTime>2025-01-04T01:02:01.000000Z</creationTime>
          </creationInfo>
        </arrival>
        <arrival publicID="quakeml:service.scedc.caltech.edu/fdsnws/event/1/query?assocaro=424237004">
