<?xml version='1.0' encoding='utf-8'?>
<q:quakeml xmlns="http://quakeml.org/xmlns/bed/1.2" xmlns:q="http://quakeml.org/xmlns/quakeml/1.2" xmlns:ns0="http://anss.org/xmlns/catalog/0.1">
  <eventParameters publicID="smi:local/6bdd7c1d-3645-44ef-9453-9afd7b79cb39">
    <event publicID="quakeml:service.scedc.caltech.edu/fdsnws/event/1/query?eventid=40837359" ns0:datasource="ci" ns0:dataid="ci40837359" ns0:eventsource="ci" ns0:eventid="40837359">
      <preferredOriginID>quakeml:service.scedc.caltech.edu/fdsnws/event/1/query?originid=108875428</preferredOriginID>
      <preferredMagnitudeID>quakeml:service.scedc.caltech.edu/fdsnws/event/1/query?magnitudeid=111261364</preferredMagnitudeID>
      <type>quarry blast</type>
      <comment id="quakeml:ci.anss.org/event_remark/40837359">
        <text>CORONA QRY 1.3 km NNE</text>
      </comment>
      <creationInfo>
        <agencyID>CI</agencyID>
        <agencyURI>quakeml:doi.org/10.7909/C3WD3xH1</agencyURI>
        <creationTime>2025-01-13T21:24:00.000000Z</creationTime>
        <version>6</version>
      </creationInfo>
      <origin publicID="quakeml:service.scedc.caltech.edu/fdsnws/event/1/query?originid=108875428" ns0:datasource="ci" ns0:dataid="ci40837359" ns0:eventsource="ci" ns0:eventid="40837359">
        <time>
          <value>2025-01-10T18:21:41.540000Z</value>
        </time>
        <latitude>
          <value>33.8491667</value>
        </latitude>
        <longitude>
          <value>-117.498</value>
        </longitude>
        <depth>
          <value>-510.0</value>
          <uncertainty>31610.0</uncertainty>
        </depth>
        <depthType>operator assigned</depthType>
        <timeFixed>false</timeFixed>
        <epicenterFixed>false</epicenterFixed>
        <methodID>smi:ci.anss.org/origin/HYP2000</methodID>
        <quality>
          <associatedPhaseCount>47</associatedPhaseCount>
          <usedPhaseCount>47</usedPhaseCount>
          <associatedStationCount>47</associatedStationCount>
          <usedStationCount>47</usedStationCount>
          <standardError>0.24</standardError>
          <azimuthalGap>31.0</azimuthalGap>
          <secondaryAzimuthalGap>377.0</secondaryAzimuthalGap>
          <minimumDistance>0.05429</minimumDistance>
          <maximumDistance>0.9259</maximumDistance>
          <medianDistance>0.4643</medianDistance>
        </quality>
        <type>hypocenter</type>
        <evaluationMode>manual</evaluationMode>
        <evaluationStatus>final</evaluationStatus>
        <creationInfo>
          <agencyID>CI</agencyID>
          <creationTime>2025-01-13T21:24:00.000000Z</creationTime>
        </creationInfo>
        <originUncertainty>
          <preferredDescription>confidence ellipsoid</preferredDescription>
          <horizontalUncertainty>340.0</horizontalUncertainty>
          <confidenceLevel>95.0</confidenceLevel>
          <confidenceEllipsoid>
            <semiMajorAxisLength>75864.0</semiMajorAxisLength>
            <semiMinorAxisLength>624.0</semiMinorAxisLength>
            <semiIntermediateAxisLength>816.0</semiIntermediateAxisLength>
            <majorAxisPlunge>90.0</majorAxisPlunge>
            <majorAxisAzimuth>0.0</majorAxisAzimuth>
            <majorAxisRotation>39.0</majorAxisRotation>
          </confidenceEllipsoid>
        </originUncertainty>
        <arrival publicID="quakeml:service.scedc.caltech.edu/fdsnws/event/1/query?assocaro=144577151">
          <pickID>quakeml:service.scedc.caltech.edu/fdsnws/event/1/query?assocaro=144577151</pickID>
          <phase>P</phase>
          <timeCorrection>0.0</timeCorrection>
          <azimuth>189.7</azimuth>
          <distance>0.2947</distance>
          <takeoffAngle>
            <value>60.0</value>
          </takeoffAngle>
          <timeResidual>0.37</timeResidual>
          <timeWeight>0.05</timeWeight>
          <creationInfo>
            <agencyID>CI</agencyID>
            <creationTime>2025-01-13T21:24:00.000000Z</creationTime>
          </creationInfo>
        </arrival>
        <arrival publicID="quakeml:service.scedc.caltech.edu/fdsnws/event/1/query?assocaro=266345029">
          <pickID>quakeml:service.scedc.caltech.edu/fdsnws/event/1/query?assocaro=266345029</pickID>
          <phase>P</phase>
          <timeCorrection>-0.16</timeCorrection>
          <azimuth>125.8</azimuth>
          <distance>0.05429</distance>
          <takeoffAngle>
            <value>90.0</value>
          </takeoffAngle>
          <timeResidual>0.36</timeResidual>
          <timeWeight>0.18</timeWeight>
          <creationInfo>
            <agencyID>CI</agencyID>
            <creationTime>2025-01-13T21:24:00.000000Z</creationTime>
          </creationInfo>
        </arrival>
        <arrival publicID="quakeml:service.scedc.caltech.edu/fdsnws/event/1/query?assocaro=266345045">
          <pickID>quakeml:service.scedc.caltech.edu/fdsnws/event/1/query?assocaro=266345045</pickID>
          <phase>P</phase>
          <timeCorrection>0.0</timeCorrection>
          <azimuth>55.7</azimuth>
          <distance>0.08373</distance>
          <takeoffAngle>
            <value>90.0</value>
          </takeoffAngle>
          <timeResidual>0.19</timeResidual>
          <timeWeight>0.18</timeWeight>
          <creationInfo>
            <agencyID>CI</agencyID>
            <creationTime>2025-01-13T21:24:00.000000Z</creationTime>
          </creationInfo>
        </arrival>
        <arrival publicID="quakeml:service.scedc.caltech.edu/fdsnws/event/1/query?assocaro=266345069">
          <pickID>quakeml:service.scedc.caltech.edu/fdsnws/event/1/query?assocaro=266345069</pickID>
          <phase>P</phase>
          <timeCorrection>-0.02</timeCorrection>
          <azimuth>4.3</azimuth>
          <distance>0.1262</distance>
          <takeoffAngle>
            <value>90.0</value>
          </takeoffAngle>
          <timeResidual>0.03</timeResidual>
          <timeWeight>0.09</timeWeight>
          <creationInfo>
            <agencyID>CI</agencyID>
            <creationTime>2025-01-13T21:24:00.000000Z</creationTime>
          </creationInfo>
        </arrival>
        <arrival publicID="quakeml:service.scedc.caltech.edu/fdsnws/event/1/query?assocaro=266345085">
          <pickID>quakeml:service.scedc.caltech.edu/fdsnws/event/1/query?assocaro=266345085</pickID>
          <phase>P</phase>
          <timeCorrection>-0.16</timeCorrection>
          <azimuth>139.8</azimuth>
          <distance>0.1373</distance>
          <takeoffAngle>
            <value>90.0</value>
          </takeoffAngle>
          <timeResidual>0.2</timeResidual>
          <timeWeight>0.18</timeWeight>
          <creationInfo>
            <agencyID>CI</agencyID>
            <creationTime>2025-01-13T21:24:00.000000Z</creationTime>
          </creationInfo>
        </arrival>
        <arrival publicID="quakeml:service.scedc.caltech.edu/fdsnws/event/1/query?assocaro=266345101">
          <pickID>quakeml:service.scedc.caltech.edu/fdsnws/event/1/query?assocaro=266345101</pickID>
          <phase>P</phase>
          <timeCorrection>0.0</timeCorrection>
          <azimuth>291.9</azimuth>
          <distance>0.1663</distance>
          <takeoffAngle>
            <value>90.0</value>
          </takeoffAngle>
          <timeResidual>0.39</timeResidual>
          <timeWeight>0.14</timeWeight>
          <creationInfo>
            <agencyID>CI</agencyID>
            <creationTime>2025-01-13T21:24:00.000000Z</creationTime>
          </creationInfo>
        </arrival>
        <arrival publicID="quakeml:service.scedc.caltech.edu/fdsnws/event/1/query?assocaro=266345117">
          <pickID>quakeml:service.scedc.caltech.edu/fdsnws/event/1/query?assocaro=266345117</pickID>
          <phase>P</phase>
          <timeCorrection>-0.13</timeCorrection>
          <azimuth>35.1</azimuth>
          <distance>0.1764</distance>
          <takeoffAngle>
            <value>90.0</value>
          </takeoffAngle>
          <timeResidual>0.04</timeResidual>
          <timeWeight>0.14</timeWeight>
          <creationInfo>
            <agencyID>CI</agencyID>
            <creationTime>2025-01-13T21:24:00.000000Z</creationTime>
          </creationInfo>
        </arrival>
        <arrival publicID="quakeml:service.scedc.caltech.edu/fdsnws/event/1/query?assocaro=266345133">
          <pickID>quakeml:service.scedc.caltech.edu/fdsnws/event/1/query?assocaro=266345133</pickID>
          <phase>P</phase>
          <timeCorrection>0.0</timeCorrection>
          <azimuth>11.1</azimuth>
          <distance>0.1849</distance>
          <takeoffAngle>
            <value>90.0</value>
          </takeoffAngle>
          <timeResidual>-0.2</timeResidual>
          <timeWeight>0.09</timeWeight>
          <creationInfo>
            <agencyID>CI</agencyID>
            <creationTime>2025-01-13T21:24:00.000000Z</creationTime>
          </creationInfo>
        </arrival>
        <arrival publicID="quakeml:service.scedc.caltech.edu/fdsnws/event/1/query?assocaro=266345149">
          <pickID>quakeml:service.scedc.caltech.edu/fdsnws/event/1/query?assocaro=266345149</pickID>
          <phase>P</phase>
          <timeCorrection>-0.02</timeCorrection>
          <azimuth>207.9</azimuth>
          <distance>0.1977</distance>
          <takeoffAngle>
            <value>90.0</value>
          </takeoffAngle>
          <timeResidual>0.17</timeResidual>
          <timeWeight>0.14</timeWeight>
          <creationInfo>
            <agencyID>CI</agencyID>
            <creationTime>2025-01-13T21:24:00.000000Z</creationTime>
          </creationInfo>
        </arrival>
        <arrival publicID="quakeml:service.scedc.caltech.edu/fdsnws/event/1/query?assocaro=266345165">
          <pickID>quakeml:service.scedc.caltech.edu/fdsnws/event/1/query?assocaro=266345165</pickID>
          <phase>P</phase>
          <timeCorrection>-0.12</timeCorrection>
          <azimuth>87.0</azimuth>
          <distance>0.2439</distance>
          <takeoffAngle>
            <value>90.0</value>
          </takeoffAngle>
          <timeResidual>-0.02</timeResidual>
          <timeWeight>0.14</timeWeight>
          <creationInfo>
            <agencyID>CI</agencyID>
            <creationTime>2025-01-13T21:24:00.000000Z</creationTime>
          </creationInfo>
        </arrival>
        <arrival publicID="quakeml:service.scedc.caltech.edu/fdsnws/event/1/query?assocaro=266345181">
          <pickID>quakeml:service.scedc.caltech.edu/fdsnws/event/1/query?assocaro=266345181</pickID>
          <phase>P</phase>
          <timeCorrection>0.12</timeCorrection>
          <azimuth>265.2</azimuth>
          <distance>0.2434</distance>
          <takeoffAngle>
            <value>90.0</value>
          </takeoffAngle>
          <timeResidual>-0.02</timeResidual>
          <timeWeight>0.09</timeWeight>
          <creationInfo>
            <agencyID>CI</agencyID>
            <creationTime>2025-01-13T21:24:00.000000Z</creationTime>
          </creationInfo>
        </arrival>
        <arrival publicID="quakeml:service.scedc.caltech.edu/fdsnws/event/1/query?assocaro=266345205">
          <pickID>quakeml:service.scedc.caltech.edu/fdsnws/event/1/query?assocaro=266345205</pickID>
          <phase>P</phase>
          <timeCorrection>0.0</timeCorrection>
          <azimuth>359.8</azimuth>
          <distance>0.3577</distance>
          <takeoffAngle>
            <value>60.0</value>
          </takeoffAngle>
          <timeResidual>-0.24</timeResidual>
          <timeWeight>0.09</timeWeight>
          <creationInfo>
            <agencyID>CI</agencyID>
            <creationTime>2025-01-13T21:24:00.000000Z</creationTime>
          </creationInfo>
        </arrival>
        <arrival publicID="quakeml:service.scedc.caltech.edu/fdsnws/event/1/query?assocaro=266345221">
          <pickID>quakeml:service.scedc.caltech.edu/fdsnws/event/1/query?assocaro=266345221</pickID>
          <phase>P</phase>
          <timeCorrection>0.0</timeCorrection>
          <azimuth>166.8</azimuth>
          <distance>0.433</distance>
          <takeoffAngle>
            <value>56.0</value>
          </takeoffAngle>
          <timeResidual>-0.36</timeResidual>
          <timeWeight>0.14</timeWeight>
          <creationInfo>
            <agencyID>CI</agencyID>
            <creationTime>2025-01-13T21:24:00.000000Z</creationTime>
          </creationInfo>
        </arrival>
        <arrival publicID="quakeml:service.scedc.caltech.edu/fdsnws/event/1/query?assocaro=266345237">
          <pickID>quakeml:service.scedc.caltech.edu/fdsnws/event/1/query?assocaro=266345237</pickID>
          <phase>P</phase>
          <timeCorrection>-0.05</timeCorrection>
          <azimuth>316.0</azimuth>
          <distance>0.4427</distance>
          <takeoffAngle>
            <value>56.0</value>
          </takeoffAngle>
          <timeResidual>0.0</timeResidual>
          <timeWeight>0.14</timeWeight>
          <creationInfo>
            <agencyID>CI</agencyID>
            <creationTime>2025-01-13T21:24:00.000000Z</creationTime>
          </creationInfo>
        </arrival>
        <arrival publicID="quakeml:service.scedc.caltech.edu/fdsnws/event/1/query?assocaro=266345253">
          <pickID>quakeml:service.scedc.caltech.edu/fdsnws/event/1/query?assocaro=266345253</pickID>
          <phase>P</phase>
          <timeCorrection>-0.17</timeCorrection>
          <azimuth>116.0</azimuth>
          <distance>0.4529</distance>
          <takeoffAngle>
            <value>56.0</value>
          </takeoffAngle>
          <timeResidual>-0.31</timeResidual>
          <timeWeight>0.14</timeWeight>
          <creationInfo>
            <agencyID>CI</agencyID>
            <creationTime>2025-01-13T21:24:00.000000Z</creationTime>
          </creationInfo>
        </arrival>
        <arrival publicID="quakeml:service.scedc.caltech.edu/fdsnws/event/1/query?assocaro=266345285">
          <pickID>quakeml:service.scedc.caltech.edu/fdsnws/event/1/query?assocaro=266345285</pickID>
          <phase>P</phase>
          <timeCorrection>0.0</timeCorrection>
          <azimuth>164.1</azimuth>
          <distance>0.5262</distance>
          <takeoffAngle>
            <value>56.0</value>
          </takeoffAngle>
          <timeResidual>-0.4</timeResidual>
          <timeWeight>0.09</timeWeight>
          <creationInfo>
            <agencyID>CI</agencyID>
            <creationTime>2025-01-13T21:24:00.000000Z</creationTime>
          </creationInfo>
        </arrival>
        <arrival publicID="quakeml:service.scedc.caltech.edu/fdsnws/event/1/query?assocaro=266345341">
          <pickID>quakeml:service.scedc.caltech.edu/fdsnws/event/1/query?assocaro=266345341</pickID>
          <phase>P</phase>
          <timeCorrection>-0.13</timeCorrection>
          <azimuth>139.7</azimuth>
          <distance>0.6016</distance>
          <takeoffAngle>
            <value>56.0</value>
          </takeoffAngle>
          <timeResidual>-0.19</timeResidual>
          <timeWeight>0.09</timeWeight>
          <creationInfo>
            <agencyID>CI</agencyID>
            <creationTime>2025-01-13T21:24:00.000000Z</creationTime>
          </creationInfo>
        </arrival>
        <arrival publicID="quakeml:service.scedc.caltech.edu/fdsnws/event/1/query?assocaro=266345365">
          <pickID>quakeml:service.scedc.caltech.edu/fdsnws/event/1/query?assocaro=266345365</pickID>
          <phase>P</phase>
          <timeCorrection>0.0</timeCorrection>
          <azimuth>120.9</azimuth>
          <distance>0.6706</distance>
          <takeoffAngle>
            <value>55.0</value>
          </takeoffAngle>
          <timeResidual>-0.36</timeResidual>
          <timeWeight>0.09</timeWeight>
          <creationInfo>
            <agencyID>CI</agencyID>
            <creationTime>2025-01-13T21:24:00.000000Z</creationTime>
          </creationInfo>
        </arrival>
        <arrival publicID="quakeml:service.scedc.caltech.edu/fdsnws/event/1/query?assocaro=266345373">
          <pickID>quakeml:service.scedc.caltech.edu/fdsnws/event/1/query?assocaro=266345373</pickID>
          <phase>P</phase>
          <timeCorrection>-0.15</timeCorrection>
          <azimuth>334.8</azimuth>
          <distance>0.6725</distance>
          <takeoffAngle>
            <value>55.0</value>
          </takeoffAngle>
          <timeResidual>-0.21</timeResidual>
          <timeWeight>0.09</timeWeight>
          <creationInfo>
            <agencyID>CI</agencyID>
            <creationTime>2025-01-13T21:24:00.000000Z</creationTime>
          </creationInfo>
        </arrival>
        <arrival publicID="quakeml:service.scedc.caltech.edu/fdsnws/event/1/query?assocaro=266345397">
          <pickID>quakeml:service.scedc.caltech.edu/fdsnws/event/1/query?assocaro=266345397</pickID>
          <phase>P</phase>
          <timeCorrection>-0.08</timeCorrection>
          <azimuth>113.9</azimuth>
          <distance>0.6944</distance>
          <takeoffAngle>
            <value>55.0</value>
          </takeoffAngle>
          <timeResidual>-0.14</timeResidual>
          <timeWeight>0.09</timeWeight>
          <creationInfo>
            <agencyID>CI</agencyID>
            <creationTime>2025-01-13T21:24:00.000000Z</creationTime>
          </creationInfo>
        </arrival>
        <arrival publicID="quakeml:service.scedc.caltech.edu/fdsnws/event/1/query?assocaro=266345413">
          <pickID>quakeml:service.scedc.caltech.edu/fdsnws/event/1/query?assocaro=266345413</pickID>
          <phase>P</phase>
          <timeCorrection>-0.19</timeCorrection>
          <azimuth>327.9</azimuth>
          <distance>0.7084</distance>
          <takeoffAngle>
            <value>55.0</value>
          </takeoffAngle>
          <timeResidual>-0.22</timeResidual>
          <timeWeight>0.09</timeWeight>
          <creationInfo>
            <agencyID>CI</agencyID>
            <creationTime>2025-01-13T21:24:00.000000Z</creationTime>
          </creationInfo>
        </arrival>
        <arrival publicID="quakeml:service.scedc.caltech.edu/fdsnws/event/1/query?assocaro=266345461">
          <pickID>quakeml:service.scedc.caltech.edu/fdsnws/event/1/query?assocaro=266345461</pickID>
          <phase>P</phase>
          <timeCorrection>0.0</timeCorrection>
          <azimuth>105.0</azimuth>
          <distance>0.7792</distance>
          <takeoffAngle>
            <value>55.0</value>
          </takeoffAngle>
          <timeResidual>-0.04</timeResidual>
          <timeWeight>0.13</timeWeight>
          <creationInfo>
            <agencyID>CI</agencyID>
            <creationTime>2025-01-13T21:24:00.000000Z</creationTime>
          </creationInfo>
        </arrival>
        <arrival publicID="quakeml:service.scedc.caltech.edu/fdsnws/event/1/query?assocaro=266345493">
          <pickID>quakeml:service.scedc.caltech.edu/fdsnws/event/1/query?assocaro=266345493</pickID>
          <phase>P</phase>
          <timeCorrection>-0.08</timeCorrection>
          <azimuth>115.2</azimuth>
          <distance>0.8265</distance>
          <takeoffAngle>
            <value>55.0</value>
          </takeoffAngle>
          <timeResidual>-0.07</timeResidual>
          <timeWeight>0.09</timeWeight>
          <creationInfo>
            <agencyID>CI</agencyID>
            <creationTime>2025-01-13T21:24:00.000000Z</creationTime>
          </creationInfo>
        </arrival>
        <arrival publicID="quakeml:service.scedc.caltech.edu/fdsnws/event/1/query?assocaro=424325684">
          <pickID>quakeml:service.scedc.caltech.edu/fdsnws/event/1/query?assocaro=424325684</pickID>
          <phase>P</phase>
          <timeCorrection>-0.06</timeCorrection>
          <azimuth>239.8</azimuth>
          <distance>0.1069</distance>
          <takeoffAngle>
            <value>90.0</value>
          </takeoffAngle>
          <timeResidual>0.33</timeResidual>
          <timeWeight>0.09</timeWeight>
          <creationInfo>
            <agencyID>CI</agencyID>
            <creationTime>2025-01-13T21:24:00.000000Z</creationTime>
          </creationInfo>
        </arrival>
