<?xml version='1.0' encoding='utf-8'?>
<q:quakeml xmlns="http://quakeml.org/xmlns/bed/1.2" xmlns:q="http://quakeml.org/xmlns/quakeml/1.2" xmlns:ns0="http://anss.org/xmlns/catalog/0.1">
  <eventParameters publicID="smi:local/a616a659-9e03-4ade-adae-f533ccc97dd3">
    <event publicID="quakeml:service.scedc.caltech.edu/fdsnws/event/1/query?eventid=40831567" ns0:datasource="ci" ns0:dataid="ci40831567" ns0:eventsource="ci" ns0:eventid="40831567">
      <preferredOriginID>quakeml:service.scedc.caltech.edu/fdsnws/event/1/query?originid=105822517</preferredOriginID>
      <preferredMagnitudeID>quakeml:service.scedc.caltech.edu/fdsnws/event/1/query?magnitudeid=109287181</preferredMagnitudeID>
      <type>earthquake</type>
      <creationInfo>
        <agencyID>CI</agencyID>
        <agencyURI>quakeml:doi.org/10.7909/C3WD3xH1</agencyURI>
        <creationTime>2025-02-10T19:53:22.000000Z</creationTime>
        <version>6</version>
      </creationInfo>
      <origin publicID="quakeml:service.scedc.caltech.edu/fdsnws/event/1/query?originid=105822517" ns0:datasource="ci" ns0:dataid="ci40831567" ns0:eventsource="ci" ns0:eventid="40831567">
        <time>
          <value>2025-01-01T15:40:13.140000Z</value>
        </time>
        <latitude>
          <value>32.771</value>
        </latitude>
        <longitude>
          <value>-115.4335</value>
        </longitude>
        <depth>
          <value>12010.0</value>
          <uncertainty>650.0</uncertainty>
        </depth>
        <depthType>from location</depthType>
        <timeFixed>false</timeFixed>
        <epicenterFixed>false</epicenterFixed>
        <methodID>smi:ci.anss.org/origin/HYP2000</methodID>
        <quality>
          <associatedPhaseCount>67</associatedPhaseCount>
          <usedPhaseCount>61</usedPhaseCount>
          <associatedStationCount>37</associatedStationCount>
          <usedStationCount>36</usedStationCount>
          <standardError>0.32</standardError>
          <azimuthalGap>53.0</azimuthalGap>
          <secondaryAzimuthalGap>412.0</secondaryAzimuthalGap>
          <minimumDistance>0.03601</minimumDistance>
          <maximumDistance>0.905</maximumDistance>
          <medianDistance>0.4752</medianDistance>
        </quality>
        <type>hypocenter</type>
        <evaluationMode>manual</evaluationMode>
        <evaluationStatus>final</evaluationStatus>
        <creationInfo>
          <agencyID>CI</agencyID>
          <creationTime>2025-02-10T19:53:22.000000Z</creationTime>
        </creationInfo>
        <originUncertainty>
          <preferredDescription>horizontal uncertainty</preferredDescription>
          <horizontalUncertainty>400.0</horizontalUncertainty>
        </originUncertainty>
        <arrival publicID="quakeml:service.scedc.caltech.edu/fdsnws/event/1/query?assocaro=266189821">
          <pickID>quakeml:service.scedc.caltech.edu/fdsnws/event/1/query?assocaro=266189821</pickID>
          <phase>P</phase>
          <timeCorrection>0.37</timeCorrection>
          <azimuth>358.7</azimuth>
          <distance>0.09061</distance>
          <takeoffAngle>
            <value>135.0</value>
          </takeoffAngle>
          <timeResidual>-0.3</timeResidual>
          <timeWeight>0.28</timeWeight>
          <creationInfo>
            <agencyID>CI</agencyID>
            <creationTime>2025-02-10T19:53:22.000000Z</creationTime>
          </creationInfo>
        </arrival>
        <arrival publicID="quakeml:service.scedc.caltech.edu/fdsnws/event/1/query?assocaro=266189829">
          <pickID>quakeml:service.scedc.caltech.edu/fdsnws/event/1/query?assocaro=266189829</pickID>
          <phase>P</phase>
          <timeCorrection>0.0</timeCorrection>
          <azimuth>262.0</azimuth>
          <distance>0.1376</distance>
          <takeoffAngle>
            <value>120.0</value>
          </takeoffAngle>
          <timeResidual>0.36</timeResidual>
          <timeWeight>0.28</timeWeight>
          <creationInfo>
            <agencyID>CI</agencyID>
            <creationTime>2025-02-10T19:53:22.000000Z</creationTime>
          </creationInfo>
        </arrival>
        <arrival publicID="quakeml:service.scedc.caltech.edu/fdsnws/event/1/query?assocaro=266189837">
          <pickID>quakeml:service.scedc.caltech.edu/fdsnws/event/1/query?assocaro=266189837</pickID>
          <phase>P</phase>
          <timeCorrection>0.0</timeCorrection>
          <azimuth>268.0</azimuth>
          <distance>0.158</distance>
          <takeoffAngle>
            <value>116.0</value>
          </takeoffAngle>
          <timeResidual>0.47</timeResidual>
          <timeWeight>0.14</timeWeight>
          <creationInfo>
            <agencyID>CI</agencyID>
            <creationTime>2025-02-10T19:53:22.000000Z</creationTime>
          </creationInfo>
        </arrival>
        <arrival publicID="quakeml:service.scedc.caltech.edu/fdsnws/event/1/query?assocaro=266189845">
          <pickID>quakeml:service.scedc.caltech.edu/fdsnws/event/1/query?assocaro=266189845</pickID>
          <phase>P</phase>
          <timeCorrection>0.27</timeCorrection>
          <azimuth>320.7</azimuth>
          <distance>0.1685</distance>
          <takeoffAngle>
            <value>114.0</value>
          </takeoffAngle>
          <timeResidual>0.12</timeResidual>
          <timeWeight>0.28</timeWeight>
          <creationInfo>
            <agencyID>CI</agencyID>
            <creationTime>2025-02-10T19:53:22.000000Z</creationTime>
          </creationInfo>
        </arrival>
        <arrival publicID="quakeml:service.scedc.caltech.edu/fdsnws/event/1/query?assocaro=266189909">
          <pickID>quakeml:service.scedc.caltech.edu/fdsnws/event/1/query?assocaro=266189909</pickID>
          <phase>P</phase>
          <timeCorrection>0.04</timeCorrection>
          <azimuth>299.6</azimuth>
          <distance>0.3539</distance>
          <takeoffAngle>
            <value>90.0</value>
          </takeoffAngle>
          <timeResidual>-0.37</timeResidual>
          <timeWeight>0.14</timeWeight>
          <creationInfo>
            <agencyID>CI</agencyID>
            <creationTime>2025-02-10T19:53:22.000000Z</creationTime>
          </creationInfo>
        </arrival>
        <arrival publicID="quakeml:service.scedc.caltech.edu/fdsnws/event/1/query?assocaro=266190181">
          <pickID>quakeml:service.scedc.caltech.edu/fdsnws/event/1/query?assocaro=266190181</pickID>
          <phase>P</phase>
          <timeCorrection>0.07</timeCorrection>
          <azimuth>301.7</azimuth>
          <distance>0.8077</distance>
          <takeoffAngle>
            <value>90.0</value>
          </takeoffAngle>
          <timeResidual>-0.54</timeResidual>
          <timeWeight>0.13</timeWeight>
          <creationInfo>
            <agencyID>CI</agencyID>
            <creationTime>2025-02-10T19:53:22.000000Z</creationTime>
          </creationInfo>
        </arrival>
        <arrival publicID="quakeml:service.scedc.caltech.edu/fdsnws/event/1/query?assocaro=266954957">
          <pickID>quakeml:service.scedc.caltech.edu/fdsnws/event/1/query?assocaro=266954957</pickID>
          <phase>P</phase>
          <timeCorrection>0.49</timeCorrection>
          <azimuth>342.0</azimuth>
          <distance>0.03601</distance>
          <takeoffAngle>
            <value>159.0</value>
          </takeoffAngle>
          <timeResidual>-0.61</timeResidual>
          <timeWeight>0.2</timeWeight>
          <creationInfo>
            <agencyID>CI</agencyID>
            <creationTime>2025-02-10T19:53:22.000000Z</creationTime>
          </creationInfo>
        </arrival>
        <arrival publicID="quakeml:service.scedc.caltech.edu/fdsnws/event/1/query?assocaro=266954965">
          <pickID>quakeml:service.scedc.caltech.edu/fdsnws/event/1/query?assocaro=266954965</pickID>
          <phase>S</phase>
          <timeCorrection>1.03</timeCorrection>
          <azimuth>342.0</azimuth>
          <distance>0.03601</distance>
          <takeoffAngle>
            <value>159.0</value>
          </takeoffAngle>
          <timeResidual>-0.09</timeResidual>
          <timeWeight>0.1</timeWeight>
          <creationInfo>
            <agencyID>CI</agencyID>
            <creationTime>2025-02-10T19:53:22.000000Z</creationTime>
          </creationInfo>
        </arrival>
        <arrival publicID="quakeml:service.scedc.caltech.edu/fdsnws/event/1/query?assocaro=266954973">
          <pickID>quakeml:service.scedc.caltech.edu/fdsnws/event/1/query?assocaro=266954973</pickID>
          <phase>S</phase>
          <timeCorrection>0.69</timeCorrection>
          <azimuth>358.7</azimuth>
          <distance>0.09061</distance>
          <takeoffAngle>
            <value>135.0</value>
          </takeoffAngle>
          <timeResidual>0.55</timeResidual>
          <timeWeight>0.05</timeWeight>
          <creationInfo>
            <agencyID>CI</agencyID>
            <creationTime>2025-02-10T19:53:22.000000Z</creationTime>
          </creationInfo>
        </arrival>
        <arrival publicID="quakeml:service.scedc.caltech.edu/fdsnws/event/1/query?assocaro=266954981">
          <pickID>quakeml:service.scedc.caltech.edu/fdsnws/event/1/query?assocaro=266954981</pickID>
          <phase>S</phase>
          <timeCorrection>0.0</timeCorrection>
          <azimuth>262.0</azimuth>
          <distance>0.1376</distance>
          <takeoffAngle>
            <value>121.0</value>
          </takeoffAngle>
          <timeResidual>1.51</timeResidual>
          <timeWeight>0.0</timeWeight>
          <creationInfo>
            <agencyID>CI</agencyID>
            <creationTime>2025-02-10T19:53:22.000000Z</creationTime>
          </creationInfo>
        </arrival>
        <arrival publicID="quakeml:service.scedc.caltech.edu/fdsnws/event/1/query?assocaro=266954989">
          <pickID>quakeml:service.scedc.caltech.edu/fdsnws/event/1/query?assocaro=266954989</pickID>
          <phase>P</phase>
          <timeCorrection>0.4</timeCorrection>
          <azimuth>183.9</azimuth>
          <distance>0.1393</distance>
          <takeoffAngle>
            <value>120.0</value>
          </takeoffAngle>
          <timeResidual>0.0</timeResidual>
          <timeWeight>0.21</timeWeight>
          <creationInfo>
            <agencyID>CI</agencyID>
            <creationTime>2025-02-10T19:53:22.000000Z</creationTime>
          </creationInfo>
        </arrival>
        <arrival publicID="quakeml:service.scedc.caltech.edu/fdsnws/event/1/query?assocaro=266954997">
          <pickID>quakeml:service.scedc.caltech.edu/fdsnws/event/1/query?assocaro=266954997</pickID>
          <phase>S</phase>
          <timeCorrection>0.79</timeCorrection>
          <azimuth>183.9</azimuth>
          <distance>0.1393</distance>
          <takeoffAngle>
            <value>120.0</value>
          </takeoffAngle>
          <timeResidual>0.65</timeResidual>
          <timeWeight>0.01</timeWeight>
          <creationInfo>
            <agencyID>CI</agencyID>
            <creationTime>2025-02-10T19:53:22.000000Z</creationTime>
          </creationInfo>
        </arrival>
        <arrival publicID="quakeml:service.scedc.caltech.edu/fdsnws/event/1/query?assocaro=266955005">
          <pickID>quakeml:service.scedc.caltech.edu/fdsnws/event/1/query?assocaro=266955005</pickID>
          <phase>S</phase>
          <timeCorrection>0.6</timeCorrection>
          <azimuth>320.7</azimuth>
          <distance>0.1685</distance>
          <takeoffAngle>
            <value>114.0</value>
          </takeoffAngle>
          <timeResidual>0.82</timeResidual>
          <timeWeight>0.01</timeWeight>
          <creationInfo>
            <agencyID>CI</agencyID>
            <creationTime>2025-02-10T19:53:22.000000Z</creationTime>
          </creationInfo>
        </arrival>
        <arrival publicID="quakeml:service.scedc.caltech.edu/fdsnws/event/1/query?assocaro=266955013">
          <pickID>quakeml:service.scedc.caltech.edu/fdsnws/event/1/query?assocaro=266955013</pickID>
          <phase>P</phase>
          <timeCorrection>0.33</timeCorrection>
          <azimuth>287.9</azimuth>
          <distance>0.2607</distance>
          <takeoffAngle>
            <value>90.0</value>
          </takeoffAngle>
          <timeResidual>-0.17</timeResidual>
          <timeWeight>0.14</timeWeight>
          <creationInfo>
            <agencyID>CI</agencyID>
            <creationTime>2025-02-10T19:53:22.000000Z</creationTime>
          </creationInfo>
        </arrival>
        <arrival publicID="quakeml:service.scedc.caltech.edu/fdsnws/event/1/query?assocaro=266955021">
          <pickID>quakeml:service.scedc.caltech.edu/fdsnws/event/1/query?assocaro=266955021</pickID>
          <phase>P</phase>
          <timeCorrection>0.0</timeCorrection>
          <azimuth>208.2</azimuth>
          <distance>0.2639</distance>
          <takeoffAngle>
            <value>90.0</value>
          </takeoffAngle>
          <timeResidual>-0.11</timeResidual>
          <timeWeight>0.21</timeWeight>
          <creationInfo>
            <agencyID>CI</agencyID>
            <creationTime>2025-02-10T19:53:22.000000Z</creationTime>
          </creationInfo>
        </arrival>
        <arrival publicID="quakeml:service.scedc.caltech.edu/fdsnws/event/1/query?assocaro=266955029">
          <pickID>quakeml:service.scedc.caltech.edu/fdsnws/event/1/query?assocaro=266955029</pickID>
          <phase>S</phase>
          <timeCorrection>0.0</timeCorrection>
          <azimuth>208.2</azimuth>
          <distance>0.2639</distance>
          <takeoffAngle>
            <value>90.0</value>
          </takeoffAngle>
          <timeResidual>0.38</timeResidual>
          <timeWeight>0.03</timeWeight>
          <creationInfo>
            <agencyID>CI</agencyID>
            <creationTime>2025-02-10T19:53:22.000000Z</creationTime>
          </creationInfo>
        </arrival>
        <arrival publicID="quakeml:service.scedc.caltech.edu/fdsnws/event/1/query?assocaro=266955037">
          <pickID>quakeml:service.scedc.caltech.edu/fdsnws/event/1/query?assocaro=266955037</pickID>
          <phase>P</phase>
          <timeCorrection>0.05</timeCorrection>
          <azimuth>243.8</azimuth>
          <distance>0.2751</distance>
          <takeoffAngle>
            <value>90.0</value>
          </takeoffAngle>
          <timeResidual>-0.17</timeResidual>
          <timeWeight>0.14</timeWeight>
          <creationInfo>
            <agencyID>CI</agencyID>
            <creationTime>2025-02-10T19:53:22.000000Z</creationTime>
          </creationInfo>
        </arrival>
        <arrival publicID="quakeml:service.scedc.caltech.edu/fdsnws/event/1/query?assocaro=266955045">
          <pickID>quakeml:service.scedc.caltech.edu/fdsnws/event/1/query?assocaro=266955045</pickID>
          <phase>S</phase>
          <timeCorrection>-0.06</timeCorrection>
          <azimuth>243.8</azimuth>
          <distance>0.2751</distance>
          <takeoffAngle>
            <value>90.0</value>
          </takeoffAngle>
          <timeResidual>0.07</timeResidual>
          <timeWeight>0.03</timeWeight>
          <creationInfo>
            <agencyID>CI</agencyID>
            <creationTime>2025-02-10T19:53:22.000000Z</creationTime>
          </creationInfo>
        </arrival>
        <arrival publicID="quakeml:service.scedc.caltech.edu/fdsnws/event/1/query?assocaro=266955053">
          <pickID>quakeml:service.scedc.caltech.edu/fdsnws/event/1/query?assocaro=266955053</pickID>
          <phase>P</phase>
          <timeCorrection>0.26</timeCorrection>
          <azimuth>70.4</azimuth>
          <distance>0.2769</distance>
          <takeoffAngle>
            <value>90.0</value>
          </takeoffAngle>
          <timeResidual>0.25</timeResidual>
          <timeWeight>0.14</timeWeight>
          <creationInfo>
            <agencyID>CI</agencyID>
            <creationTime>2025-02-10T19:53:22.000000Z</creationTime>
          </creationInfo>
        </arrival>
        <arrival publicID="quakeml:service.scedc.caltech.edu/fdsnws/event/1/query?assocaro=266955061">
          <pickID>quakeml:service.scedc.caltech.edu/fdsnws/event/1/query?assocaro=266955061</pickID>
          <phase>S</phase>
          <timeCorrection>0.15</timeCorrection>
          <azimuth>70.4</azimuth>
          <distance>0.2769</distance>
          <takeoffAngle>
            <value>90.0</value>
          </takeoffAngle>
          <timeResidual>1.32</timeResidual>
          <timeWeight>0.0</timeWeight>
          <creationInfo>
            <agencyID>CI</agencyID>
            <creationTime>2025-02-10T19:53:22.000000Z</creationTime>
          </creationInfo>
        </arrival>
        <arrival publicID="quakeml:service.scedc.caltech.edu/fdsnws/event/1/query?assocaro=266955069">
          <pickID>quakeml:service.scedc.caltech.edu/fdsnws/event/1/query?assocaro=266955069</pickID>
          <phase>P</phase>
          <timeCorrection>0.37</timeCorrection>
          <azimuth>346.0</azimuth>
          <distance>0.3358</distance>
          <takeoffAngle>
            <value>90.0</value>
          </takeoffAngle>
          <timeResidual>0.15</timeResidual>
          <timeWeight>0.14</timeWeight>
          <creationInfo>
            <agencyID>CI</agencyID>
            <creationTime>2025-02-10T19:53:22.000000Z</creationTime>
          </creationInfo>
        </arrival>
        <arrival publicID="quakeml:service.scedc.caltech.edu/fdsnws/event/1/query?assocaro=266955077">
          <pickID>quakeml:service.scedc.caltech.edu/fdsnws/event/1/query?assocaro=266955077</pickID>
          <phase>S</phase>
          <timeCorrection>-0.03</timeCorrection>
          <azimuth>299.6</azimuth>
          <distance>0.3539</distance>
          <takeoffAngle>
            <value>90.0</value>
          </takeoffAngle>
          <timeResidual>0.42</timeResidual>
          <timeWeight>0.07</timeWeight>
          <creationInfo>
            <agencyID>CI</agencyID>
            <creationTime>2025-02-10T19:53:22.000000Z</creationTime>
          </creationInfo>
        </arrival>
        <arrival publicID="quakeml:service.scedc.caltech.edu/fdsnws/event/1/query?assocaro=266955085">
          <pickID>quakeml:service.scedc.caltech.edu/fdsnws/event/1/query?assocaro=266955085</pickID>
          <phase>P</phase>
          <timeCorrection>0.0</timeCorrection>
          <azimuth>340.7</azimuth>
          <distance>0.3703</distance>
          <takeoffAngle>
            <value>90.0</value>
          </takeoffAngle>
          <timeResidual>0.61</timeResidual>
          <timeWeight>0.2</timeWeight>
          <creationInfo>
            <agencyID>CI</agencyID>
            <creationTime>2025-02-10T19:53:22.000000Z</creationTime>
          </creationInfo>
        </arrival>
        <arrival publicID="quakeml:service.scedc.caltech.edu/fdsnws/event/1/query?assocaro=266955093">
          <pickID>quakeml:service.scedc.caltech.edu/fdsnws/event/1/query?assocaro=266955093</pickID>
          <phase>S</phase>
          <timeCorrection>0.0</timeCorrection>
          <azimuth>340.7</azimuth>
          <distance>0.3703</distance>
          <takeoffAngle>
            <value>90.0</value>
          </takeoffAngle>
          <timeResidual>1.84</timeResidual>
          <timeWeight>0.0</timeWeight>
          <creationInfo>
            <agencyID>CI</agencyID>
            <creationTime>2025-02-10T19:53:22.000000Z</creationTime>
          </creationInfo>
        </arrival>
        <arrival publicID="quakeml:service.scedc.caltech.edu/fdsnws/event/1/query?assocaro=266955101">
          <pickID>quakeml:service.scedc.caltech.edu/fdsnws/event/1/query?assocaro=266955101</pickID>
          <phase>P</phase>
          <timeCorrection>0.04</timeCorrection>
          <azimuth>299.3</azimuth>
          <distance>0.3765</distance>
          <takeoffAngle>
            <value>90.0</value>
          </takeoffAngle>
          <timeResidual>0.07</timeResidual>
          <timeWeight>0.07</timeWeight>
          <creationInfo>
            <agencyID>CI</agencyID>
