<?xml version='1.0' encoding='utf-8'?>
<q:quakeml xmlns="http://quakeml.org/xmlns/bed/1.2" xmlns:q="http://quakeml.org/xmlns/quakeml/1.2" xmlns:ns0="http://anss.org/xmlns/catalog/0.1">
  <eventParameters publicID="smi:local/e65fb2b1-2ac8-4c92-8f43-94213bf2272a">
    <event publicID="quakeml:service.scedc.caltech.edu/fdsnws/event/1/query?eventid=40841655" ns0:datasource="ci" ns0:dataid="ci40841655" ns0:eventsource="ci" ns0:eventid="40841655">
      <preferredOriginID>quakeml:service.scedc.caltech.edu/fdsnws/event/1/query?originid=108876940</preferredOriginID>
      <preferredMagnitudeID>quakeml:service.scedc.caltech.edu/fdsnws/event/1/query?magnitudeid=111262924</preferredMagnitudeID>
      <type>earthquake</type>
      <creationInfo>
        <agencyID>CI</agencyID>
        <agencyURI>quakeml:doi.org/10.7909/C3WD3xH1</agencyURI>
        <creationTime>2025-01-17T22:33:31.000000Z</creationTime>
        <version>5</version>
      </creationInfo>
      <origin publicID="quakeml:service.scedc.caltech.edu/fdsnws/event/1/query?originid=108876940" ns0:datasource="ci" ns0:dataid="ci40841655" ns0:eventsource="ci" ns0:eventid="40841655">
        <time>
          <value>2025-01-17T05:11:30.910000Z</value>
        </time>
        <latitude>
          <value>32.6506667</value>
        </latitude>
        <longitude>
          <value>-115.826</value>
        </longitude>
        <depth>
          <value>3410.0</value>
          <uncertainty>340.0</uncertainty>
        </depth>
        <depthType>from location</depthType>
        <timeFixed>false</timeFixed>
        <epicenterFixed>false</epicenterFixed>
        <methodID>smi:ci.anss.org/origin/HYP2000</methodID>
        <quality>
          <associatedPhaseCount>10</associatedPhaseCount>
          <usedPhaseCount>10</usedPhaseCount>
          <associatedStationCount>6</associatedStationCount>
          <usedStationCount>6</usedStationCount>
          <standardError>0.12</standardError>
          <azimuthalGap>100.0</azimuthalGap>
          <secondaryAzimuthalGap>536.0</secondaryAzimuthalGap>
          <minimumDistance>0.08128</minimumDistance>
          <maximumDistance>0.7851</maximumDistance>
          <medianDistance>0.2359</medianDistance>
        </quality>
        <type>hypocenter</type>
        <evaluationMode>manual</evaluationMode>
        <evaluationStatus>final</evaluationStatus>
        <creationInfo>
          <agencyID>CI</agencyID>
          <creationTime>2025-01-17T22:33:31.000000Z</creationTime>
        </creationInfo>
        <originUncertainty>
          <preferredDescription>confidence ellipsoid</preferredDescription>
          <horizontalUncertainty>320.0</horizontalUncertainty>
          <confidenceLevel>95.0</confidenceLevel>
          <confidenceEllipsoid>
            <semiMajorAxisLength>888.0</semiMajorAxisLength>
            <semiMinorAxisLength>504.0</semiMinorAxisLength>
            <semiIntermediateAxisLength>816.0</semiIntermediateAxisLength>
            <majorAxisPlunge>67.0</majorAxisPlunge>
            <majorAxisAzimuth>163.0</majorAxisAzimuth>
            <majorAxisRotation>18.0</majorAxisRotation>
          </confidenceEllipsoid>
        </originUncertainty>
        <arrival publicID="quakeml:service.scedc.caltech.edu/fdsnws/event/1/query?assocaro=424373860">
          <pickID>quakeml:service.scedc.caltech.edu/fdsnws/event/1/query?assocaro=424373860</pickID>
          <phase>P</phase>
          <timeCorrection>0.05</timeCorrection>
          <azimuth>90.9</azimuth>
          <distance>0.08405</distance>
          <takeoffAngle>
            <value>112.0</value>
          </takeoffAngle>
          <timeResidual>-0.05</timeResidual>
          <timeWeight>0.19</timeWeight>
          <creationInfo>
            <agencyID>CI</agencyID>
            <creationTime>2025-01-17T22:33:31.000000Z</creationTime>
          </creationInfo>
        </arrival>
        <arrival publicID="quakeml:service.scedc.caltech.edu/fdsnws/event/1/query?assocaro=424380692">
          <pickID>quakeml:service.scedc.caltech.edu/fdsnws/event/1/query?assocaro=424380692</pickID>
          <phase>P</phase>
          <timeCorrection>-0.06</timeCorrection>
          <azimuth>267.8</azimuth>
          <distance>0.08128</distance>
          <takeoffAngle>
            <value>112.0</value>
          </takeoffAngle>
          <timeResidual>0.08</timeResidual>
          <timeWeight>0.19</timeWeight>
          <creationInfo>
            <agencyID>CI</agencyID>
            <creationTime>2025-01-17T22:33:31.000000Z</creationTime>
          </creationInfo>
        </arrival>
        <arrival publicID="quakeml:service.scedc.caltech.edu/fdsnws/event/1/query?assocaro=424380700">
          <pickID>quakeml:service.scedc.caltech.edu/fdsnws/event/1/query?assocaro=424380700</pickID>
          <phase>S</phase>
          <timeCorrection>-0.27</timeCorrection>
          <azimuth>267.8</azimuth>
          <distance>0.08128</distance>
          <takeoffAngle>
            <value>112.0</value>
          </takeoffAngle>
          <timeResidual>0.0</timeResidual>
          <timeWeight>0.06</timeWeight>
          <creationInfo>
            <agencyID>CI</agencyID>
            <creationTime>2025-01-17T22:33:31.000000Z</creationTime>
          </creationInfo>
        </arrival>
        <arrival publicID="quakeml:service.scedc.caltech.edu/fdsnws/event/1/query?assocaro=424380708">
          <pickID>quakeml:service.scedc.caltech.edu/fdsnws/event/1/query?assocaro=424380708</pickID>
          <phase>S</phase>
          <timeCorrection>-0.06</timeCorrection>
          <azimuth>90.9</azimuth>
          <distance>0.08405</distance>
          <takeoffAngle>
            <value>112.0</value>
          </takeoffAngle>
          <timeResidual>0.23</timeResidual>
          <timeWeight>0.06</timeWeight>
          <creationInfo>
            <agencyID>CI</agencyID>
            <creationTime>2025-01-17T22:33:31.000000Z</creationTime>
          </creationInfo>
        </arrival>
        <arrival publicID="quakeml:service.scedc.caltech.edu/fdsnws/event/1/query?assocaro=424380716">
          <pickID>quakeml:service.scedc.caltech.edu/fdsnws/event/1/query?assocaro=424380716</pickID>
          <phase>S</phase>
          <timeCorrection>0.0</timeCorrection>
          <azimuth>56.4</azimuth>
          <distance>0.2073</distance>
          <takeoffAngle>
            <value>61.0</value>
          </takeoffAngle>
          <timeResidual>0.14</timeResidual>
          <timeWeight>0.06</timeWeight>
          <creationInfo>
            <agencyID>CI</agencyID>
            <creationTime>2025-01-17T22:33:31.000000Z</creationTime>
          </creationInfo>
        </arrival>
        <arrival publicID="quakeml:service.scedc.caltech.edu/fdsnws/event/1/query?assocaro=424380724">
          <pickID>quakeml:service.scedc.caltech.edu/fdsnws/event/1/query?assocaro=424380724</pickID>
          <phase>P</phase>
          <timeCorrection>0.11</timeCorrection>
          <azimuth>333.0</azimuth>
          <distance>0.2646</distance>
          <takeoffAngle>
            <value>60.0</value>
          </takeoffAngle>
          <timeResidual>-0.1</timeResidual>
          <timeWeight>0.12</timeWeight>
          <creationInfo>
            <agencyID>CI</agencyID>
            <creationTime>2025-01-17T22:33:31.000000Z</creationTime>
          </creationInfo>
        </arrival>
        <arrival publicID="quakeml:service.scedc.caltech.edu/fdsnws/event/1/query?assocaro=424380740">
          <pickID>quakeml:service.scedc.caltech.edu/fdsnws/event/1/query?assocaro=424380740</pickID>
          <phase>S</phase>
          <timeCorrection>-0.04</timeCorrection>
          <azimuth>333.0</azimuth>
          <distance>0.2646</distance>
          <takeoffAngle>
            <value>61.0</value>
          </takeoffAngle>
          <timeResidual>0.46</timeResidual>
          <timeWeight>0.06</timeWeight>
          <creationInfo>
            <agencyID>CI</agencyID>
            <creationTime>2025-01-17T22:33:31.000000Z</creationTime>
          </creationInfo>
        </arrival>
        <arrival publicID="quakeml:service.scedc.caltech.edu/fdsnws/event/1/query?assocaro=424380748">
          <pickID>quakeml:service.scedc.caltech.edu/fdsnws/event/1/query?assocaro=424380748</pickID>
          <phase>P</phase>
          <timeCorrection>-0.22</timeCorrection>
          <azimuth>189.1</azimuth>
          <distance>0.6522</distance>
          <takeoffAngle>
            <value>55.0</value>
          </takeoffAngle>
          <timeResidual>-0.06</timeResidual>
          <timeWeight>0.12</timeWeight>
          <creationInfo>
            <agencyID>CI</agencyID>
            <creationTime>2025-01-17T22:33:31.000000Z</creationTime>
          </creationInfo>
        </arrival>
        <arrival publicID="quakeml:service.scedc.caltech.edu/fdsnws/event/1/query?assocaro=424380756">
          <pickID>quakeml:service.scedc.caltech.edu/fdsnws/event/1/query?assocaro=424380756</pickID>
          <phase>S</phase>
          <timeCorrection>-0.25</timeCorrection>
          <azimuth>189.1</azimuth>
          <distance>0.6522</distance>
          <takeoffAngle>
            <value>55.0</value>
          </takeoffAngle>
          <timeResidual>0.3</timeResidual>
          <timeWeight>0.06</timeWeight>
          <creationInfo>
            <agencyID>CI</agencyID>
            <creationTime>2025-01-17T22:33:31.000000Z</creationTime>
          </creationInfo>
        </arrival>
        <arrival publicID="quakeml:service.scedc.caltech.edu/fdsnws/event/1/query?assocaro=424380764">
          <pickID>quakeml:service.scedc.caltech.edu/fdsnws/event/1/query?assocaro=424380764</pickID>
          <phase>S</phase>
          <timeCorrection>0.0</timeCorrection>
          <azimuth>274.1</azimuth>
          <distance>0.7851</distance>
          <takeoffAngle>
            <value>55.0</value>
          </takeoffAngle>
          <timeResidual>-0.29</timeResidual>
          <timeWeight>0.06</timeWeight>
          <creationInfo>
            <agencyID>CI</agencyID>
            <creationTime>2025-01-17T22:33:31.000000Z</creationTime>
          </creationInfo>
        </arrival>
      </origin>
      <magnitude publicID="quakeml:service.scedc.caltech.edu/fdsnws/event/1/query?magnitudeid=111262924">
        <mag>
          <value>0.9</value>
          <uncertainty>0.187</uncertainty>
        </mag>
        <type>Ml</type>
        <originID>quakeml:service.scedc.caltech.edu/fdsnws/event/1/query?originid=108876940</originID>
        <methodID>smi:ci.anss.org/magnitude/CISNml2</methodID>
        <stationCount>4</stationCount>
        <azimuthalGap>117.9</azimuthalGap>
        <evaluationMode>manual</evaluationMode>
        <evaluationStatus>reviewed</evaluationStatus>
        <stationMagnitudeContribution>
          <stationMagnitudeID>quakeml:service.scedc.caltech.edu/fdsnws/event/1/query?assocammid=872435428</stationMagnitudeID>
          <weight>1.0</weight>
          <residual>0.05</residual>
        </stationMagnitudeContribution>
        <stationMagnitudeContribution>
          <stationMagnitudeID>quakeml:service.scedc.caltech.edu/fdsnws/event/1/query?assocammid=872435404</stationMagnitudeID>
          <weight>1.0</weight>
          <residual>0.14</residual>
        </stationMagnitudeContribution>
        <stationMagnitudeContribution>
          <stationMagnitudeID>quakeml:service.scedc.caltech.edu/fdsnws/event/1/query?assocammid=872435388</stationMagnitudeID>
          <weight>1.0</weight>
          <residual>-0.23</residual>
        </stationMagnitudeContribution>
        <stationMagnitudeContribution>
          <stationMagnitudeID>quakeml:service.scedc.caltech.edu/fdsnws/event/1/query?assocammid=872435420</stationMagnitudeID>
          <weight>1.0</weight>
          <residual>-0.36</residual>
        </stationMagnitudeContribution>
        <stationMagnitudeContribution>
          <stationMagnitudeID>quakeml:service.scedc.caltech.edu/fdsnws/event/1/query?assocammid=872435412</stationMagnitudeID>
          <weight>1.0</weight>
          <residual>-0.4</residual>
        </stationMagnitudeContribution>
        <stationMagnitudeContribution>
          <stationMagnitudeID>quakeml:service.scedc.caltech.edu/fdsnws/event/1/query?assocammid=872435396</stationMagnitudeID>
          <weight>1.0</weight>
          <residual>0.28</residual>
        </stationMagnitudeContribution>
        <stationMagnitudeContribution>
          <stationMagnitudeID>quakeml:service.scedc.caltech.edu/fdsnws/event/1/query?assocammid=872435436</stationMagnitudeID>
          <weight>1.0</weight>
          <residual>0.05</residual>
        </stationMagnitudeContribution>
        <stationMagnitudeContribution>
          <stationMagnitudeID>quakeml:service.scedc.caltech.edu/fdsnws/event/1/query?assocammid=872435380</stationMagnitudeID>
          <weight>1.0</weight>
          <residual>-0.04</residual>
        </stationMagnitudeContribution>
        <creationInfo>
          <agencyID>CI</agencyID>
          <creationTime>2025-01-17T22:33:31.000000Z</creationTime>
        </creationInfo>
      </magnitude>
      <stationMagnitude publicID="quakeml:service.scedc.caltech.edu/fdsnws/event/1/query?assocammid=872435380">
        <originID>quakeml:service.scedc.caltech.edu/fdsnws/event/1/query?originid=108876940</originID>
        <mag>
          <value>0.86</value>
        </mag>
        <type>ML</type>
        <amplitudeID>quakeml:service.scedc.caltech.edu/fdsnws/event/1/query?ampid=872435380</amplitudeID>
        <waveformID networkCode="CI" stationCode="YUH2" locationCode="" channelCode="HHN"></waveformID>
      </stationMagnitude>
      <stationMagnitude publicID="quakeml:service.scedc.caltech.edu/fdsnws/event/1/query?assocammid=872435388">
        <originID>quakeml:service.scedc.caltech.edu/fdsnws/event/1/query?originid=108876940</originID>
        <mag>
          <value>0.67</value>
        </mag>
        <type>ML</type>
        <amplitudeID>quakeml:service.scedc.caltech.edu/fdsnws/event/1/query?ampid=872435388</amplitudeID>
        <waveformID networkCode="CI" stationCode="YUH2" locationCode="" channelCode="HHE"></waveformID>
      </stationMagnitude>
      <stationMagnitude publicID="quakeml:service.scedc.caltech.edu/fdsnws/event/1/query?assocammid=872435396">
        <originID>quakeml:service.scedc.caltech.edu/fdsnws/event/1/query?originid=108876940</originID>
        <mag>
          <value>1.18</value>
        </mag>
        <type>ML</type>
        <amplitudeID>quakeml:service.scedc.caltech.edu/fdsnws/event/1/query?ampid=872435396</amplitudeID>
        <waveformID networkCode="CI" stationCode="SGL" locationCode="" channelCode="HHN"></waveformID>
      </stationMagnitude>
      <stationMagnitude publicID="quakeml:service.scedc.caltech.edu/fdsnws/event/1/query?assocammid=872435404">
        <originID>quakeml:service.scedc.caltech.edu/fdsnws/event/1/query?originid=108876940</originID>
        <mag>
          <value>1.04</value>
        </mag>
        <type>ML</type>
        <amplitudeID>quakeml:service.scedc.caltech.edu/fdsnws/event/1/query?ampid=872435404</amplitudeID>
        <waveformID networkCode="CI" stationCode="SGL" locationCode="" channelCode="HHE"></waveformID>
      </stationMagnitude>
      <stationMagnitude publicID="quakeml:service.scedc.caltech.edu/fdsnws/event/1/query?assocammid=872435412">
        <originID>quakeml:service.scedc.caltech.edu/fdsnws/event/1/query?originid=108876940</originID>
        <mag>
          <value>0.5</value>
        </mag>
        <type>ML</type>
        <amplitudeID>quakeml:service.scedc.caltech.edu/fdsnws/event/1/query?ampid=872435412</amplitudeID>
        <waveformID networkCode="CI" stationCode="CRR" locationCode="" channelCode="HHN"></waveformID>
      </stationMagnitude>
      <stationMagnitude publicID="quakeml:service.scedc.caltech.edu/fdsnws/event/1/query?assocammid=872435420">
        <originID>quakeml:service.scedc.caltech.edu/fdsnws/event/1/query?originid=108876940</originID>
        <mag>
          <value>0.54</value>
        </mag>
        <type>ML</type>
        <amplitudeID>quakeml:service.scedc.caltech.edu/fdsnws/event/1/query?ampid=872435420</amplitudeID>
        <waveformID networkCode="CI" stationCode="CRR" locationCode="" channelCode="HHE"></waveformID>
      </stationMagnitude>
      <stationMagnitude publicID="quakeml:service.scedc.caltech.edu/fdsnws/event/1/query?assocammid=872435428">
        <originID>quakeml:service.scedc.caltech.edu/fdsnws/event/1/query?originid=108876940</originID>
        <mag>
          <value>0.95</value>
        </mag>
        <type>ML</type>
        <amplitudeID>quakeml:service.scedc.caltech.edu/fdsnws/event/1/query?ampid=872435428</amplitudeID>
        <waveformID networkCode="BC" stationCode="SJX" locationCode="" channelCode="HHN"></waveformID>
      </stationMagnitude>
      <stationMagnitude publicID="quakeml:service.scedc.caltech.edu/fdsnws/event/1/query?assocammid=872435436">
        <originID>quakeml:service.scedc.caltech.edu/fdsnws/event/1/query?originid=108876940</originID>
        <mag>
          <value>0.95</value>
        </mag>
        <type>ML</type>
        <amplitudeID>quakeml:service.scedc.caltech.edu/fdsnws/event/1/query?ampid=872435436</amplitudeID>
        <waveformID networkCode="BC" stationCode="SJX" locationCode="" channelCode="HHE"></waveformID>
      </stationMagnitude>
      <pick publicID="quakeml:service.scedc.caltech.edu/fdsnws/event/1/query?assocaro=424373860">
        <time>
          <value>2025-01-17T05:11:32.880000Z</value>
          <uncertainty>0.06</uncertainty>
        </time>
        <waveformID networkCode="CI" stationCode="SGL" locationCode="" channelCode="HHZ"></waveformID>
        <onset>impulsive</onset>
        <phaseHint>P</phaseHint>
        <polarity>positive</polarity>
        <evaluationMode>manual</evaluationMode>
        <evaluationStatus>reviewed</evaluationStatus>
        <creationInfo>
          <agencyID>CI</agencyID>
          <creationTime>2025-01-17T19:24:16.000000Z</creationTime>
        </creationInfo>
      </pick>
      <pick publicID="quakeml:service.scedc.caltech.edu/fdsnws/event/1/query?assocaro=424380692">
        <time>
          <value>2025-01-17T05:11:32.840000Z</value>
          <uncertainty>0.06</uncertainty>
        </time>
        <waveformID networkCode="CI" stationCode="YUH2" locationCode="" channelCode="HHZ"></waveformID>
        <onset>impulsive</onset>
        <phaseHint>P</phaseHint>
        <polarity>positive</polarity>
        <evaluationMode>manual</evaluationMode>
        <evaluationStatus>reviewed</evaluationStatus>
        <creationInfo>
          <agencyID>CI</agencyID>
          <creationTime>2025-01-17T22:32:17.000000Z</creationTime>
        </creationInfo>
      </pick>
      <pick publicID="quakeml:service.scedc.caltech.edu/fdsnws/event/1/query?assocaro=424380700">
        <time>
          <value>2025-01-17T05:11:33.910000Z</value>
          <uncertainty>0.15</uncertainty>
        </time>
        <waveformID networkCode="CI" stationCode="YUH2" locationCode="" channelCode="HHN"></waveformID>
        <onset>emergent</onset>
        <phaseHint>S</phaseHint>
        <polarity>undecidable</polarity>
        <evaluationMode>manual</evaluationMode>
        <evaluationStatus>reviewed</evaluationStatus>
        <creationInfo>
          <agencyID>CI</agencyID>
          <creationTime>2025-01-17T22:32:17.000000Z</creationTime>
        </creationInfo>
      </pick>
      <pick publicID="quakeml:service.scedc.caltech.edu/fdsnws/event/1/query?assocaro=424380708">
        <time>
          <value>2025-01-17T05:11:34.440000Z</value>
          <uncertainty>0.15</uncertainty>
        </time>
        <waveformID networkCode="CI" stationCode="SGL" locationCode="" channelCode="HHN"></waveformID>
        <onset>emergent</onset>
        <phaseHint>S</phaseHint>
        <polarity>undecidable</polarity>
        <evaluationMode>manual</evaluationMode>
        <evaluationStatus>reviewed</evaluationStatus>
        <creationInfo>
