<?xml version='1.0' encoding='utf-8'?>
<q:quakeml xmlns="http://quakeml.org/xmlns/bed/1.2" xmlns:q="http://quakeml.org/xmlns/quakeml/1.2" xmlns:ns0="http://anss.org/xmlns/catalog/0.1">
  <eventParameters publicID="smi:local/afe60407-d903-48c5-9426-d57ceaec55d8">
    <event publicID="quakeml:service.scedc.caltech.edu/fdsnws/event/1/query?eventid=40835143" ns0:datasource="ci" ns0:dataid="ci40835143" ns0:eventsource="ci" ns0:eventid="40835143">
      <preferredOriginID>quakeml:service.scedc.caltech.edu/fdsnws/event/1/query?originid=108873308</preferredOriginID>
      <preferredMagnitudeID>quakeml:service.scedc.caltech.edu/fdsnws/event/1/query?magnitudeid=111259188</preferredMagnitudeID>
      <type>earthquake</type>
      <creationInfo>
        <agencyID>CI</agencyID>
        <agencyURI>quakeml:doi.org/10.7909/C3WD3xH1</agencyURI>
        <creationTime>2025-01-07T15:56:56.000000Z</creationTime>
        <version>7</version>
      </creationInfo>
      <origin publicID="quakeml:service.scedc.caltech.edu/fdsnws/event/1/query?originid=108873308" ns0:datasource="ci" ns0:dataid="ci40835143" ns0:eventsource="ci" ns0:eventid="40835143">
        <time>
          <value>2025-01-07T02:28:26.810000Z</value>
        </time>
        <latitude>
          <value>33.8046667</value>
        </latitude>
        <longitude>
          <value>-117.6438333</value>
        </longitude>
        <depth>
          <value>8270.0</value>
          <uncertainty>660.0</uncertainty>
        </depth>
        <depthType>from location</depthType>
        <timeFixed>false</timeFixed>
        <epicenterFixed>false</epicenterFixed>
        <methodID>smi:ci.anss.org/origin/HYP2000</methodID>
        <quality>
          <associatedPhaseCount>34</associatedPhaseCount>
          <usedPhaseCount>34</usedPhaseCount>
          <associatedStationCount>22</associatedStationCount>
          <usedStationCount>22</usedStationCount>
          <standardError>0.18</standardError>
          <azimuthalGap>65.0</azimuthalGap>
          <secondaryAzimuthalGap>369.0</secondaryAzimuthalGap>
          <minimumDistance>0.03043</minimumDistance>
          <maximumDistance>0.7927</maximumDistance>
          <medianDistance>0.4134</medianDistance>
        </quality>
        <type>hypocenter</type>
        <evaluationMode>manual</evaluationMode>
        <evaluationStatus>final</evaluationStatus>
        <creationInfo>
          <agencyID>CI</agencyID>
          <creationTime>2025-01-07T15:56:56.000000Z</creationTime>
        </creationInfo>
        <originUncertainty>
          <preferredDescription>confidence ellipsoid</preferredDescription>
          <horizontalUncertainty>330.0</horizontalUncertainty>
          <confidenceLevel>95.0</confidenceLevel>
          <confidenceEllipsoid>
            <semiMajorAxisLength>1608.0</semiMajorAxisLength>
            <semiMinorAxisLength>528.0</semiMinorAxisLength>
            <semiIntermediateAxisLength>792.0</semiIntermediateAxisLength>
            <majorAxisPlunge>80.0</majorAxisPlunge>
            <majorAxisAzimuth>271.0</majorAxisAzimuth>
            <majorAxisRotation>327.0</majorAxisRotation>
          </confidenceEllipsoid>
        </originUncertainty>
        <arrival publicID="quakeml:service.scedc.caltech.edu/fdsnws/event/1/query?assocaro=424258484">
          <pickID>quakeml:service.scedc.caltech.edu/fdsnws/event/1/query?assocaro=424258484</pickID>
          <phase>P</phase>
          <timeCorrection>-0.06</timeCorrection>
          <azimuth>108.0</azimuth>
          <distance>0.03043</distance>
          <takeoffAngle>
            <value>156.0</value>
          </takeoffAngle>
          <timeResidual>-0.05</timeResidual>
          <timeWeight>0.13</timeWeight>
          <creationInfo>
            <agencyID>CI</agencyID>
            <creationTime>2025-01-07T15:56:56.000000Z</creationTime>
          </creationInfo>
        </arrival>
        <arrival publicID="quakeml:service.scedc.caltech.edu/fdsnws/event/1/query?assocaro=424258492">
          <pickID>quakeml:service.scedc.caltech.edu/fdsnws/event/1/query?assocaro=424258492</pickID>
          <phase>S</phase>
          <timeCorrection>-0.25</timeCorrection>
          <azimuth>108.0</azimuth>
          <distance>0.03043</distance>
          <takeoffAngle>
            <value>156.0</value>
          </takeoffAngle>
          <timeResidual>0.18</timeResidual>
          <timeWeight>0.07</timeWeight>
          <creationInfo>
            <agencyID>CI</agencyID>
            <creationTime>2025-01-07T15:56:56.000000Z</creationTime>
          </creationInfo>
        </arrival>
        <arrival publicID="quakeml:service.scedc.caltech.edu/fdsnws/event/1/query?assocaro=424258500">
          <pickID>quakeml:service.scedc.caltech.edu/fdsnws/event/1/query?assocaro=424258500</pickID>
          <phase>S</phase>
          <timeCorrection>0.0</timeCorrection>
          <azimuth>342.7</azimuth>
          <distance>0.111</distance>
          <takeoffAngle>
            <value>116.0</value>
          </takeoffAngle>
          <timeResidual>0.56</timeResidual>
          <timeWeight>0.07</timeWeight>
          <creationInfo>
            <agencyID>CI</agencyID>
            <creationTime>2025-01-07T15:56:56.000000Z</creationTime>
          </creationInfo>
        </arrival>
        <arrival publicID="quakeml:service.scedc.caltech.edu/fdsnws/event/1/query?assocaro=424258508">
          <pickID>quakeml:service.scedc.caltech.edu/fdsnws/event/1/query?assocaro=424258508</pickID>
          <phase>P</phase>
          <timeCorrection>0.0</timeCorrection>
          <azimuth>342.7</azimuth>
          <distance>0.111</distance>
          <takeoffAngle>
            <value>117.0</value>
          </takeoffAngle>
          <timeResidual>0.18</timeResidual>
          <timeWeight>0.13</timeWeight>
          <creationInfo>
            <agencyID>CI</agencyID>
            <creationTime>2025-01-07T15:56:56.000000Z</creationTime>
          </creationInfo>
        </arrival>
        <arrival publicID="quakeml:service.scedc.caltech.edu/fdsnws/event/1/query?assocaro=424258516">
          <pickID>quakeml:service.scedc.caltech.edu/fdsnws/event/1/query?assocaro=424258516</pickID>
          <phase>P</phase>
          <timeCorrection>0.0</timeCorrection>
          <azimuth>231.3</azimuth>
          <distance>0.1143</distance>
          <takeoffAngle>
            <value>115.0</value>
          </takeoffAngle>
          <timeResidual>-0.18</timeResidual>
          <timeWeight>0.13</timeWeight>
          <creationInfo>
            <agencyID>CI</agencyID>
            <creationTime>2025-01-07T15:56:56.000000Z</creationTime>
          </creationInfo>
        </arrival>
        <arrival publicID="quakeml:service.scedc.caltech.edu/fdsnws/event/1/query?assocaro=424258524">
          <pickID>quakeml:service.scedc.caltech.edu/fdsnws/event/1/query?assocaro=424258524</pickID>
          <phase>P</phase>
          <timeCorrection>0.0</timeCorrection>
          <azimuth>10.5</azimuth>
          <distance>0.1211</distance>
          <takeoffAngle>
            <value>114.0</value>
          </takeoffAngle>
          <timeResidual>-0.12</timeResidual>
          <timeWeight>0.13</timeWeight>
          <creationInfo>
            <agencyID>CI</agencyID>
            <creationTime>2025-01-07T15:56:56.000000Z</creationTime>
          </creationInfo>
        </arrival>
        <arrival publicID="quakeml:service.scedc.caltech.edu/fdsnws/event/1/query?assocaro=424258532">
          <pickID>quakeml:service.scedc.caltech.edu/fdsnws/event/1/query?assocaro=424258532</pickID>
          <phase>S</phase>
          <timeCorrection>0.0</timeCorrection>
          <azimuth>10.5</azimuth>
          <distance>0.1211</distance>
          <takeoffAngle>
            <value>113.0</value>
          </takeoffAngle>
          <timeResidual>-0.27</timeResidual>
          <timeWeight>0.07</timeWeight>
          <creationInfo>
            <agencyID>CI</agencyID>
            <creationTime>2025-01-07T15:56:56.000000Z</creationTime>
          </creationInfo>
        </arrival>
        <arrival publicID="quakeml:service.scedc.caltech.edu/fdsnws/event/1/query?assocaro=424258540">
          <pickID>quakeml:service.scedc.caltech.edu/fdsnws/event/1/query?assocaro=424258540</pickID>
          <phase>S</phase>
          <timeCorrection>0.17</timeCorrection>
          <azimuth>281.1</azimuth>
          <distance>0.1235</distance>
          <takeoffAngle>
            <value>113.0</value>
          </takeoffAngle>
          <timeResidual>-0.25</timeResidual>
          <timeWeight>0.07</timeWeight>
          <creationInfo>
            <agencyID>CI</agencyID>
            <creationTime>2025-01-07T15:56:56.000000Z</creationTime>
          </creationInfo>
        </arrival>
        <arrival publicID="quakeml:service.scedc.caltech.edu/fdsnws/event/1/query?assocaro=424258548">
          <pickID>quakeml:service.scedc.caltech.edu/fdsnws/event/1/query?assocaro=424258548</pickID>
          <phase>P</phase>
          <timeCorrection>-0.02</timeCorrection>
          <azimuth>167.6</azimuth>
          <distance>0.1332</distance>
          <takeoffAngle>
            <value>111.0</value>
          </takeoffAngle>
          <timeResidual>0.09</timeResidual>
          <timeWeight>0.13</timeWeight>
          <creationInfo>
            <agencyID>CI</agencyID>
            <creationTime>2025-01-07T15:56:56.000000Z</creationTime>
          </creationInfo>
        </arrival>
        <arrival publicID="quakeml:service.scedc.caltech.edu/fdsnws/event/1/query?assocaro=424258556">
          <pickID>quakeml:service.scedc.caltech.edu/fdsnws/event/1/query?assocaro=424258556</pickID>
          <phase>S</phase>
          <timeCorrection>-0.03</timeCorrection>
          <azimuth>167.6</azimuth>
          <distance>0.1332</distance>
          <takeoffAngle>
            <value>110.0</value>
          </takeoffAngle>
          <timeResidual>0.15</timeResidual>
          <timeWeight>0.07</timeWeight>
          <creationInfo>
            <agencyID>CI</agencyID>
            <creationTime>2025-01-07T15:56:56.000000Z</creationTime>
          </creationInfo>
        </arrival>
        <arrival publicID="quakeml:service.scedc.caltech.edu/fdsnws/event/1/query?assocaro=424258564">
          <pickID>quakeml:service.scedc.caltech.edu/fdsnws/event/1/query?assocaro=424258564</pickID>
          <phase>P</phase>
          <timeCorrection>-0.16</timeCorrection>
          <azimuth>85.5</azimuth>
          <distance>0.166</distance>
          <takeoffAngle>
            <value>104.0</value>
          </takeoffAngle>
          <timeResidual>0.05</timeResidual>
          <timeWeight>0.13</timeWeight>
          <creationInfo>
            <agencyID>CI</agencyID>
            <creationTime>2025-01-07T15:56:56.000000Z</creationTime>
          </creationInfo>
        </arrival>
        <arrival publicID="quakeml:service.scedc.caltech.edu/fdsnws/event/1/query?assocaro=424258572">
          <pickID>quakeml:service.scedc.caltech.edu/fdsnws/event/1/query?assocaro=424258572</pickID>
          <phase>S</phase>
          <timeCorrection>-0.31</timeCorrection>
          <azimuth>85.5</azimuth>
          <distance>0.166</distance>
          <takeoffAngle>
            <value>104.0</value>
          </takeoffAngle>
          <timeResidual>0.2</timeResidual>
          <timeWeight>0.07</timeWeight>
          <creationInfo>
            <agencyID>CI</agencyID>
            <creationTime>2025-01-07T15:56:56.000000Z</creationTime>
          </creationInfo>
        </arrival>
        <arrival publicID="quakeml:service.scedc.caltech.edu/fdsnws/event/1/query?assocaro=424258580">
          <pickID>quakeml:service.scedc.caltech.edu/fdsnws/event/1/query?assocaro=424258580</pickID>
          <phase>P</phase>
          <timeCorrection>0.0</timeCorrection>
          <azimuth>64.2</azimuth>
          <distance>0.2114</distance>
          <takeoffAngle>
            <value>98.0</value>
          </takeoffAngle>
          <timeResidual>-0.13</timeResidual>
          <timeWeight>0.13</timeWeight>
          <creationInfo>
            <agencyID>CI</agencyID>
            <creationTime>2025-01-07T15:56:56.000000Z</creationTime>
          </creationInfo>
        </arrival>
        <arrival publicID="quakeml:service.scedc.caltech.edu/fdsnws/event/1/query?assocaro=424258588">
          <pickID>quakeml:service.scedc.caltech.edu/fdsnws/event/1/query?assocaro=424258588</pickID>
          <phase>S</phase>
          <timeCorrection>0.0</timeCorrection>
          <azimuth>64.2</azimuth>
          <distance>0.2114</distance>
          <takeoffAngle>
            <value>98.0</value>
          </takeoffAngle>
          <timeResidual>-0.02</timeResidual>
          <timeWeight>0.07</timeWeight>
          <creationInfo>
            <agencyID>CI</agencyID>
            <creationTime>2025-01-07T15:56:56.000000Z</creationTime>
          </creationInfo>
        </arrival>
        <arrival publicID="quakeml:service.scedc.caltech.edu/fdsnws/event/1/query?assocaro=424258596">
          <pickID>quakeml:service.scedc.caltech.edu/fdsnws/event/1/query?assocaro=424258596</pickID>
          <phase>S</phase>
          <timeCorrection>-0.26</timeCorrection>
          <azimuth>106.0</azimuth>
          <distance>0.2188</distance>
          <takeoffAngle>
            <value>97.0</value>
          </takeoffAngle>
          <timeResidual>0.11</timeResidual>
          <timeWeight>0.07</timeWeight>
          <creationInfo>
            <agencyID>CI</agencyID>
            <creationTime>2025-01-07T15:56:56.000000Z</creationTime>
          </creationInfo>
        </arrival>
        <arrival publicID="quakeml:service.scedc.caltech.edu/fdsnws/event/1/query?assocaro=424258604">
          <pickID>quakeml:service.scedc.caltech.edu/fdsnws/event/1/query?assocaro=424258604</pickID>
          <phase>P</phase>
          <timeCorrection>-0.16</timeCorrection>
          <azimuth>106.0</azimuth>
          <distance>0.2188</distance>
          <takeoffAngle>
            <value>97.0</value>
          </takeoffAngle>
          <timeResidual>0.21</timeResidual>
          <timeWeight>0.13</timeWeight>
          <creationInfo>
            <agencyID>CI</agencyID>
            <creationTime>2025-01-07T15:56:56.000000Z</creationTime>
          </creationInfo>
        </arrival>
        <arrival publicID="quakeml:service.scedc.caltech.edu/fdsnws/event/1/query?assocaro=424258612">
          <pickID>quakeml:service.scedc.caltech.edu/fdsnws/event/1/query?assocaro=424258612</pickID>
          <phase>P</phase>
          <timeCorrection>0.0</timeCorrection>
          <azimuth>34.6</azimuth>
          <distance>0.275</distance>
          <takeoffAngle>
            <value>94.0</value>
          </takeoffAngle>
          <timeResidual>-0.21</timeResidual>
          <timeWeight>0.13</timeWeight>
          <creationInfo>
            <agencyID>CI</agencyID>
            <creationTime>2025-01-07T15:56:56.000000Z</creationTime>
          </creationInfo>
        </arrival>
        <arrival publicID="quakeml:service.scedc.caltech.edu/fdsnws/event/1/query?assocaro=424258620">
          <pickID>quakeml:service.scedc.caltech.edu/fdsnws/event/1/query?assocaro=424258620</pickID>
          <phase>S</phase>
          <timeCorrection>0.0</timeCorrection>
          <azimuth>34.6</azimuth>
          <distance>0.275</distance>
          <takeoffAngle>
            <value>94.0</value>
          </takeoffAngle>
          <timeResidual>-0.35</timeResidual>
          <timeWeight>0.07</timeWeight>
          <creationInfo>
            <agencyID>CI</agencyID>
            <creationTime>2025-01-07T15:56:56.000000Z</creationTime>
          </creationInfo>
        </arrival>
        <arrival publicID="quakeml:service.scedc.caltech.edu/fdsnws/event/1/query?assocaro=424258628">
          <pickID>quakeml:service.scedc.caltech.edu/fdsnws/event/1/query?assocaro=424258628</pickID>
          <phase>P</phase>
          <timeCorrection>-0.05</timeCorrection>
          <azimuth>332.7</azimuth>
          <distance>0.4073</distance>
          <takeoffAngle>
            <value>91.0</value>
          </takeoffAngle>
          <timeResidual>0.25</timeResidual>
          <timeWeight>0.13</timeWeight>
          <creationInfo>
            <agencyID>CI</agencyID>
            <creationTime>2025-01-07T15:56:56.000000Z</creationTime>
          </creationInfo>
        </arrival>
        <arrival publicID="quakeml:service.scedc.caltech.edu/fdsnws/event/1/query?assocaro=424258636">
          <pickID>quakeml:service.scedc.caltech.edu/fdsnws/event/1/query?assocaro=424258636</pickID>
          <phase>S</phase>
          <timeCorrection>0.0</timeCorrection>
          <azimuth>16.5</azimuth>
          <distance>0.4195</distance>
          <takeoffAngle>
            <value>91.0</value>
          </takeoffAngle>
          <timeResidual>-0.36</timeResidual>
          <timeWeight>0.07</timeWeight>
          <creationInfo>
            <agencyID>CI</agencyID>
            <creationTime>2025-01-07T15:56:56.000000Z</creationTime>
          </creationInfo>
        </arrival>
        <arrival publicID="quakeml:service.scedc.caltech.edu/fdsnws/event/1/query?assocaro=424258644">
          <pickID>quakeml:service.scedc.caltech.edu/fdsnws/event/1/query?assocaro=424258644</pickID>
          <phase>S</phase>
          <timeCorrection>-0.25</timeCorrection>
          <azimuth>118.6</azimuth>
          <distance>0.4259</distance>
          <takeoffAngle>
            <value>91.0</value>
          </takeoffAngle>
          <timeResidual>0.44</timeResidual>
          <timeWeight>0.07</timeWeight>
          <creationInfo>
            <agencyID>CI</agencyID>
            <creationTime>2025-01-07T15:56:56.000000Z</creationTime>
          </creationInfo>
        </arrival>
        <arrival publicID="quakeml:service.scedc.caltech.edu/fdsnws/event/1/query?assocaro=424258652">
          <pickID>quakeml:service.scedc.caltech.edu/fdsnws/event/1/query?assocaro=424258652</pickID>
          <phase>P</phase>
          <timeCorrection>0.0</timeCorrection>
          <azimuth>149.7</azimuth>
          <distance>0.437</distance>
          <takeoffAngle>
            <value>91.0</value>
          </takeoffAngle>
          <timeResidual>-0.03</timeResidual>
          <timeWeight>0.13</timeWeight>
          <creationInfo>
            <agencyID>CI</agencyID>
            <creationTime>2025-01-07T15:56:56.000000Z</creationTime>
          </creationInfo>
        </arrival>
        <arrival publicID="quakeml:service.scedc.caltech.edu/fdsnws/event/1/query?assocaro=424258660">
          <pickID>quakeml:service.scedc.caltech.edu/fdsnws/event/1/query?assocaro=424258660</pickID>
          <phase>S</phase>
          <timeCorrection>0.0</timeCorrection>
          <azimuth>149.7</azimuth>
          <distance>0.437</distance>
          <takeoffAngle>
            <value>91.0</value>
          </takeoffAngle>
          <timeResidual>0.13</timeResidual>
          <timeWeight>0.07</timeWeight>
          <creationInfo>
            <agencyID>CI</agencyID>
            <creationTime>2025-01-07T15:56:56.000000Z</creationTime>
          </creationInfo>
        </arrival>
        <arrival publicID="quakeml:service.scedc.caltech.edu/fdsnws/event/1/query?assocaro=424258668">
          <pickID>quakeml:service.scedc.caltech.edu/fdsnws/event/1/query?assocaro=424258668</pickID>
          <phase>P</phase>
          <timeCorrection>-0.2</timeCorrection>
          <azimuth>131.2</azimuth>
          <distance>0.5249</distance>
          <takeoffAngle>
            <value>91.0</value>
          </takeoffAngle>
          <timeResidual>0.04</timeResidual>
          <timeWeight>0.13</timeWeight>
          <creationInfo>
            <agencyID>CI</agencyID>
            <creationTime>2025-01-07T15:56:56.000000Z</creationTime>
          </creationInfo>
        </arrival>
        <arrival publicID="quakeml:service.scedc.caltech.edu/fdsnws/event/1/query?assocaro=424258676">
