<?xml version='1.0' encoding='utf-8'?>
<q:quakeml xmlns="http://quakeml.org/xmlns/bed/1.2" xmlns:q="http://quakeml.org/xmlns/quakeml/1.2" xmlns:ns0="http://anss.org/xmlns/catalog/0.1">
  <eventParameters publicID="smi:local/2b6a2b21-e04e-4414-ba81-08840e53e488">
    <event publicID="quakeml:service.scedc.caltech.edu/fdsnws/event/1/query?eventid=40840127" ns0:datasource="ci" ns0:dataid="ci40840127" ns0:eventsource="ci" ns0:eventid="40840127">
      <preferredOriginID>quakeml:service.scedc.caltech.edu/fdsnws/event/1/query?originid=108876148</preferredOriginID>
      <preferredMagnitudeID>quakeml:service.scedc.caltech.edu/fdsnws/event/1/query?magnitudeid=111262092</preferredMagnitudeID>
      <type>earthquake</type>
      <creationInfo>
        <agencyID>CI</agencyID>
        <agencyURI>quakeml:doi.org/10.7909/C3WD3xH1</agencyURI>
        <creationTime>2025-01-15T21:10:39.000000Z</creationTime>
        <version>8</version>
      </creationInfo>
      <origin publicID="quakeml:service.scedc.caltech.edu/fdsnws/event/1/query?originid=108876148" ns0:datasource="ci" ns0:dataid="ci40840127" ns0:eventsource="ci" ns0:eventid="40840127">
        <time>
          <value>2025-01-15T15:18:55.210000Z</value>
        </time>
        <latitude>
          <value>33.0421667</value>
        </latitude>
        <longitude>
          <value>-116.3046667</value>
        </longitude>
        <depth>
          <value>9320.0</value>
          <uncertainty>480.0</uncertainty>
        </depth>
        <depthType>from location</depthType>
        <timeFixed>false</timeFixed>
        <epicenterFixed>false</epicenterFixed>
        <methodID>smi:ci.anss.org/origin/HYP2000</methodID>
        <quality>
          <associatedPhaseCount>111</associatedPhaseCount>
          <usedPhaseCount>111</usedPhaseCount>
          <associatedStationCount>60</associatedStationCount>
          <usedStationCount>60</usedStationCount>
          <standardError>0.18</standardError>
          <azimuthalGap>47.0</azimuthalGap>
          <secondaryAzimuthalGap>471.0</secondaryAzimuthalGap>
          <minimumDistance>0.08733</minimumDistance>
          <maximumDistance>0.9063</maximumDistance>
          <medianDistance>0.5493</medianDistance>
        </quality>
        <type>hypocenter</type>
        <evaluationMode>manual</evaluationMode>
        <evaluationStatus>final</evaluationStatus>
        <creationInfo>
          <agencyID>CI</agencyID>
          <creationTime>2025-01-15T21:10:39.000000Z</creationTime>
        </creationInfo>
        <originUncertainty>
          <preferredDescription>confidence ellipsoid</preferredDescription>
          <horizontalUncertainty>150.0</horizontalUncertainty>
          <confidenceLevel>95.0</confidenceLevel>
          <confidenceEllipsoid>
            <semiMajorAxisLength>1152.0</semiMajorAxisLength>
            <semiMinorAxisLength>312.0</semiMinorAxisLength>
            <semiIntermediateAxisLength>360.0</semiIntermediateAxisLength>
            <majorAxisPlunge>83.0</majorAxisPlunge>
            <majorAxisAzimuth>125.0</majorAxisAzimuth>
            <majorAxisRotation>331.0</majorAxisRotation>
          </confidenceEllipsoid>
        </originUncertainty>
        <arrival publicID="quakeml:service.scedc.caltech.edu/fdsnws/event/1/query?assocaro=144639663">
          <pickID>quakeml:service.scedc.caltech.edu/fdsnws/event/1/query?assocaro=144639663</pickID>
          <phase>S</phase>
          <timeCorrection>-0.36</timeCorrection>
          <azimuth>321.4</azimuth>
          <distance>0.8259</distance>
          <takeoffAngle>
            <value>77.0</value>
          </takeoffAngle>
          <timeResidual>0.5</timeResidual>
          <timeWeight>0.08</timeWeight>
          <creationInfo>
            <agencyID>CI</agencyID>
            <creationTime>2025-01-15T21:10:39.000000Z</creationTime>
          </creationInfo>
        </arrival>
        <arrival publicID="quakeml:service.scedc.caltech.edu/fdsnws/event/1/query?assocaro=144639671">
          <pickID>quakeml:service.scedc.caltech.edu/fdsnws/event/1/query?assocaro=144639671</pickID>
          <phase>P</phase>
          <timeCorrection>-0.12</timeCorrection>
          <azimuth>321.4</azimuth>
          <distance>0.8259</distance>
          <takeoffAngle>
            <value>77.0</value>
          </takeoffAngle>
          <timeResidual>0.42</timeResidual>
          <timeWeight>0.1</timeWeight>
          <creationInfo>
            <agencyID>CI</agencyID>
            <creationTime>2025-01-15T21:10:39.000000Z</creationTime>
          </creationInfo>
        </arrival>
        <arrival publicID="quakeml:service.scedc.caltech.edu/fdsnws/event/1/query?assocaro=266412885">
          <pickID>quakeml:service.scedc.caltech.edu/fdsnws/event/1/query?assocaro=266412885</pickID>
          <phase>P</phase>
          <timeCorrection>0.0</timeCorrection>
          <azimuth>179.3</azimuth>
          <distance>0.08733</distance>
          <takeoffAngle>
            <value>129.0</value>
          </takeoffAngle>
          <timeResidual>-0.06</timeResidual>
          <timeWeight>0.22</timeWeight>
          <creationInfo>
            <agencyID>CI</agencyID>
            <creationTime>2025-01-15T21:10:39.000000Z</creationTime>
          </creationInfo>
        </arrival>
        <arrival publicID="quakeml:service.scedc.caltech.edu/fdsnws/event/1/query?assocaro=266412901">
          <pickID>quakeml:service.scedc.caltech.edu/fdsnws/event/1/query?assocaro=266412901</pickID>
          <phase>P</phase>
          <timeCorrection>0.0</timeCorrection>
          <azimuth>231.7</azimuth>
          <distance>0.1134</distance>
          <takeoffAngle>
            <value>121.0</value>
          </takeoffAngle>
          <timeResidual>0.11</timeResidual>
          <timeWeight>0.22</timeWeight>
          <creationInfo>
            <agencyID>CI</agencyID>
            <creationTime>2025-01-15T21:10:39.000000Z</creationTime>
          </creationInfo>
        </arrival>
        <arrival publicID="quakeml:service.scedc.caltech.edu/fdsnws/event/1/query?assocaro=266412933">
          <pickID>quakeml:service.scedc.caltech.edu/fdsnws/event/1/query?assocaro=266412933</pickID>
          <phase>P</phase>
          <timeCorrection>0.07</timeCorrection>
          <azimuth>15.7</azimuth>
          <distance>0.156</distance>
          <takeoffAngle>
            <value>111.0</value>
          </takeoffAngle>
          <timeResidual>-0.15</timeResidual>
          <timeWeight>0.22</timeWeight>
          <creationInfo>
            <agencyID>CI</agencyID>
            <creationTime>2025-01-15T21:10:39.000000Z</creationTime>
          </creationInfo>
        </arrival>
        <arrival publicID="quakeml:service.scedc.caltech.edu/fdsnws/event/1/query?assocaro=266412949">
          <pickID>quakeml:service.scedc.caltech.edu/fdsnws/event/1/query?assocaro=266412949</pickID>
          <phase>P</phase>
          <timeCorrection>0.0</timeCorrection>
          <azimuth>45.2</azimuth>
          <distance>0.1612</distance>
          <takeoffAngle>
            <value>110.0</value>
          </takeoffAngle>
          <timeResidual>-0.13</timeResidual>
          <timeWeight>0.22</timeWeight>
          <creationInfo>
            <agencyID>CI</agencyID>
            <creationTime>2025-01-15T21:10:39.000000Z</creationTime>
          </creationInfo>
        </arrival>
        <arrival publicID="quakeml:service.scedc.caltech.edu/fdsnws/event/1/query?assocaro=266412965">
          <pickID>quakeml:service.scedc.caltech.edu/fdsnws/event/1/query?assocaro=266412965</pickID>
          <phase>P</phase>
          <timeCorrection>-0.07</timeCorrection>
          <azimuth>337.4</azimuth>
          <distance>0.2444</distance>
          <takeoffAngle>
            <value>100.0</value>
          </takeoffAngle>
          <timeResidual>-0.2</timeResidual>
          <timeWeight>0.22</timeWeight>
          <creationInfo>
            <agencyID>CI</agencyID>
            <creationTime>2025-01-15T21:10:39.000000Z</creationTime>
          </creationInfo>
        </arrival>
        <arrival publicID="quakeml:service.scedc.caltech.edu/fdsnws/event/1/query?assocaro=266412997">
          <pickID>quakeml:service.scedc.caltech.edu/fdsnws/event/1/query?assocaro=266412997</pickID>
          <phase>P</phase>
          <timeCorrection>-0.07</timeCorrection>
          <azimuth>279.1</azimuth>
          <distance>0.249</distance>
          <takeoffAngle>
            <value>100.0</value>
          </takeoffAngle>
          <timeResidual>0.17</timeResidual>
          <timeWeight>0.22</timeWeight>
          <creationInfo>
            <agencyID>CI</agencyID>
            <creationTime>2025-01-15T21:10:39.000000Z</creationTime>
          </creationInfo>
        </arrival>
        <arrival publicID="quakeml:service.scedc.caltech.edu/fdsnws/event/1/query?assocaro=266413021">
          <pickID>quakeml:service.scedc.caltech.edu/fdsnws/event/1/query?assocaro=266413021</pickID>
          <phase>S</phase>
          <timeCorrection>0.0</timeCorrection>
          <azimuth>220.8</azimuth>
          <distance>0.289</distance>
          <takeoffAngle>
            <value>97.0</value>
          </takeoffAngle>
          <timeResidual>0.1</timeResidual>
          <timeWeight>0.08</timeWeight>
          <creationInfo>
            <agencyID>CI</agencyID>
            <creationTime>2025-01-15T21:10:39.000000Z</creationTime>
          </creationInfo>
        </arrival>
        <arrival publicID="quakeml:service.scedc.caltech.edu/fdsnws/event/1/query?assocaro=266413029">
          <pickID>quakeml:service.scedc.caltech.edu/fdsnws/event/1/query?assocaro=266413029</pickID>
          <phase>P</phase>
          <timeCorrection>0.0</timeCorrection>
          <azimuth>243.4</azimuth>
          <distance>0.3032</distance>
          <takeoffAngle>
            <value>96.0</value>
          </takeoffAngle>
          <timeResidual>-0.03</timeResidual>
          <timeWeight>0.22</timeWeight>
          <creationInfo>
            <agencyID>CI</agencyID>
            <creationTime>2025-01-15T21:10:39.000000Z</creationTime>
          </creationInfo>
        </arrival>
        <arrival publicID="quakeml:service.scedc.caltech.edu/fdsnws/event/1/query?assocaro=266413037">
          <pickID>quakeml:service.scedc.caltech.edu/fdsnws/event/1/query?assocaro=266413037</pickID>
          <phase>S</phase>
          <timeCorrection>0.0</timeCorrection>
          <azimuth>243.4</azimuth>
          <distance>0.3032</distance>
          <takeoffAngle>
            <value>96.0</value>
          </takeoffAngle>
          <timeResidual>-0.1</timeResidual>
          <timeWeight>0.08</timeWeight>
          <creationInfo>
            <agencyID>CI</agencyID>
            <creationTime>2025-01-15T21:10:39.000000Z</creationTime>
          </creationInfo>
        </arrival>
        <arrival publicID="quakeml:service.scedc.caltech.edu/fdsnws/event/1/query?assocaro=266413045">
          <pickID>quakeml:service.scedc.caltech.edu/fdsnws/event/1/query?assocaro=266413045</pickID>
          <phase>P</phase>
          <timeCorrection>0.0</timeCorrection>
          <azimuth>145.1</azimuth>
          <distance>0.3046</distance>
          <takeoffAngle>
            <value>96.0</value>
          </takeoffAngle>
          <timeResidual>0.14</timeResidual>
          <timeWeight>0.22</timeWeight>
          <creationInfo>
            <agencyID>CI</agencyID>
            <creationTime>2025-01-15T21:10:39.000000Z</creationTime>
          </creationInfo>
        </arrival>
        <arrival publicID="quakeml:service.scedc.caltech.edu/fdsnws/event/1/query?assocaro=266413061">
          <pickID>quakeml:service.scedc.caltech.edu/fdsnws/event/1/query?assocaro=266413061</pickID>
          <phase>P</phase>
          <timeCorrection>0.0</timeCorrection>
          <azimuth>64.3</azimuth>
          <distance>0.304</distance>
          <takeoffAngle>
            <value>96.0</value>
          </takeoffAngle>
          <timeResidual>0.1</timeResidual>
          <timeWeight>0.22</timeWeight>
          <creationInfo>
            <agencyID>CI</agencyID>
            <creationTime>2025-01-15T21:10:39.000000Z</creationTime>
          </creationInfo>
        </arrival>
        <arrival publicID="quakeml:service.scedc.caltech.edu/fdsnws/event/1/query?assocaro=266413077">
          <pickID>quakeml:service.scedc.caltech.edu/fdsnws/event/1/query?assocaro=266413077</pickID>
          <phase>P</phase>
          <timeCorrection>0.0</timeCorrection>
          <azimuth>359.3</azimuth>
          <distance>0.3194</distance>
          <takeoffAngle>
            <value>96.0</value>
          </takeoffAngle>
          <timeResidual>-0.26</timeResidual>
          <timeWeight>0.22</timeWeight>
          <creationInfo>
            <agencyID>CI</agencyID>
            <creationTime>2025-01-15T21:10:39.000000Z</creationTime>
          </creationInfo>
        </arrival>
        <arrival publicID="quakeml:service.scedc.caltech.edu/fdsnws/event/1/query?assocaro=266413109">
          <pickID>quakeml:service.scedc.caltech.edu/fdsnws/event/1/query?assocaro=266413109</pickID>
          <phase>P</phase>
          <timeCorrection>-0.05</timeCorrection>
          <azimuth>298.8</azimuth>
          <distance>0.3274</distance>
          <takeoffAngle>
            <value>96.0</value>
          </takeoffAngle>
          <timeResidual>0.14</timeResidual>
          <timeWeight>0.16</timeWeight>
          <creationInfo>
            <agencyID>CI</agencyID>
            <creationTime>2025-01-15T21:10:39.000000Z</creationTime>
          </creationInfo>
        </arrival>
        <arrival publicID="quakeml:service.scedc.caltech.edu/fdsnws/event/1/query?assocaro=266413125">
          <pickID>quakeml:service.scedc.caltech.edu/fdsnws/event/1/query?assocaro=266413125</pickID>
          <phase>P</phase>
          <timeCorrection>-0.03</timeCorrection>
          <azimuth>325.3</azimuth>
          <distance>0.3763</distance>
          <takeoffAngle>
            <value>94.0</value>
          </takeoffAngle>
          <timeResidual>0.12</timeResidual>
          <timeWeight>0.22</timeWeight>
          <creationInfo>
            <agencyID>CI</agencyID>
            <creationTime>2025-01-15T21:10:39.000000Z</creationTime>
          </creationInfo>
        </arrival>
        <arrival publicID="quakeml:service.scedc.caltech.edu/fdsnws/event/1/query?assocaro=266413133">
          <pickID>quakeml:service.scedc.caltech.edu/fdsnws/event/1/query?assocaro=266413133</pickID>
          <phase>S</phase>
          <timeCorrection>-0.2</timeCorrection>
          <azimuth>325.3</azimuth>
          <distance>0.3763</distance>
          <takeoffAngle>
            <value>94.0</value>
          </takeoffAngle>
          <timeResidual>0.32</timeResidual>
          <timeWeight>0.05</timeWeight>
          <creationInfo>
            <agencyID>CI</agencyID>
            <creationTime>2025-01-15T21:10:39.000000Z</creationTime>
          </creationInfo>
        </arrival>
        <arrival publicID="quakeml:service.scedc.caltech.edu/fdsnws/event/1/query?assocaro=266413141">
          <pickID>quakeml:service.scedc.caltech.edu/fdsnws/event/1/query?assocaro=266413141</pickID>
          <phase>P</phase>
          <timeCorrection>0.0</timeCorrection>
          <azimuth>274.7</azimuth>
          <distance>0.3908</distance>
          <takeoffAngle>
            <value>94.0</value>
          </takeoffAngle>
          <timeResidual>-0.04</timeResidual>
          <timeWeight>0.16</timeWeight>
          <creationInfo>
            <agencyID>CI</agencyID>
            <creationTime>2025-01-15T21:10:39.000000Z</creationTime>
          </creationInfo>
        </arrival>
        <arrival publicID="quakeml:service.scedc.caltech.edu/fdsnws/event/1/query?assocaro=266413181">
          <pickID>quakeml:service.scedc.caltech.edu/fdsnws/event/1/query?assocaro=266413181</pickID>
          <phase>P</phase>
          <timeCorrection>-0.01</timeCorrection>
          <azimuth>157.2</azimuth>
          <distance>0.4241</distance>
          <takeoffAngle>
            <value>93.0</value>
          </takeoffAngle>
          <timeResidual>-0.03</timeResidual>
          <timeWeight>0.22</timeWeight>
          <creationInfo>
            <agencyID>CI</agencyID>
            <creationTime>2025-01-15T21:10:39.000000Z</creationTime>
          </creationInfo>
        </arrival>
        <arrival publicID="quakeml:service.scedc.caltech.edu/fdsnws/event/1/query?assocaro=266413189">
          <pickID>quakeml:service.scedc.caltech.edu/fdsnws/event/1/query?assocaro=266413189</pickID>
          <phase>S</phase>
          <timeCorrection>-0.23</timeCorrection>
          <azimuth>157.2</azimuth>
          <distance>0.4241</distance>
          <takeoffAngle>
            <value>93.0</value>
          </takeoffAngle>
          <timeResidual>0.22</timeResidual>
          <timeWeight>0.05</timeWeight>
          <creationInfo>
            <agencyID>CI</agencyID>
            <creationTime>2025-01-15T21:10:39.000000Z</creationTime>
          </creationInfo>
        </arrival>
        <arrival publicID="quakeml:service.scedc.caltech.edu/fdsnws/event/1/query?assocaro=266413245">
          <pickID>quakeml:service.scedc.caltech.edu/fdsnws/event/1/query?assocaro=266413245</pickID>
          <phase>P</phase>
          <timeCorrection>-0.11</timeCorrection>
          <azimuth>220.5</azimuth>
          <distance>0.4755</distance>
          <takeoffAngle>
            <value>93.0</value>
          </takeoffAngle>
          <timeResidual>0.01</timeResidual>
          <timeWeight>0.16</timeWeight>
          <creationInfo>
            <agencyID>CI</agencyID>
            <creationTime>2025-01-15T21:10:39.000000Z</creationTime>
          </creationInfo>
        </arrival>
        <arrival publicID="quakeml:service.scedc.caltech.edu/fdsnws/event/1/query?assocaro=266413253">
          <pickID>quakeml:service.scedc.caltech.edu/fdsnws/event/1/query?assocaro=266413253</pickID>
          <phase>S</phase>
          <timeCorrection>-0.33</timeCorrection>
          <azimuth>220.5</azimuth>
          <distance>0.4755</distance>
          <takeoffAngle>
            <value>93.0</value>
          </takeoffAngle>
          <timeResidual>0.04</timeResidual>
          <timeWeight>0.08</timeWeight>
          <creationInfo>
            <agencyID>CI</agencyID>
            <creationTime>2025-01-15T21:10:39.000000Z</creationTime>
          </creationInfo>
        </arrival>
        <arrival publicID="quakeml:service.scedc.caltech.edu/fdsnws/event/1/query?assocaro=266413293">
          <pickID>quakeml:service.scedc.caltech.edu/fdsnws/event/1/query?assocaro=266413293</pickID>
          <phase>P</phase>
          <timeCorrection>0.0</timeCorrection>
          <azimuth>228.3</azimuth>
          <distance>0.5076</distance>
          <takeoffAngle>
            <value>92.0</value>
          </takeoffAngle>
          <timeResidual>-0.07</timeResidual>
          <timeWeight>0.16</timeWeight>
          <creationInfo>
            <agencyID>CI</agencyID>
            <creationTime>2025-01-15T21:10:39.000000Z</creationTime>
          </creationInfo>
        </arrival>
        <arrival publicID="quakeml:service.scedc.caltech.edu/fdsnws/event/1/query?assocaro=266413309">
          <pickID>quakeml:service.scedc.caltech.edu/fdsnws/event/1/query?assocaro=266413309</pickID>
          <phase>P</phase>
          <timeCorrection>-0.06</timeCorrection>
          <azimuth>140.7</azimuth>
          <distance>0.5084</distance>
          <takeoffAngle>
            <value>92.0</value>
          </takeoffAngle>
          <timeResidual>0.04</timeResidual>
          <timeWeight>0.16</timeWeight>
          <creationInfo>
            <agencyID>CI</agencyID>
            <creationTime>2025-01-15T21:10:39.000000Z</creationTime>
          </creationInfo>
        </arrival>
        <arrival publicID="quakeml:service.scedc.caltech.edu/fdsnws/event/1/query?assocaro=266413325">
