<?xml version='1.0' encoding='utf-8'?>
<q:quakeml xmlns="http://quakeml.org/xmlns/bed/1.2" xmlns:q="http://quakeml.org/xmlns/quakeml/1.2" xmlns:ns0="http://anss.org/xmlns/catalog/0.1">
  <eventParameters publicID="smi:local/d088d475-6b23-4f79-846c-dc8d7dc019b1">
    <event publicID="quakeml:service.scedc.caltech.edu/fdsnws/event/1/query?eventid=40834591" ns0:datasource="ci" ns0:dataid="ci40834591" ns0:eventsource="ci" ns0:eventid="40834591">
      <preferredOriginID>quakeml:service.scedc.caltech.edu/fdsnws/event/1/query?originid=105807813</preferredOriginID>
      <preferredMagnitudeID>quakeml:service.scedc.caltech.edu/fdsnws/event/1/query?magnitudeid=109260453</preferredMagnitudeID>
      <type>earthquake</type>
      <creationInfo>
        <agencyID>CI</agencyID>
        <agencyURI>quakeml:doi.org/10.7909/C3WD3xH1</agencyURI>
        <creationTime>2025-01-06T14:06:57.000000Z</creationTime>
        <version>6</version>
      </creationInfo>
      <origin publicID="quakeml:service.scedc.caltech.edu/fdsnws/event/1/query?originid=105807813" ns0:datasource="ci" ns0:dataid="ci40834591" ns0:eventsource="ci" ns0:eventid="40834591">
        <time>
          <value>2025-01-06T14:02:38.410000Z</value>
        </time>
        <latitude>
          <value>33.3151667</value>
        </latitude>
        <longitude>
          <value>-116.3163333</value>
        </longitude>
        <depth>
          <value>11380.0</value>
          <uncertainty>280.0</uncertainty>
        </depth>
        <depthType>from location</depthType>
        <timeFixed>false</timeFixed>
        <epicenterFixed>false</epicenterFixed>
        <methodID>smi:ci.anss.org/origin/HYP2000</methodID>
        <quality>
          <associatedPhaseCount>117</associatedPhaseCount>
          <usedPhaseCount>117</usedPhaseCount>
          <associatedStationCount>66</associatedStationCount>
          <usedStationCount>66</usedStationCount>
          <standardError>0.17</standardError>
          <azimuthalGap>20.0</azimuthalGap>
          <secondaryAzimuthalGap>378.0</secondaryAzimuthalGap>
          <minimumDistance>0.04741</minimumDistance>
          <maximumDistance>0.8964</maximumDistance>
          <medianDistance>0.5213</medianDistance>
        </quality>
        <type>hypocenter</type>
        <evaluationMode>manual</evaluationMode>
        <evaluationStatus>final</evaluationStatus>
        <creationInfo>
          <agencyID>CI</agencyID>
          <creationTime>2025-01-06T14:06:48.000000Z</creationTime>
        </creationInfo>
        <originUncertainty>
          <preferredDescription>confidence ellipsoid</preferredDescription>
          <horizontalUncertainty>140.0</horizontalUncertainty>
          <confidenceLevel>95.0</confidenceLevel>
          <confidenceEllipsoid>
            <semiMajorAxisLength>672.0</semiMajorAxisLength>
            <semiMinorAxisLength>312.0</semiMinorAxisLength>
            <semiIntermediateAxisLength>336.0</semiIntermediateAxisLength>
            <majorAxisPlunge>86.0</majorAxisPlunge>
            <majorAxisAzimuth>118.0</majorAxisAzimuth>
            <majorAxisRotation>314.0</majorAxisRotation>
          </confidenceEllipsoid>
        </originUncertainty>
        <arrival publicID="quakeml:service.scedc.caltech.edu/fdsnws/event/1/query?assocaro=144528063">
          <pickID>quakeml:service.scedc.caltech.edu/fdsnws/event/1/query?assocaro=144528063</pickID>
          <phase>S</phase>
          <timeCorrection>-0.28</timeCorrection>
          <azimuth>323.0</azimuth>
          <distance>0.5441</distance>
          <takeoffAngle>
            <value>77.0</value>
          </takeoffAngle>
          <timeResidual>-0.01</timeResidual>
          <timeWeight>0.05</timeWeight>
          <creationInfo>
            <agencyID>CI</agencyID>
            <creationTime>2025-01-06T14:06:48.000000Z</creationTime>
          </creationInfo>
        </arrival>
        <arrival publicID="quakeml:service.scedc.caltech.edu/fdsnws/event/1/query?assocaro=144528215">
          <pickID>quakeml:service.scedc.caltech.edu/fdsnws/event/1/query?assocaro=144528215</pickID>
          <phase>P</phase>
          <timeCorrection>-0.12</timeCorrection>
          <azimuth>307.0</azimuth>
          <distance>0.6287</distance>
          <takeoffAngle>
            <value>77.0</value>
          </takeoffAngle>
          <timeResidual>0.23</timeResidual>
          <timeWeight>0.16</timeWeight>
          <creationInfo>
            <agencyID>CI</agencyID>
            <creationTime>2025-01-06T14:06:48.000000Z</creationTime>
          </creationInfo>
        </arrival>
        <arrival publicID="quakeml:service.scedc.caltech.edu/fdsnws/event/1/query?assocaro=266289141">
          <pickID>quakeml:service.scedc.caltech.edu/fdsnws/event/1/query?assocaro=266289141</pickID>
          <phase>P</phase>
          <timeCorrection>0.0</timeCorrection>
          <azimuth>6.0</azimuth>
          <distance>0.04741</distance>
          <takeoffAngle>
            <value>153.0</value>
          </takeoffAngle>
          <timeResidual>-0.1</timeResidual>
          <timeWeight>0.22</timeWeight>
          <creationInfo>
            <agencyID>CI</agencyID>
            <creationTime>2025-01-06T14:06:48.000000Z</creationTime>
          </creationInfo>
        </arrival>
        <arrival publicID="quakeml:service.scedc.caltech.edu/fdsnws/event/1/query?assocaro=266289149">
          <pickID>quakeml:service.scedc.caltech.edu/fdsnws/event/1/query?assocaro=266289149</pickID>
          <phase>S</phase>
          <timeCorrection>0.0</timeCorrection>
          <azimuth>6.0</azimuth>
          <distance>0.04741</distance>
          <takeoffAngle>
            <value>153.0</value>
          </takeoffAngle>
          <timeResidual>0.07</timeResidual>
          <timeWeight>0.05</timeWeight>
          <creationInfo>
            <agencyID>CI</agencyID>
            <creationTime>2025-01-06T14:06:48.000000Z</creationTime>
          </creationInfo>
        </arrival>
        <arrival publicID="quakeml:service.scedc.caltech.edu/fdsnws/event/1/query?assocaro=266289157">
          <pickID>quakeml:service.scedc.caltech.edu/fdsnws/event/1/query?assocaro=266289157</pickID>
          <phase>P</phase>
          <timeCorrection>-0.07</timeCorrection>
          <azimuth>242.0</azimuth>
          <distance>0.09657</distance>
          <takeoffAngle>
            <value>133.0</value>
          </takeoffAngle>
          <timeResidual>0.02</timeResidual>
          <timeWeight>0.16</timeWeight>
          <creationInfo>
            <agencyID>CI</agencyID>
            <creationTime>2025-01-06T14:06:48.000000Z</creationTime>
          </creationInfo>
        </arrival>
        <arrival publicID="quakeml:service.scedc.caltech.edu/fdsnws/event/1/query?assocaro=266289165">
          <pickID>quakeml:service.scedc.caltech.edu/fdsnws/event/1/query?assocaro=266289165</pickID>
          <phase>S</phase>
          <timeCorrection>-0.3</timeCorrection>
          <azimuth>242.0</azimuth>
          <distance>0.09657</distance>
          <takeoffAngle>
            <value>133.0</value>
          </takeoffAngle>
          <timeResidual>0.32</timeResidual>
          <timeWeight>0.05</timeWeight>
          <creationInfo>
            <agencyID>CI</agencyID>
            <creationTime>2025-01-06T14:06:48.000000Z</creationTime>
          </creationInfo>
        </arrival>
        <arrival publicID="quakeml:service.scedc.caltech.edu/fdsnws/event/1/query?assocaro=266289173">
          <pickID>quakeml:service.scedc.caltech.edu/fdsnws/event/1/query?assocaro=266289173</pickID>
          <phase>P</phase>
          <timeCorrection>0.07</timeCorrection>
          <azimuth>156.0</azimuth>
          <distance>0.1328</distance>
          <takeoffAngle>
            <value>123.0</value>
          </takeoffAngle>
          <timeResidual>-0.04</timeResidual>
          <timeWeight>0.16</timeWeight>
          <creationInfo>
            <agencyID>CI</agencyID>
            <creationTime>2025-01-06T14:06:48.000000Z</creationTime>
          </creationInfo>
        </arrival>
        <arrival publicID="quakeml:service.scedc.caltech.edu/fdsnws/event/1/query?assocaro=266289181">
          <pickID>quakeml:service.scedc.caltech.edu/fdsnws/event/1/query?assocaro=266289181</pickID>
          <phase>S</phase>
          <timeCorrection>0.11</timeCorrection>
          <azimuth>156.0</azimuth>
          <distance>0.1328</distance>
          <takeoffAngle>
            <value>123.0</value>
          </takeoffAngle>
          <timeResidual>0.44</timeResidual>
          <timeWeight>0.05</timeWeight>
          <creationInfo>
            <agencyID>CI</agencyID>
            <creationTime>2025-01-06T14:06:48.000000Z</creationTime>
          </creationInfo>
        </arrival>
        <arrival publicID="quakeml:service.scedc.caltech.edu/fdsnws/event/1/query?assocaro=266289189">
          <pickID>quakeml:service.scedc.caltech.edu/fdsnws/event/1/query?assocaro=266289189</pickID>
          <phase>P</phase>
          <timeCorrection>0.0</timeCorrection>
          <azimuth>141.0</azimuth>
          <distance>0.2019</distance>
          <takeoffAngle>
            <value>111.0</value>
          </takeoffAngle>
          <timeResidual>-0.14</timeResidual>
          <timeWeight>0.16</timeWeight>
          <creationInfo>
            <agencyID>CI</agencyID>
            <creationTime>2025-01-06T14:06:48.000000Z</creationTime>
          </creationInfo>
        </arrival>
        <arrival publicID="quakeml:service.scedc.caltech.edu/fdsnws/event/1/query?assocaro=266289197">
          <pickID>quakeml:service.scedc.caltech.edu/fdsnws/event/1/query?assocaro=266289197</pickID>
          <phase>S</phase>
          <timeCorrection>0.0</timeCorrection>
          <azimuth>141.0</azimuth>
          <distance>0.2019</distance>
          <takeoffAngle>
            <value>111.0</value>
          </takeoffAngle>
          <timeResidual>0.35</timeResidual>
          <timeWeight>0.05</timeWeight>
          <creationInfo>
            <agencyID>CI</agencyID>
            <creationTime>2025-01-06T14:06:48.000000Z</creationTime>
          </creationInfo>
        </arrival>
        <arrival publicID="quakeml:service.scedc.caltech.edu/fdsnws/event/1/query?assocaro=266289205">
          <pickID>quakeml:service.scedc.caltech.edu/fdsnws/event/1/query?assocaro=266289205</pickID>
          <phase>P</phase>
          <timeCorrection>-0.03</timeCorrection>
          <azimuth>281.0</azimuth>
          <distance>0.2084</distance>
          <takeoffAngle>
            <value>110.0</value>
          </takeoffAngle>
          <timeResidual>0.2</timeResidual>
          <timeWeight>0.22</timeWeight>
          <creationInfo>
            <agencyID>CI</agencyID>
            <creationTime>2025-01-06T14:06:48.000000Z</creationTime>
          </creationInfo>
        </arrival>
        <arrival publicID="quakeml:service.scedc.caltech.edu/fdsnws/event/1/query?assocaro=266289213">
          <pickID>quakeml:service.scedc.caltech.edu/fdsnws/event/1/query?assocaro=266289213</pickID>
          <phase>S</phase>
          <timeCorrection>-0.2</timeCorrection>
          <azimuth>281.0</azimuth>
          <distance>0.2084</distance>
          <takeoffAngle>
            <value>110.0</value>
          </takeoffAngle>
          <timeResidual>0.68</timeResidual>
          <timeWeight>0.05</timeWeight>
          <creationInfo>
            <agencyID>CI</agencyID>
            <creationTime>2025-01-06T14:06:48.000000Z</creationTime>
          </creationInfo>
        </arrival>
        <arrival publicID="quakeml:service.scedc.caltech.edu/fdsnws/event/1/query?assocaro=266289221">
          <pickID>quakeml:service.scedc.caltech.edu/fdsnws/event/1/query?assocaro=266289221</pickID>
          <phase>P</phase>
          <timeCorrection>0.0</timeCorrection>
          <azimuth>204.0</azimuth>
          <distance>0.2583</distance>
          <takeoffAngle>
            <value>105.0</value>
          </takeoffAngle>
          <timeResidual>0.0</timeResidual>
          <timeWeight>0.11</timeWeight>
          <creationInfo>
            <agencyID>CI</agencyID>
            <creationTime>2025-01-06T14:06:48.000000Z</creationTime>
          </creationInfo>
        </arrival>
        <arrival publicID="quakeml:service.scedc.caltech.edu/fdsnws/event/1/query?assocaro=266289229">
          <pickID>quakeml:service.scedc.caltech.edu/fdsnws/event/1/query?assocaro=266289229</pickID>
          <phase>S</phase>
          <timeCorrection>0.0</timeCorrection>
          <azimuth>204.0</azimuth>
          <distance>0.2583</distance>
          <takeoffAngle>
            <value>105.0</value>
          </takeoffAngle>
          <timeResidual>0.29</timeResidual>
          <timeWeight>0.05</timeWeight>
          <creationInfo>
            <agencyID>CI</agencyID>
            <creationTime>2025-01-06T14:06:48.000000Z</creationTime>
          </creationInfo>
        </arrival>
        <arrival publicID="quakeml:service.scedc.caltech.edu/fdsnws/event/1/query?assocaro=266289237">
          <pickID>quakeml:service.scedc.caltech.edu/fdsnws/event/1/query?assocaro=266289237</pickID>
          <phase>P</phase>
          <timeCorrection>-0.1</timeCorrection>
          <azimuth>16.0</azimuth>
          <distance>0.2702</distance>
          <takeoffAngle>
            <value>104.0</value>
          </takeoffAngle>
          <timeResidual>-0.3</timeResidual>
          <timeWeight>0.16</timeWeight>
          <creationInfo>
            <agencyID>CI</agencyID>
            <creationTime>2025-01-06T14:06:48.000000Z</creationTime>
          </creationInfo>
        </arrival>
        <arrival publicID="quakeml:service.scedc.caltech.edu/fdsnws/event/1/query?assocaro=266289245">
          <pickID>quakeml:service.scedc.caltech.edu/fdsnws/event/1/query?assocaro=266289245</pickID>
          <phase>S</phase>
          <timeCorrection>-0.29</timeCorrection>
          <azimuth>16.0</azimuth>
          <distance>0.2702</distance>
          <takeoffAngle>
            <value>104.0</value>
          </takeoffAngle>
          <timeResidual>-0.24</timeResidual>
          <timeWeight>0.05</timeWeight>
          <creationInfo>
            <agencyID>CI</agencyID>
            <creationTime>2025-01-06T14:06:48.000000Z</creationTime>
          </creationInfo>
        </arrival>
        <arrival publicID="quakeml:service.scedc.caltech.edu/fdsnws/event/1/query?assocaro=266289253">
          <pickID>quakeml:service.scedc.caltech.edu/fdsnws/event/1/query?assocaro=266289253</pickID>
          <phase>P</phase>
          <timeCorrection>0.17</timeCorrection>
          <azimuth>97.0</azimuth>
          <distance>0.279</distance>
          <takeoffAngle>
            <value>104.0</value>
          </takeoffAngle>
          <timeResidual>-0.05</timeResidual>
          <timeWeight>0.11</timeWeight>
          <creationInfo>
            <agencyID>CI</agencyID>
            <creationTime>2025-01-06T14:06:48.000000Z</creationTime>
          </creationInfo>
        </arrival>
        <arrival publicID="quakeml:service.scedc.caltech.edu/fdsnws/event/1/query?assocaro=266289261">
          <pickID>quakeml:service.scedc.caltech.edu/fdsnws/event/1/query?assocaro=266289261</pickID>
          <phase>S</phase>
          <timeCorrection>0.39</timeCorrection>
          <azimuth>97.0</azimuth>
          <distance>0.279</distance>
          <takeoffAngle>
            <value>104.0</value>
          </takeoffAngle>
          <timeResidual>0.34</timeResidual>
          <timeWeight>0.05</timeWeight>
          <creationInfo>
            <agencyID>CI</agencyID>
            <creationTime>2025-01-06T14:06:48.000000Z</creationTime>
          </creationInfo>
        </arrival>
        <arrival publicID="quakeml:service.scedc.caltech.edu/fdsnws/event/1/query?assocaro=266289269">
          <pickID>quakeml:service.scedc.caltech.edu/fdsnws/event/1/query?assocaro=266289269</pickID>
          <phase>P</phase>
          <timeCorrection>-0.08</timeCorrection>
          <azimuth>307.0</azimuth>
          <distance>0.2987</distance>
          <takeoffAngle>
            <value>103.0</value>
          </takeoffAngle>
          <timeResidual>0.04</timeResidual>
          <timeWeight>0.22</timeWeight>
          <creationInfo>
            <agencyID>CI</agencyID>
            <creationTime>2025-01-06T14:06:48.000000Z</creationTime>
          </creationInfo>
        </arrival>
        <arrival publicID="quakeml:service.scedc.caltech.edu/fdsnws/event/1/query?assocaro=266289277">
          <pickID>quakeml:service.scedc.caltech.edu/fdsnws/event/1/query?assocaro=266289277</pickID>
          <phase>S</phase>
          <timeCorrection>-0.33</timeCorrection>
          <azimuth>307.0</azimuth>
          <distance>0.2987</distance>
          <takeoffAngle>
            <value>102.0</value>
          </takeoffAngle>
          <timeResidual>0.35</timeResidual>
          <timeWeight>0.08</timeWeight>
          <creationInfo>
            <agencyID>CI</agencyID>
            <creationTime>2025-01-06T14:06:48.000000Z</creationTime>
          </creationInfo>
        </arrival>
        <arrival publicID="quakeml:service.scedc.caltech.edu/fdsnws/event/1/query?assocaro=266289285">
          <pickID>quakeml:service.scedc.caltech.edu/fdsnws/event/1/query?assocaro=266289285</pickID>
          <phase>P</phase>
          <timeCorrection>-0.05</timeCorrection>
          <azimuth>248.0</azimuth>
          <distance>0.3005</distance>
          <takeoffAngle>
            <value>102.0</value>
          </takeoffAngle>
          <timeResidual>0.03</timeResidual>
          <timeWeight>0.22</timeWeight>
          <creationInfo>
            <agencyID>CI</agencyID>
            <creationTime>2025-01-06T14:06:48.000000Z</creationTime>
          </creationInfo>
        </arrival>
        <arrival publicID="quakeml:service.scedc.caltech.edu/fdsnws/event/1/query?assocaro=266289293">
          <pickID>quakeml:service.scedc.caltech.edu/fdsnws/event/1/query?assocaro=266289293</pickID>
          <phase>S</phase>
          <timeCorrection>-0.25</timeCorrection>
          <azimuth>248.0</azimuth>
          <distance>0.3005</distance>
          <takeoffAngle>
            <value>102.0</value>
          </takeoffAngle>
          <timeResidual>0.35</timeResidual>
          <timeWeight>0.05</timeWeight>
          <creationInfo>
            <agencyID>CI</agencyID>
            <creationTime>2025-01-06T14:06:48.000000Z</creationTime>
          </creationInfo>
        </arrival>
        <arrival publicID="quakeml:service.scedc.caltech.edu/fdsnws/event/1/query?assocaro=266289301">
          <pickID>quakeml:service.scedc.caltech.edu/fdsnws/event/1/query?assocaro=266289301</pickID>
          <phase>P</phase>
          <timeCorrection>0.0</timeCorrection>
          <azimuth>298.0</azimuth>
          <distance>0.3097</distance>
          <takeoffAngle>
            <value>102.0</value>
          </takeoffAngle>
          <timeResidual>0.08</timeResidual>
          <timeWeight>0.11</timeWeight>
          <creationInfo>
            <agencyID>CI</agencyID>
            <creationTime>2025-01-06T14:06:48.000000Z</creationTime>
          </creationInfo>
        </arrival>
        <arrival publicID="quakeml:service.scedc.caltech.edu/fdsnws/event/1/query?assocaro=266289309">
          <pickID>quakeml:service.scedc.caltech.edu/fdsnws/event/1/query?assocaro=266289309</pickID>
          <phase>S</phase>
          <timeCorrection>0.0</timeCorrection>
          <azimuth>298.0</azimuth>
          <distance>0.3097</distance>
          <takeoffAngle>
            <value>102.0</value>
          </takeoffAngle>
          <timeResidual>0.09</timeResidual>
          <timeWeight>0.05</timeWeight>
          <creationInfo>
            <agencyID>CI</agencyID>
            <creationTime>2025-01-06T14:06:48.000000Z</creationTime>
          </creationInfo>
        </arrival>
        <arrival publicID="quakeml:service.scedc.caltech.edu/fdsnws/event/1/query?assocaro=266289317">
