<?xml version='1.0' encoding='utf-8'?>
<q:quakeml xmlns="http://quakeml.org/xmlns/bed/1.2" xmlns:q="http://quakeml.org/xmlns/quakeml/1.2" xmlns:ns0="http://anss.org/xmlns/catalog/0.1">
  <eventParameters publicID="smi:local/b5f50787-ef5e-48ec-8963-a0ded81be244">
    <event publicID="quakeml:service.scedc.caltech.edu/fdsnws/event/1/query?eventid=40842055" ns0:datasource="ci" ns0:dataid="ci40842055" ns0:eventsource="ci" ns0:eventid="40842055">
      <preferredOriginID>quakeml:service.scedc.caltech.edu/fdsnws/event/1/query?originid=105811621</preferredOriginID>
      <preferredMagnitudeID>quakeml:service.scedc.caltech.edu/fdsnws/event/1/query?magnitudeid=109267605</preferredMagnitudeID>
      <type>earthquake</type>
      <creationInfo>
        <agencyID>CI</agencyID>
        <agencyURI>quakeml:doi.org/10.7909/C3WD3xH1</agencyURI>
        <creationTime>2025-01-17T20:10:19.000000Z</creationTime>
        <version>6</version>
      </creationInfo>
      <origin publicID="quakeml:service.scedc.caltech.edu/fdsnws/event/1/query?originid=105811621" ns0:datasource="ci" ns0:dataid="ci40842055" ns0:eventsource="ci" ns0:eventid="40842055">
        <time>
          <value>2025-01-17T20:04:50.550000Z</value>
        </time>
        <latitude>
          <value>34.1268333</value>
        </latitude>
        <longitude>
          <value>-117.4653333</value>
        </longitude>
        <depth>
          <value>9150.0</value>
          <uncertainty>370.0</uncertainty>
        </depth>
        <depthType>from location</depthType>
        <timeFixed>false</timeFixed>
        <epicenterFixed>false</epicenterFixed>
        <methodID>smi:ci.anss.org/origin/HYP2000</methodID>
        <quality>
          <associatedPhaseCount>71</associatedPhaseCount>
          <usedPhaseCount>70</usedPhaseCount>
          <associatedStationCount>45</associatedStationCount>
          <usedStationCount>45</usedStationCount>
          <standardError>0.16</standardError>
          <azimuthalGap>46.0</azimuthalGap>
          <secondaryAzimuthalGap>395.0</secondaryAzimuthalGap>
          <minimumDistance>0.03501</minimumDistance>
          <maximumDistance>0.869</maximumDistance>
          <medianDistance>0.4027</medianDistance>
        </quality>
        <type>hypocenter</type>
        <evaluationMode>manual</evaluationMode>
        <evaluationStatus>final</evaluationStatus>
        <creationInfo>
          <agencyID>CI</agencyID>
          <creationTime>2025-01-17T20:10:10.000000Z</creationTime>
        </creationInfo>
        <originUncertainty>
          <preferredDescription>confidence ellipsoid</preferredDescription>
          <horizontalUncertainty>180.0</horizontalUncertainty>
          <confidenceLevel>95.0</confidenceLevel>
          <confidenceEllipsoid>
            <semiMajorAxisLength>888.0</semiMajorAxisLength>
            <semiMinorAxisLength>312.0</semiMinorAxisLength>
            <semiIntermediateAxisLength>456.0</semiIntermediateAxisLength>
            <majorAxisPlunge>84.0</majorAxisPlunge>
            <majorAxisAzimuth>261.0</majorAxisAzimuth>
            <majorAxisRotation>340.0</majorAxisRotation>
          </confidenceEllipsoid>
        </originUncertainty>
        <arrival publicID="quakeml:service.scedc.caltech.edu/fdsnws/event/1/query?assocaro=266467253">
          <pickID>quakeml:service.scedc.caltech.edu/fdsnws/event/1/query?assocaro=266467253</pickID>
          <phase>S</phase>
          <timeCorrection>-0.21</timeCorrection>
          <azimuth>141.0</azimuth>
          <distance>0.03501</distance>
          <takeoffAngle>
            <value>156.0</value>
          </takeoffAngle>
          <timeResidual>0.24</timeResidual>
          <timeWeight>0.05</timeWeight>
          <creationInfo>
            <agencyID>CI</agencyID>
            <creationTime>2025-01-17T20:10:10.000000Z</creationTime>
          </creationInfo>
        </arrival>
        <arrival publicID="quakeml:service.scedc.caltech.edu/fdsnws/event/1/query?assocaro=266467261">
          <pickID>quakeml:service.scedc.caltech.edu/fdsnws/event/1/query?assocaro=266467261</pickID>
          <phase>S</phase>
          <timeCorrection>0.0</timeCorrection>
          <azimuth>267.0</azimuth>
          <distance>0.0619</distance>
          <takeoffAngle>
            <value>141.0</value>
          </takeoffAngle>
          <timeResidual>0.21</timeResidual>
          <timeWeight>0.08</timeWeight>
          <creationInfo>
            <agencyID>CI</agencyID>
            <creationTime>2025-01-17T20:10:10.000000Z</creationTime>
          </creationInfo>
        </arrival>
        <arrival publicID="quakeml:service.scedc.caltech.edu/fdsnws/event/1/query?assocaro=266467269">
          <pickID>quakeml:service.scedc.caltech.edu/fdsnws/event/1/query?assocaro=266467269</pickID>
          <phase>P</phase>
          <timeCorrection>0.0</timeCorrection>
          <azimuth>341.0</azimuth>
          <distance>0.08556</distance>
          <takeoffAngle>
            <value>131.0</value>
          </takeoffAngle>
          <timeResidual>0.01</timeResidual>
          <timeWeight>0.21</timeWeight>
          <creationInfo>
            <agencyID>CI</agencyID>
            <creationTime>2025-01-17T20:10:10.000000Z</creationTime>
          </creationInfo>
        </arrival>
        <arrival publicID="quakeml:service.scedc.caltech.edu/fdsnws/event/1/query?assocaro=266467277">
          <pickID>quakeml:service.scedc.caltech.edu/fdsnws/event/1/query?assocaro=266467277</pickID>
          <phase>S</phase>
          <timeCorrection>0.0</timeCorrection>
          <azimuth>341.0</azimuth>
          <distance>0.08556</distance>
          <takeoffAngle>
            <value>131.0</value>
          </takeoffAngle>
          <timeResidual>0.21</timeResidual>
          <timeWeight>0.05</timeWeight>
          <creationInfo>
            <agencyID>CI</agencyID>
            <creationTime>2025-01-17T20:10:10.000000Z</creationTime>
          </creationInfo>
        </arrival>
        <arrival publicID="quakeml:service.scedc.caltech.edu/fdsnws/event/1/query?assocaro=266467285">
          <pickID>quakeml:service.scedc.caltech.edu/fdsnws/event/1/query?assocaro=266467285</pickID>
          <phase>P</phase>
          <timeCorrection>0.0</timeCorrection>
          <azimuth>174.0</azimuth>
          <distance>0.09595</distance>
          <takeoffAngle>
            <value>127.0</value>
          </takeoffAngle>
          <timeResidual>-0.12</timeResidual>
          <timeWeight>0.21</timeWeight>
          <creationInfo>
            <agencyID>CI</agencyID>
            <creationTime>2025-01-17T20:10:10.000000Z</creationTime>
          </creationInfo>
        </arrival>
        <arrival publicID="quakeml:service.scedc.caltech.edu/fdsnws/event/1/query?assocaro=266467293">
          <pickID>quakeml:service.scedc.caltech.edu/fdsnws/event/1/query?assocaro=266467293</pickID>
          <phase>S</phase>
          <timeCorrection>0.0</timeCorrection>
          <azimuth>174.0</azimuth>
          <distance>0.09595</distance>
          <takeoffAngle>
            <value>127.0</value>
          </takeoffAngle>
          <timeResidual>-0.12</timeResidual>
          <timeWeight>0.08</timeWeight>
          <creationInfo>
            <agencyID>CI</agencyID>
            <creationTime>2025-01-17T20:10:10.000000Z</creationTime>
          </creationInfo>
        </arrival>
        <arrival publicID="quakeml:service.scedc.caltech.edu/fdsnws/event/1/query?assocaro=266467301">
          <pickID>quakeml:service.scedc.caltech.edu/fdsnws/event/1/query?assocaro=266467301</pickID>
          <phase>P</phase>
          <timeCorrection>0.0</timeCorrection>
          <azimuth>353.0</azimuth>
          <distance>0.1078</distance>
          <takeoffAngle>
            <value>123.0</value>
          </takeoffAngle>
          <timeResidual>-0.22</timeResidual>
          <timeWeight>0.21</timeWeight>
          <creationInfo>
            <agencyID>CI</agencyID>
            <creationTime>2025-01-17T20:10:10.000000Z</creationTime>
          </creationInfo>
        </arrival>
        <arrival publicID="quakeml:service.scedc.caltech.edu/fdsnws/event/1/query?assocaro=266467309">
          <pickID>quakeml:service.scedc.caltech.edu/fdsnws/event/1/query?assocaro=266467309</pickID>
          <phase>S</phase>
          <timeCorrection>0.0</timeCorrection>
          <azimuth>353.0</azimuth>
          <distance>0.1078</distance>
          <takeoffAngle>
            <value>123.0</value>
          </takeoffAngle>
          <timeResidual>0.01</timeResidual>
          <timeWeight>0.05</timeWeight>
          <creationInfo>
            <agencyID>CI</agencyID>
            <creationTime>2025-01-17T20:10:10.000000Z</creationTime>
          </creationInfo>
        </arrival>
        <arrival publicID="quakeml:service.scedc.caltech.edu/fdsnws/event/1/query?assocaro=266467317">
          <pickID>quakeml:service.scedc.caltech.edu/fdsnws/event/1/query?assocaro=266467317</pickID>
          <phase>P</phase>
          <timeCorrection>-0.02</timeCorrection>
          <azimuth>187.0</azimuth>
          <distance>0.1522</distance>
          <takeoffAngle>
            <value>112.0</value>
          </takeoffAngle>
          <timeResidual>-0.06</timeResidual>
          <timeWeight>0.11</timeWeight>
          <creationInfo>
            <agencyID>CI</agencyID>
            <creationTime>2025-01-17T20:10:10.000000Z</creationTime>
          </creationInfo>
        </arrival>
        <arrival publicID="quakeml:service.scedc.caltech.edu/fdsnws/event/1/query?assocaro=266467325">
          <pickID>quakeml:service.scedc.caltech.edu/fdsnws/event/1/query?assocaro=266467325</pickID>
          <phase>P</phase>
          <timeCorrection>-0.13</timeCorrection>
          <azimuth>150.0</azimuth>
          <distance>0.1525</distance>
          <takeoffAngle>
            <value>112.0</value>
          </takeoffAngle>
          <timeResidual>0.02</timeResidual>
          <timeWeight>0.16</timeWeight>
          <creationInfo>
            <agencyID>CI</agencyID>
            <creationTime>2025-01-17T20:10:10.000000Z</creationTime>
          </creationInfo>
        </arrival>
        <arrival publicID="quakeml:service.scedc.caltech.edu/fdsnws/event/1/query?assocaro=266467333">
          <pickID>quakeml:service.scedc.caltech.edu/fdsnws/event/1/query?assocaro=266467333</pickID>
          <phase>S</phase>
          <timeCorrection>-0.32</timeCorrection>
          <azimuth>150.0</azimuth>
          <distance>0.1525</distance>
          <takeoffAngle>
            <value>112.0</value>
          </takeoffAngle>
          <timeResidual>0.09</timeResidual>
          <timeWeight>0.05</timeWeight>
          <creationInfo>
            <agencyID>CI</agencyID>
            <creationTime>2025-01-17T20:10:10.000000Z</creationTime>
          </creationInfo>
        </arrival>
        <arrival publicID="quakeml:service.scedc.caltech.edu/fdsnws/event/1/query?assocaro=266467341">
          <pickID>quakeml:service.scedc.caltech.edu/fdsnws/event/1/query?assocaro=266467341</pickID>
          <phase>P</phase>
          <timeCorrection>-0.17</timeCorrection>
          <azimuth>305.0</azimuth>
          <distance>0.1953</distance>
          <takeoffAngle>
            <value>106.0</value>
          </takeoffAngle>
          <timeResidual>-0.02</timeResidual>
          <timeWeight>0.16</timeWeight>
          <creationInfo>
            <agencyID>CI</agencyID>
            <creationTime>2025-01-17T20:10:10.000000Z</creationTime>
          </creationInfo>
        </arrival>
        <arrival publicID="quakeml:service.scedc.caltech.edu/fdsnws/event/1/query?assocaro=266467349">
          <pickID>quakeml:service.scedc.caltech.edu/fdsnws/event/1/query?assocaro=266467349</pickID>
          <phase>S</phase>
          <timeCorrection>-0.35</timeCorrection>
          <azimuth>305.0</azimuth>
          <distance>0.1953</distance>
          <takeoffAngle>
            <value>105.0</value>
          </takeoffAngle>
          <timeResidual>0.19</timeResidual>
          <timeWeight>0.05</timeWeight>
          <creationInfo>
            <agencyID>CI</agencyID>
            <creationTime>2025-01-17T20:10:10.000000Z</creationTime>
          </creationInfo>
        </arrival>
        <arrival publicID="quakeml:service.scedc.caltech.edu/fdsnws/event/1/query?assocaro=266467357">
          <pickID>quakeml:service.scedc.caltech.edu/fdsnws/event/1/query?assocaro=266467357</pickID>
          <phase>P</phase>
          <timeCorrection>-0.07</timeCorrection>
          <azimuth>294.0</azimuth>
          <distance>0.2072</distance>
          <takeoffAngle>
            <value>104.0</value>
          </takeoffAngle>
          <timeResidual>0.12</timeResidual>
          <timeWeight>0.21</timeWeight>
          <creationInfo>
            <agencyID>CI</agencyID>
            <creationTime>2025-01-17T20:10:10.000000Z</creationTime>
          </creationInfo>
        </arrival>
        <arrival publicID="quakeml:service.scedc.caltech.edu/fdsnws/event/1/query?assocaro=266467365">
          <pickID>quakeml:service.scedc.caltech.edu/fdsnws/event/1/query?assocaro=266467365</pickID>
          <phase>S</phase>
          <timeCorrection>-0.2</timeCorrection>
          <azimuth>294.0</azimuth>
          <distance>0.2072</distance>
          <takeoffAngle>
            <value>104.0</value>
          </takeoffAngle>
          <timeResidual>0.52</timeResidual>
          <timeWeight>0.05</timeWeight>
          <creationInfo>
            <agencyID>CI</agencyID>
            <creationTime>2025-01-17T20:10:10.000000Z</creationTime>
          </creationInfo>
        </arrival>
        <arrival publicID="quakeml:service.scedc.caltech.edu/fdsnws/event/1/query?assocaro=266467373">
          <pickID>quakeml:service.scedc.caltech.edu/fdsnws/event/1/query?assocaro=266467373</pickID>
          <phase>P</phase>
          <timeCorrection>-0.05</timeCorrection>
          <azimuth>61.0</azimuth>
          <distance>0.2182</distance>
          <takeoffAngle>
            <value>103.0</value>
          </takeoffAngle>
          <timeResidual>0.06</timeResidual>
          <timeWeight>0.11</timeWeight>
          <creationInfo>
            <agencyID>CI</agencyID>
            <creationTime>2025-01-17T20:10:10.000000Z</creationTime>
          </creationInfo>
        </arrival>
        <arrival publicID="quakeml:service.scedc.caltech.edu/fdsnws/event/1/query?assocaro=266467381">
          <pickID>quakeml:service.scedc.caltech.edu/fdsnws/event/1/query?assocaro=266467381</pickID>
          <phase>P</phase>
          <timeCorrection>0.0</timeCorrection>
          <azimuth>169.0</azimuth>
          <distance>0.2338</distance>
          <takeoffAngle>
            <value>101.0</value>
          </takeoffAngle>
          <timeResidual>-0.14</timeResidual>
          <timeWeight>0.21</timeWeight>
          <creationInfo>
            <agencyID>CI</agencyID>
            <creationTime>2025-01-17T20:10:10.000000Z</creationTime>
          </creationInfo>
        </arrival>
        <arrival publicID="quakeml:service.scedc.caltech.edu/fdsnws/event/1/query?assocaro=266467389">
          <pickID>quakeml:service.scedc.caltech.edu/fdsnws/event/1/query?assocaro=266467389</pickID>
          <phase>S</phase>
          <timeCorrection>0.0</timeCorrection>
          <azimuth>169.0</azimuth>
          <distance>0.2338</distance>
          <takeoffAngle>
            <value>101.0</value>
          </takeoffAngle>
          <timeResidual>-0.09</timeResidual>
          <timeWeight>0.05</timeWeight>
          <creationInfo>
            <agencyID>CI</agencyID>
            <creationTime>2025-01-17T20:10:10.000000Z</creationTime>
          </creationInfo>
        </arrival>
        <arrival publicID="quakeml:service.scedc.caltech.edu/fdsnws/event/1/query?assocaro=266467397">
          <pickID>quakeml:service.scedc.caltech.edu/fdsnws/event/1/query?assocaro=266467397</pickID>
          <phase>P</phase>
          <timeCorrection>0.0</timeCorrection>
          <azimuth>212.0</azimuth>
          <distance>0.2384</distance>
          <takeoffAngle>
            <value>101.0</value>
          </takeoffAngle>
          <timeResidual>0.3</timeResidual>
          <timeWeight>0.05</timeWeight>
          <creationInfo>
            <agencyID>CI</agencyID>
            <creationTime>2025-01-17T20:10:10.000000Z</creationTime>
          </creationInfo>
        </arrival>
        <arrival publicID="quakeml:service.scedc.caltech.edu/fdsnws/event/1/query?assocaro=266467405">
          <pickID>quakeml:service.scedc.caltech.edu/fdsnws/event/1/query?assocaro=266467405</pickID>
          <phase>S</phase>
          <timeCorrection>0.0</timeCorrection>
          <azimuth>212.0</azimuth>
          <distance>0.2384</distance>
          <takeoffAngle>
            <value>101.0</value>
          </takeoffAngle>
          <timeResidual>0.43</timeResidual>
          <timeWeight>0.05</timeWeight>
          <creationInfo>
            <agencyID>CI</agencyID>
            <creationTime>2025-01-17T20:10:10.000000Z</creationTime>
          </creationInfo>
        </arrival>
        <arrival publicID="quakeml:service.scedc.caltech.edu/fdsnws/event/1/query?assocaro=266467413">
          <pickID>quakeml:service.scedc.caltech.edu/fdsnws/event/1/query?assocaro=266467413</pickID>
          <phase>P</phase>
          <timeCorrection>0.04</timeCorrection>
          <azimuth>18.0</azimuth>
          <distance>0.2518</distance>
          <takeoffAngle>
            <value>100.0</value>
          </takeoffAngle>
          <timeResidual>-0.08</timeResidual>
          <timeWeight>0.16</timeWeight>
          <creationInfo>
            <agencyID>CI</agencyID>
            <creationTime>2025-01-17T20:10:10.000000Z</creationTime>
          </creationInfo>
        </arrival>
        <arrival publicID="quakeml:service.scedc.caltech.edu/fdsnws/event/1/query?assocaro=266467421">
          <pickID>quakeml:service.scedc.caltech.edu/fdsnws/event/1/query?assocaro=266467421</pickID>
          <phase>S</phase>
          <timeCorrection>-0.05</timeCorrection>
          <azimuth>18.0</azimuth>
          <distance>0.2518</distance>
          <takeoffAngle>
            <value>100.0</value>
          </takeoffAngle>
          <timeResidual>0.17</timeResidual>
          <timeWeight>0.05</timeWeight>
          <creationInfo>
            <agencyID>CI</agencyID>
            <creationTime>2025-01-17T20:10:10.000000Z</creationTime>
          </creationInfo>
        </arrival>
        <arrival publicID="quakeml:service.scedc.caltech.edu/fdsnws/event/1/query?assocaro=266467429">
          <pickID>quakeml:service.scedc.caltech.edu/fdsnws/event/1/query?assocaro=266467429</pickID>
          <phase>P</phase>
          <timeCorrection>0.0</timeCorrection>
          <azimuth>221.0</azimuth>
          <distance>0.2816</distance>
          <takeoffAngle>
            <value>98.0</value>
          </takeoffAngle>
          <timeResidual>0.42</timeResidual>
          <timeWeight>0.11</timeWeight>
          <creationInfo>
            <agencyID>CI</agencyID>
            <creationTime>2025-01-17T20:10:10.000000Z</creationTime>
          </creationInfo>
        </arrival>
        <arrival publicID="quakeml:service.scedc.caltech.edu/fdsnws/event/1/query?assocaro=266467437">
          <pickID>quakeml:service.scedc.caltech.edu/fdsnws/event/1/query?assocaro=266467437</pickID>
          <phase>S</phase>
          <timeCorrection>0.0</timeCorrection>
          <azimuth>221.0</azimuth>
          <distance>0.2816</distance>
          <takeoffAngle>
            <value>98.0</value>
          </takeoffAngle>
          <timeResidual>1.01</timeResidual>
          <timeWeight>0.02</timeWeight>
          <creationInfo>
            <agencyID>CI</agencyID>
            <creationTime>2025-01-17T20:10:10.000000Z</creationTime>
          </creationInfo>
        </arrival>
        <arrival publicID="quakeml:service.scedc.caltech.edu/fdsnws/event/1/query?assocaro=266467445">
