<?xml version='1.0' encoding='utf-8'?>
<q:quakeml xmlns="http://quakeml.org/xmlns/bed/1.2" xmlns:q="http://quakeml.org/xmlns/quakeml/1.2" xmlns:ns0="http://anss.org/xmlns/catalog/0.1">
  <eventParameters publicID="smi:local/1e0beaf0-574c-4fee-a403-34c5ec702378">
    <event publicID="quakeml:service.scedc.caltech.edu/fdsnws/event/1/query?eventid=40832975" ns0:datasource="ci" ns0:dataid="ci40832975" ns0:eventsource="ci" ns0:eventid="40832975">
      <preferredOriginID>quakeml:service.scedc.caltech.edu/fdsnws/event/1/query?originid=108873036</preferredOriginID>
      <preferredMagnitudeID>quakeml:service.scedc.caltech.edu/fdsnws/event/1/query?magnitudeid=111258908</preferredMagnitudeID>
      <type>earthquake</type>
      <creationInfo>
        <agencyID>CI</agencyID>
        <agencyURI>quakeml:doi.org/10.7909/C3WD3xH1</agencyURI>
        <creationTime>2025-01-06T20:10:57.000000Z</creationTime>
        <version>6</version>
      </creationInfo>
      <origin publicID="quakeml:service.scedc.caltech.edu/fdsnws/event/1/query?originid=108873036" ns0:datasource="ci" ns0:dataid="ci40832975" ns0:eventsource="ci" ns0:eventid="40832975">
        <time>
          <value>2025-01-03T10:32:13.530000Z</value>
        </time>
        <latitude>
          <value>32.3355</value>
        </latitude>
        <longitude>
          <value>-115.3918333</value>
        </longitude>
        <depth>
          <value>240.0</value>
          <uncertainty>510.0</uncertainty>
        </depth>
        <depthType>from location</depthType>
        <timeFixed>false</timeFixed>
        <epicenterFixed>false</epicenterFixed>
        <methodID>smi:ci.anss.org/origin/HYP2000</methodID>
        <quality>
          <associatedPhaseCount>38</associatedPhaseCount>
          <usedPhaseCount>36</usedPhaseCount>
          <associatedStationCount>22</associatedStationCount>
          <usedStationCount>22</usedStationCount>
          <standardError>0.16</standardError>
          <azimuthalGap>106.0</azimuthalGap>
          <secondaryAzimuthalGap>394.0</secondaryAzimuthalGap>
          <minimumDistance>0.2079</minimumDistance>
          <maximumDistance>1.208</maximumDistance>
          <medianDistance>0.5374</medianDistance>
        </quality>
        <type>hypocenter</type>
        <evaluationMode>manual</evaluationMode>
        <evaluationStatus>final</evaluationStatus>
        <creationInfo>
          <agencyID>CI</agencyID>
          <creationTime>2025-01-06T20:10:57.000000Z</creationTime>
        </creationInfo>
        <originUncertainty>
          <preferredDescription>confidence ellipsoid</preferredDescription>
          <horizontalUncertainty>250.0</horizontalUncertainty>
          <confidenceLevel>95.0</confidenceLevel>
          <confidenceEllipsoid>
            <semiMajorAxisLength>1248.0</semiMajorAxisLength>
            <semiMinorAxisLength>336.0</semiMinorAxisLength>
            <semiIntermediateAxisLength>600.0</semiIntermediateAxisLength>
            <majorAxisPlunge>82.0</majorAxisPlunge>
            <majorAxisAzimuth>87.0</majorAxisAzimuth>
            <majorAxisRotation>294.0</majorAxisRotation>
          </confidenceEllipsoid>
        </originUncertainty>
        <arrival publicID="quakeml:service.scedc.caltech.edu/fdsnws/event/1/query?assocaro=266242501">
          <pickID>quakeml:service.scedc.caltech.edu/fdsnws/event/1/query?assocaro=266242501</pickID>
          <phase>P</phase>
          <timeCorrection>0.0</timeCorrection>
          <azimuth>109.6</azimuth>
          <distance>0.2079</distance>
          <takeoffAngle>
            <value>90.0</value>
          </takeoffAngle>
          <timeResidual>-0.04</timeResidual>
          <timeWeight>0.21</timeWeight>
          <creationInfo>
            <agencyID>CI</agencyID>
            <creationTime>2025-01-06T20:10:57.000000Z</creationTime>
          </creationInfo>
        </arrival>
        <arrival publicID="quakeml:service.scedc.caltech.edu/fdsnws/event/1/query?assocaro=266242541">
          <pickID>quakeml:service.scedc.caltech.edu/fdsnws/event/1/query?assocaro=266242541</pickID>
          <phase>P</phase>
          <timeCorrection>0.25</timeCorrection>
          <azimuth>96.9</azimuth>
          <distance>0.2694</distance>
          <takeoffAngle>
            <value>60.0</value>
          </takeoffAngle>
          <timeResidual>-0.05</timeResidual>
          <timeWeight>0.29</timeWeight>
          <creationInfo>
            <agencyID>CI</agencyID>
            <creationTime>2025-01-06T20:10:57.000000Z</creationTime>
          </creationInfo>
        </arrival>
        <arrival publicID="quakeml:service.scedc.caltech.edu/fdsnws/event/1/query?assocaro=266242565">
          <pickID>quakeml:service.scedc.caltech.edu/fdsnws/event/1/query?assocaro=266242565</pickID>
          <phase>S</phase>
          <timeCorrection>0.0</timeCorrection>
          <azimuth>74.6</azimuth>
          <distance>0.3743</distance>
          <takeoffAngle>
            <value>56.0</value>
          </takeoffAngle>
          <timeResidual>0.58</timeResidual>
          <timeWeight>0.07</timeWeight>
          <creationInfo>
            <agencyID>CI</agencyID>
            <creationTime>2025-01-06T20:10:57.000000Z</creationTime>
          </creationInfo>
        </arrival>
        <arrival publicID="quakeml:service.scedc.caltech.edu/fdsnws/event/1/query?assocaro=266242589">
          <pickID>quakeml:service.scedc.caltech.edu/fdsnws/event/1/query?assocaro=266242589</pickID>
          <phase>P</phase>
          <timeCorrection>0.0</timeCorrection>
          <azimuth>219.3</azimuth>
          <distance>0.4231</distance>
          <takeoffAngle>
            <value>56.0</value>
          </takeoffAngle>
          <timeResidual>-0.06</timeResidual>
          <timeWeight>0.21</timeWeight>
          <creationInfo>
            <agencyID>CI</agencyID>
            <creationTime>2025-01-06T20:10:57.000000Z</creationTime>
          </creationInfo>
        </arrival>
        <arrival publicID="quakeml:service.scedc.caltech.edu/fdsnws/event/1/query?assocaro=266242677">
          <pickID>quakeml:service.scedc.caltech.edu/fdsnws/event/1/query?assocaro=266242677</pickID>
          <phase>S</phase>
          <timeCorrection>-0.25</timeCorrection>
          <azimuth>235.1</azimuth>
          <distance>0.5755</distance>
          <takeoffAngle>
            <value>56.0</value>
          </takeoffAngle>
          <timeResidual>-0.04</timeResidual>
          <timeWeight>0.07</timeWeight>
          <creationInfo>
            <agencyID>CI</agencyID>
            <creationTime>2025-01-06T20:10:57.000000Z</creationTime>
          </creationInfo>
        </arrival>
        <arrival publicID="quakeml:service.scedc.caltech.edu/fdsnws/event/1/query?assocaro=424250228">
          <pickID>quakeml:service.scedc.caltech.edu/fdsnws/event/1/query?assocaro=424250228</pickID>
          <phase>S</phase>
          <timeCorrection>0.0</timeCorrection>
          <azimuth>109.6</azimuth>
          <distance>0.2079</distance>
          <takeoffAngle>
            <value>90.0</value>
          </takeoffAngle>
          <timeResidual>0.0</timeResidual>
          <timeWeight>0.07</timeWeight>
          <creationInfo>
            <agencyID>CI</agencyID>
            <creationTime>2025-01-06T20:10:57.000000Z</creationTime>
          </creationInfo>
        </arrival>
        <arrival publicID="quakeml:service.scedc.caltech.edu/fdsnws/event/1/query?assocaro=424250236">
          <pickID>quakeml:service.scedc.caltech.edu/fdsnws/event/1/query?assocaro=424250236</pickID>
          <phase>P</phase>
          <timeCorrection>0.0</timeCorrection>
          <azimuth>321.7</azimuth>
          <distance>0.2577</distance>
          <takeoffAngle>
            <value>90.0</value>
          </takeoffAngle>
          <timeResidual>0.29</timeResidual>
          <timeWeight>0.14</timeWeight>
          <creationInfo>
            <agencyID>CI</agencyID>
            <creationTime>2025-01-06T20:10:57.000000Z</creationTime>
          </creationInfo>
        </arrival>
        <arrival publicID="quakeml:service.scedc.caltech.edu/fdsnws/event/1/query?assocaro=424250244">
          <pickID>quakeml:service.scedc.caltech.edu/fdsnws/event/1/query?assocaro=424250244</pickID>
          <phase>S</phase>
          <timeCorrection>0.0</timeCorrection>
          <azimuth>321.7</azimuth>
          <distance>0.2577</distance>
          <takeoffAngle>
            <value>90.0</value>
          </takeoffAngle>
          <timeResidual>-0.04</timeResidual>
          <timeWeight>0.07</timeWeight>
          <creationInfo>
            <agencyID>CI</agencyID>
            <creationTime>2025-01-06T20:10:57.000000Z</creationTime>
          </creationInfo>
        </arrival>
        <arrival publicID="quakeml:service.scedc.caltech.edu/fdsnws/event/1/query?assocaro=424250252">
          <pickID>quakeml:service.scedc.caltech.edu/fdsnws/event/1/query?assocaro=424250252</pickID>
          <phase>S</phase>
          <timeCorrection>0.0</timeCorrection>
          <azimuth>64.7</azimuth>
          <distance>0.2643</distance>
          <takeoffAngle>
            <value>90.0</value>
          </takeoffAngle>
          <timeResidual>-0.54</timeResidual>
          <timeWeight>0.03</timeWeight>
          <creationInfo>
            <agencyID>CI</agencyID>
            <creationTime>2025-01-06T20:10:57.000000Z</creationTime>
          </creationInfo>
        </arrival>
        <arrival publicID="quakeml:service.scedc.caltech.edu/fdsnws/event/1/query?assocaro=424250260">
          <pickID>quakeml:service.scedc.caltech.edu/fdsnws/event/1/query?assocaro=424250260</pickID>
          <phase>S</phase>
          <timeCorrection>0.52</timeCorrection>
          <azimuth>96.9</azimuth>
          <distance>0.2694</distance>
          <takeoffAngle>
            <value>90.0</value>
          </takeoffAngle>
          <timeResidual>0.06</timeResidual>
          <timeWeight>0.04</timeWeight>
          <creationInfo>
            <agencyID>CI</agencyID>
            <creationTime>2025-01-06T20:10:57.000000Z</creationTime>
          </creationInfo>
        </arrival>
        <arrival publicID="quakeml:service.scedc.caltech.edu/fdsnws/event/1/query?assocaro=424250268">
          <pickID>quakeml:service.scedc.caltech.edu/fdsnws/event/1/query?assocaro=424250268</pickID>
          <phase>P</phase>
          <timeCorrection>0.0</timeCorrection>
          <azimuth>74.6</azimuth>
          <distance>0.3743</distance>
          <takeoffAngle>
            <value>56.0</value>
          </takeoffAngle>
          <timeResidual>-0.14</timeResidual>
          <timeWeight>0.14</timeWeight>
          <creationInfo>
            <agencyID>CI</agencyID>
            <creationTime>2025-01-06T20:10:57.000000Z</creationTime>
          </creationInfo>
        </arrival>
        <arrival publicID="quakeml:service.scedc.caltech.edu/fdsnws/event/1/query?assocaro=424250276">
          <pickID>quakeml:service.scedc.caltech.edu/fdsnws/event/1/query?assocaro=424250276</pickID>
          <phase>P</phase>
          <timeCorrection>0.0</timeCorrection>
          <azimuth>114.9</azimuth>
          <distance>0.4018</distance>
          <takeoffAngle>
            <value>56.0</value>
          </takeoffAngle>
          <timeResidual>0.03</timeResidual>
          <timeWeight>0.14</timeWeight>
          <creationInfo>
            <agencyID>CI</agencyID>
            <creationTime>2025-01-06T20:10:57.000000Z</creationTime>
          </creationInfo>
        </arrival>
        <arrival publicID="quakeml:service.scedc.caltech.edu/fdsnws/event/1/query?assocaro=424250284">
          <pickID>quakeml:service.scedc.caltech.edu/fdsnws/event/1/query?assocaro=424250284</pickID>
          <phase>S</phase>
          <timeCorrection>0.0</timeCorrection>
          <azimuth>114.9</azimuth>
          <distance>0.4018</distance>
          <takeoffAngle>
            <value>56.0</value>
          </takeoffAngle>
          <timeResidual>0.35</timeResidual>
          <timeWeight>0.07</timeWeight>
          <creationInfo>
            <agencyID>CI</agencyID>
            <creationTime>2025-01-06T20:10:57.000000Z</creationTime>
          </creationInfo>
        </arrival>
        <arrival publicID="quakeml:service.scedc.caltech.edu/fdsnws/event/1/query?assocaro=424250292">
          <pickID>quakeml:service.scedc.caltech.edu/fdsnws/event/1/query?assocaro=424250292</pickID>
          <phase>P</phase>
          <timeCorrection>0.05</timeCorrection>
          <azimuth>318.1</azimuth>
          <distance>0.4217</distance>
          <takeoffAngle>
            <value>56.0</value>
          </takeoffAngle>
          <timeResidual>-0.01</timeResidual>
          <timeWeight>0.14</timeWeight>
          <creationInfo>
            <agencyID>CI</agencyID>
            <creationTime>2025-01-06T20:10:57.000000Z</creationTime>
          </creationInfo>
        </arrival>
        <arrival publicID="quakeml:service.scedc.caltech.edu/fdsnws/event/1/query?assocaro=424250300">
          <pickID>quakeml:service.scedc.caltech.edu/fdsnws/event/1/query?assocaro=424250300</pickID>
          <phase>S</phase>
          <timeCorrection>-0.06</timeCorrection>
          <azimuth>318.1</azimuth>
          <distance>0.4217</distance>
          <takeoffAngle>
            <value>56.0</value>
          </takeoffAngle>
          <timeResidual>0.3</timeResidual>
          <timeWeight>0.07</timeWeight>
          <creationInfo>
            <agencyID>CI</agencyID>
            <creationTime>2025-01-06T20:10:57.000000Z</creationTime>
          </creationInfo>
        </arrival>
        <arrival publicID="quakeml:service.scedc.caltech.edu/fdsnws/event/1/query?assocaro=424250308">
          <pickID>quakeml:service.scedc.caltech.edu/fdsnws/event/1/query?assocaro=424250308</pickID>
          <phase>S</phase>
          <timeCorrection>0.0</timeCorrection>
          <azimuth>219.3</azimuth>
          <distance>0.4231</distance>
          <takeoffAngle>
            <value>56.0</value>
          </takeoffAngle>
          <timeResidual>-0.39</timeResidual>
          <timeWeight>0.04</timeWeight>
          <creationInfo>
            <agencyID>CI</agencyID>
            <creationTime>2025-01-06T20:10:57.000000Z</creationTime>
          </creationInfo>
        </arrival>
        <arrival publicID="quakeml:service.scedc.caltech.edu/fdsnws/event/1/query?assocaro=424250316">
          <pickID>quakeml:service.scedc.caltech.edu/fdsnws/event/1/query?assocaro=424250316</pickID>
          <phase>P</phase>
          <timeCorrection>0.49</timeCorrection>
          <azimuth>354.4</azimuth>
          <distance>0.4708</distance>
          <takeoffAngle>
            <value>56.0</value>
          </takeoffAngle>
          <timeResidual>0.52</timeResidual>
          <timeWeight>0.07</timeWeight>
          <creationInfo>
            <agencyID>CI</agencyID>
            <creationTime>2025-01-06T20:10:57.000000Z</creationTime>
          </creationInfo>
        </arrival>
        <arrival publicID="quakeml:service.scedc.caltech.edu/fdsnws/event/1/query?assocaro=424250324">
          <pickID>quakeml:service.scedc.caltech.edu/fdsnws/event/1/query?assocaro=424250324</pickID>
          <phase>S</phase>
          <timeCorrection>1.03</timeCorrection>
          <azimuth>354.4</azimuth>
          <distance>0.4708</distance>
          <takeoffAngle>
            <value>56.0</value>
          </takeoffAngle>
          <timeResidual>1.51</timeResidual>
          <timeWeight>0.0</timeWeight>
          <creationInfo>
            <agencyID>CI</agencyID>
            <creationTime>2025-01-06T20:10:57.000000Z</creationTime>
          </creationInfo>
        </arrival>
        <arrival publicID="quakeml:service.scedc.caltech.edu/fdsnws/event/1/query?assocaro=424250332">
          <pickID>quakeml:service.scedc.caltech.edu/fdsnws/event/1/query?assocaro=424250332</pickID>
          <phase>P</phase>
          <timeCorrection>0.37</timeCorrection>
          <azimuth>356.0</azimuth>
          <distance>0.5262</distance>
          <takeoffAngle>
            <value>56.0</value>
          </takeoffAngle>
          <timeResidual>-0.04</timeResidual>
          <timeWeight>0.14</timeWeight>
          <creationInfo>
            <agencyID>CI</agencyID>
            <creationTime>2025-01-06T20:10:57.000000Z</creationTime>
          </creationInfo>
        </arrival>
        <arrival publicID="quakeml:service.scedc.caltech.edu/fdsnws/event/1/query?assocaro=424250340">
          <pickID>quakeml:service.scedc.caltech.edu/fdsnws/event/1/query?assocaro=424250340</pickID>
          <phase>S</phase>
          <timeCorrection>0.69</timeCorrection>
          <azimuth>356.0</azimuth>
          <distance>0.5262</distance>
          <takeoffAngle>
            <value>56.0</value>
          </takeoffAngle>
          <timeResidual>1.34</timeResidual>
          <timeWeight>0.0</timeWeight>
          <creationInfo>
            <agencyID>CI</agencyID>
            <creationTime>2025-01-06T20:10:57.000000Z</creationTime>
          </creationInfo>
        </arrival>
        <arrival publicID="quakeml:service.scedc.caltech.edu/fdsnws/event/1/query?assocaro=424250348">
          <pickID>quakeml:service.scedc.caltech.edu/fdsnws/event/1/query?assocaro=424250348</pickID>
          <phase>S</phase>
          <timeCorrection>0.28</timeCorrection>
          <azimuth>40.2</azimuth>
          <distance>0.5292</distance>
          <takeoffAngle>
            <value>56.0</value>
          </takeoffAngle>
          <timeResidual>-0.06</timeResidual>
          <timeWeight>0.04</timeWeight>
          <creationInfo>
            <agencyID>CI</agencyID>
            <creationTime>2025-01-06T20:10:57.000000Z</creationTime>
          </creationInfo>
        </arrival>
        <arrival publicID="quakeml:service.scedc.caltech.edu/fdsnws/event/1/query?assocaro=424250356">
          <pickID>quakeml:service.scedc.caltech.edu/fdsnws/event/1/query?assocaro=424250356</pickID>
          <phase>P</phase>
          <timeCorrection>-0.06</timeCorrection>
          <azimuth>305.0</azimuth>
          <distance>0.5457</distance>
          <takeoffAngle>
            <value>56.0</value>
          </takeoffAngle>
          <timeResidual>-0.09</timeResidual>
          <timeWeight>0.21</timeWeight>
          <creationInfo>
            <agencyID>CI</agencyID>
            <creationTime>2025-01-06T20:10:57.000000Z</creationTime>
          </creationInfo>
        </arrival>
        <arrival publicID="quakeml:service.scedc.caltech.edu/fdsnws/event/1/query?assocaro=424250364">
          <pickID>quakeml:service.scedc.caltech.edu/fdsnws/event/1/query?assocaro=424250364</pickID>
          <phase>S</phase>
          <timeCorrection>-0.27</timeCorrection>
          <azimuth>305.0</azimuth>
          <distance>0.5457</distance>
          <takeoffAngle>
            <value>56.0</value>
          </takeoffAngle>
          <timeResidual>0.06</timeResidual>
          <timeWeight>0.07</timeWeight>
          <creationInfo>
            <agencyID>CI</agencyID>
            <creationTime>2025-01-06T20:10:57.000000Z</creationTime>
          </creationInfo>
        </arrival>
        <arrival publicID="quakeml:service.scedc.caltech.edu/fdsnws/event/1/query?assocaro=424250372">
          <pickID>quakeml:service.scedc.caltech.edu/fdsnws/event/1/query?assocaro=424250372</pickID>
          <phase>P</phase>
          <timeCorrection>-0.22</timeCorrection>
          <azimuth>235.1</azimuth>
          <distance>0.5755</distance>
          <takeoffAngle>
            <value>56.0</value>
          </takeoffAngle>
          <timeResidual>0.2</timeResidual>
          <timeWeight>0.21</timeWeight>
          <creationInfo>
            <agencyID>CI</agencyID>
            <creationTime>2025-01-06T20:10:57.000000Z</creationTime>
          </creationInfo>
        </arrival>
        <arrival publicID="quakeml:service.scedc.caltech.edu/fdsnws/event/1/query?assocaro=424250380">
