<?xml version='1.0' encoding='utf-8'?>
<q:quakeml xmlns="http://quakeml.org/xmlns/bed/1.2" xmlns:q="http://quakeml.org/xmlns/quakeml/1.2" xmlns:ns0="http://anss.org/xmlns/catalog/0.1">
  <eventParameters publicID="smi:local/767c07f9-6c59-48aa-aedc-b0ba56b6495e">
    <event publicID="quakeml:service.scedc.caltech.edu/fdsnws/event/1/query?eventid=40833959" ns0:datasource="ci" ns0:dataid="ci40833959" ns0:eventsource="ci" ns0:eventid="40833959">
      <preferredOriginID>quakeml:service.scedc.caltech.edu/fdsnws/event/1/query?originid=108873172</preferredOriginID>
      <preferredMagnitudeID>quakeml:service.scedc.caltech.edu/fdsnws/event/1/query?magnitudeid=111259044</preferredMagnitudeID>
      <type>earthquake</type>
      <creationInfo>
        <agencyID>CI</agencyID>
        <agencyURI>quakeml:doi.org/10.7909/C3WD3xH1</agencyURI>
        <creationTime>2025-01-06T21:55:46.000000Z</creationTime>
        <version>6</version>
      </creationInfo>
      <origin publicID="quakeml:service.scedc.caltech.edu/fdsnws/event/1/query?originid=108873172" ns0:datasource="ci" ns0:dataid="ci40833959" ns0:eventsource="ci" ns0:eventid="40833959">
        <time>
          <value>2025-01-05T02:42:02.680000Z</value>
        </time>
        <latitude>
          <value>32.7711667</value>
        </latitude>
        <longitude>
          <value>-115.7278333</value>
        </longitude>
        <depth>
          <value>720.0</value>
          <uncertainty>480.0</uncertainty>
        </depth>
        <depthType>from location</depthType>
        <timeFixed>false</timeFixed>
        <epicenterFixed>false</epicenterFixed>
        <methodID>smi:ci.anss.org/origin/HYP2000</methodID>
        <quality>
          <associatedPhaseCount>34</associatedPhaseCount>
          <usedPhaseCount>31</usedPhaseCount>
          <associatedStationCount>23</associatedStationCount>
          <usedStationCount>23</usedStationCount>
          <standardError>0.2</standardError>
          <azimuthalGap>80.0</azimuthalGap>
          <secondaryAzimuthalGap>445.0</secondaryAzimuthalGap>
          <minimumDistance>0.07914</minimumDistance>
          <maximumDistance>0.9042</maximumDistance>
          <medianDistance>0.3436</medianDistance>
        </quality>
        <type>hypocenter</type>
        <evaluationMode>manual</evaluationMode>
        <evaluationStatus>final</evaluationStatus>
        <creationInfo>
          <agencyID>CI</agencyID>
          <creationTime>2025-01-06T21:55:46.000000Z</creationTime>
        </creationInfo>
        <originUncertainty>
          <preferredDescription>confidence ellipsoid</preferredDescription>
          <horizontalUncertainty>260.0</horizontalUncertainty>
          <confidenceLevel>95.0</confidenceLevel>
          <confidenceEllipsoid>
            <semiMajorAxisLength>1176.0</semiMajorAxisLength>
            <semiMinorAxisLength>528.0</semiMinorAxisLength>
            <semiIntermediateAxisLength>624.0</semiIntermediateAxisLength>
            <majorAxisPlunge>79.0</majorAxisPlunge>
            <majorAxisAzimuth>92.0</majorAxisAzimuth>
            <majorAxisRotation>62.0</majorAxisRotation>
          </confidenceEllipsoid>
        </originUncertainty>
        <arrival publicID="quakeml:service.scedc.caltech.edu/fdsnws/event/1/query?assocaro=266265021">
          <pickID>quakeml:service.scedc.caltech.edu/fdsnws/event/1/query?assocaro=266265021</pickID>
          <phase>P</phase>
          <timeCorrection>0.33</timeCorrection>
          <azimuth>359.7</azimuth>
          <distance>0.07914</distance>
          <takeoffAngle>
            <value>94.0</value>
          </takeoffAngle>
          <timeResidual>0.08</timeResidual>
          <timeWeight>0.29</timeWeight>
          <creationInfo>
            <agencyID>CI</agencyID>
            <creationTime>2025-01-06T21:55:46.000000Z</creationTime>
          </creationInfo>
        </arrival>
        <arrival publicID="quakeml:service.scedc.caltech.edu/fdsnws/event/1/query?assocaro=424254932">
          <pickID>quakeml:service.scedc.caltech.edu/fdsnws/event/1/query?assocaro=424254932</pickID>
          <phase>S</phase>
          <timeCorrection>0.33</timeCorrection>
          <azimuth>359.7</azimuth>
          <distance>0.07914</distance>
          <takeoffAngle>
            <value>94.0</value>
          </takeoffAngle>
          <timeResidual>1.34</timeResidual>
          <timeWeight>0.0</timeWeight>
          <creationInfo>
            <agencyID>CI</agencyID>
            <creationTime>2025-01-06T21:55:46.000000Z</creationTime>
          </creationInfo>
        </arrival>
        <arrival publicID="quakeml:service.scedc.caltech.edu/fdsnws/event/1/query?assocaro=424254940">
          <pickID>quakeml:service.scedc.caltech.edu/fdsnws/event/1/query?assocaro=424254940</pickID>
          <phase>P</phase>
          <timeCorrection>0.0</timeCorrection>
          <azimuth>93.7</azimuth>
          <distance>0.09029</distance>
          <takeoffAngle>
            <value>94.0</value>
          </takeoffAngle>
          <timeResidual>0.12</timeResidual>
          <timeWeight>0.14</timeWeight>
          <creationInfo>
            <agencyID>CI</agencyID>
            <creationTime>2025-01-06T21:55:46.000000Z</creationTime>
          </creationInfo>
        </arrival>
        <arrival publicID="quakeml:service.scedc.caltech.edu/fdsnws/event/1/query?assocaro=424254948">
          <pickID>quakeml:service.scedc.caltech.edu/fdsnws/event/1/query?assocaro=424254948</pickID>
          <phase>S</phase>
          <timeCorrection>0.0</timeCorrection>
          <azimuth>93.7</azimuth>
          <distance>0.09029</distance>
          <takeoffAngle>
            <value>94.0</value>
          </takeoffAngle>
          <timeResidual>1.61</timeResidual>
          <timeWeight>0.0</timeWeight>
          <creationInfo>
            <agencyID>CI</agencyID>
            <creationTime>2025-01-06T21:55:46.000000Z</creationTime>
          </creationInfo>
        </arrival>
        <arrival publicID="quakeml:service.scedc.caltech.edu/fdsnws/event/1/query?assocaro=424254956">
          <pickID>quakeml:service.scedc.caltech.edu/fdsnws/event/1/query?assocaro=424254956</pickID>
          <phase>P</phase>
          <timeCorrection>0.0</timeCorrection>
          <azimuth>99.9</azimuth>
          <distance>0.1135</distance>
          <takeoffAngle>
            <value>93.0</value>
          </takeoffAngle>
          <timeResidual>0.17</timeResidual>
          <timeWeight>0.14</timeWeight>
          <creationInfo>
            <agencyID>CI</agencyID>
            <creationTime>2025-01-06T21:55:46.000000Z</creationTime>
          </creationInfo>
        </arrival>
        <arrival publicID="quakeml:service.scedc.caltech.edu/fdsnws/event/1/query?assocaro=424254964">
          <pickID>quakeml:service.scedc.caltech.edu/fdsnws/event/1/query?assocaro=424254964</pickID>
          <phase>S</phase>
          <timeCorrection>0.0</timeCorrection>
          <azimuth>99.9</azimuth>
          <distance>0.1135</distance>
          <takeoffAngle>
            <value>93.0</value>
          </takeoffAngle>
          <timeResidual>1.71</timeResidual>
          <timeWeight>0.0</timeWeight>
          <creationInfo>
            <agencyID>CI</agencyID>
            <creationTime>2025-01-06T21:55:46.000000Z</creationTime>
          </creationInfo>
        </arrival>
        <arrival publicID="quakeml:service.scedc.caltech.edu/fdsnws/event/1/query?assocaro=424254972">
          <pickID>quakeml:service.scedc.caltech.edu/fdsnws/event/1/query?assocaro=424254972</pickID>
          <phase>P</phase>
          <timeCorrection>0.05</timeCorrection>
          <azimuth>179.4</azimuth>
          <distance>0.1215</distance>
          <takeoffAngle>
            <value>93.0</value>
          </takeoffAngle>
          <timeResidual>-0.15</timeResidual>
          <timeWeight>0.14</timeWeight>
          <creationInfo>
            <agencyID>CI</agencyID>
            <creationTime>2025-01-06T21:55:46.000000Z</creationTime>
          </creationInfo>
        </arrival>
        <arrival publicID="quakeml:service.scedc.caltech.edu/fdsnws/event/1/query?assocaro=424254980">
          <pickID>quakeml:service.scedc.caltech.edu/fdsnws/event/1/query?assocaro=424254980</pickID>
          <phase>S</phase>
          <timeCorrection>-0.06</timeCorrection>
          <azimuth>179.4</azimuth>
          <distance>0.1215</distance>
          <takeoffAngle>
            <value>93.0</value>
          </takeoffAngle>
          <timeResidual>0.42</timeResidual>
          <timeWeight>0.07</timeWeight>
          <creationInfo>
            <agencyID>CI</agencyID>
            <creationTime>2025-01-06T21:55:46.000000Z</creationTime>
          </creationInfo>
        </arrival>
        <arrival publicID="quakeml:service.scedc.caltech.edu/fdsnws/event/1/query?assocaro=424254988">
          <pickID>quakeml:service.scedc.caltech.edu/fdsnws/event/1/query?assocaro=424254988</pickID>
          <phase>P</phase>
          <timeCorrection>0.04</timeCorrection>
          <azimuth>340.8</azimuth>
          <distance>0.1837</distance>
          <takeoffAngle>
            <value>92.0</value>
          </takeoffAngle>
          <timeResidual>-0.35</timeResidual>
          <timeWeight>0.14</timeWeight>
          <creationInfo>
            <agencyID>CI</agencyID>
            <creationTime>2025-01-06T21:55:46.000000Z</creationTime>
          </creationInfo>
        </arrival>
        <arrival publicID="quakeml:service.scedc.caltech.edu/fdsnws/event/1/query?assocaro=424254996">
          <pickID>quakeml:service.scedc.caltech.edu/fdsnws/event/1/query?assocaro=424254996</pickID>
          <phase>P</phase>
          <timeCorrection>0.27</timeCorrection>
          <azimuth>47.1</azimuth>
          <distance>0.1915</distance>
          <takeoffAngle>
            <value>92.0</value>
          </takeoffAngle>
          <timeResidual>-0.17</timeResidual>
          <timeWeight>0.14</timeWeight>
          <creationInfo>
            <agencyID>CI</agencyID>
            <creationTime>2025-01-06T21:55:46.000000Z</creationTime>
          </creationInfo>
        </arrival>
        <arrival publicID="quakeml:service.scedc.caltech.edu/fdsnws/event/1/query?assocaro=424255004">
          <pickID>quakeml:service.scedc.caltech.edu/fdsnws/event/1/query?assocaro=424255004</pickID>
          <phase>S</phase>
          <timeCorrection>0.6</timeCorrection>
          <azimuth>47.1</azimuth>
          <distance>0.1915</distance>
          <takeoffAngle>
            <value>92.0</value>
          </takeoffAngle>
          <timeResidual>0.61</timeResidual>
          <timeWeight>0.03</timeWeight>
          <creationInfo>
            <agencyID>CI</agencyID>
            <creationTime>2025-01-06T21:55:46.000000Z</creationTime>
          </creationInfo>
        </arrival>
        <arrival publicID="quakeml:service.scedc.caltech.edu/fdsnws/event/1/query?assocaro=424255012">
          <pickID>quakeml:service.scedc.caltech.edu/fdsnws/event/1/query?assocaro=424255012</pickID>
          <phase>P</phase>
          <timeCorrection>-0.06</timeCorrection>
          <azimuth>233.0</azimuth>
          <distance>0.2051</distance>
          <takeoffAngle>
            <value>91.0</value>
          </takeoffAngle>
          <timeResidual>-0.12</timeResidual>
          <timeWeight>0.14</timeWeight>
          <creationInfo>
            <agencyID>CI</agencyID>
            <creationTime>2025-01-06T21:55:46.000000Z</creationTime>
          </creationInfo>
        </arrival>
        <arrival publicID="quakeml:service.scedc.caltech.edu/fdsnws/event/1/query?assocaro=424255020">
          <pickID>quakeml:service.scedc.caltech.edu/fdsnws/event/1/query?assocaro=424255020</pickID>
          <phase>S</phase>
          <timeCorrection>-0.27</timeCorrection>
          <azimuth>233.0</azimuth>
          <distance>0.2051</distance>
          <takeoffAngle>
            <value>91.0</value>
          </takeoffAngle>
          <timeResidual>0.42</timeResidual>
          <timeWeight>0.07</timeWeight>
          <creationInfo>
            <agencyID>CI</agencyID>
            <creationTime>2025-01-06T21:55:46.000000Z</creationTime>
          </creationInfo>
        </arrival>
        <arrival publicID="quakeml:service.scedc.caltech.edu/fdsnws/event/1/query?assocaro=424255028">
          <pickID>quakeml:service.scedc.caltech.edu/fdsnws/event/1/query?assocaro=424255028</pickID>
          <phase>P</phase>
          <timeCorrection>0.11</timeCorrection>
          <azimuth>299.8</azimuth>
          <distance>0.2336</distance>
          <takeoffAngle>
            <value>91.0</value>
          </takeoffAngle>
          <timeResidual>-0.23</timeResidual>
          <timeWeight>0.14</timeWeight>
          <creationInfo>
            <agencyID>CI</agencyID>
            <creationTime>2025-01-06T21:55:46.000000Z</creationTime>
          </creationInfo>
        </arrival>
        <arrival publicID="quakeml:service.scedc.caltech.edu/fdsnws/event/1/query?assocaro=424255036">
          <pickID>quakeml:service.scedc.caltech.edu/fdsnws/event/1/query?assocaro=424255036</pickID>
          <phase>S</phase>
          <timeCorrection>-0.04</timeCorrection>
          <azimuth>299.8</azimuth>
          <distance>0.2336</distance>
          <takeoffAngle>
            <value>91.0</value>
          </takeoffAngle>
          <timeResidual>0.33</timeResidual>
          <timeWeight>0.07</timeWeight>
          <creationInfo>
            <agencyID>CI</agencyID>
            <creationTime>2025-01-06T21:55:46.000000Z</creationTime>
          </creationInfo>
        </arrival>
        <arrival publicID="quakeml:service.scedc.caltech.edu/fdsnws/event/1/query?assocaro=424255044">
          <pickID>quakeml:service.scedc.caltech.edu/fdsnws/event/1/query?assocaro=424255044</pickID>
          <phase>P</phase>
          <timeCorrection>0.0</timeCorrection>
          <azimuth>264.6</azimuth>
          <distance>0.2467</distance>
          <takeoffAngle>
            <value>91.0</value>
          </takeoffAngle>
          <timeResidual>0.38</timeResidual>
          <timeWeight>0.14</timeWeight>
          <creationInfo>
            <agencyID>CI</agencyID>
            <creationTime>2025-01-06T21:55:46.000000Z</creationTime>
          </creationInfo>
        </arrival>
        <arrival publicID="quakeml:service.scedc.caltech.edu/fdsnws/event/1/query?assocaro=424255052">
          <pickID>quakeml:service.scedc.caltech.edu/fdsnws/event/1/query?assocaro=424255052</pickID>
          <phase>S</phase>
          <timeCorrection>0.0</timeCorrection>
          <azimuth>264.6</azimuth>
          <distance>0.2467</distance>
          <takeoffAngle>
            <value>91.0</value>
          </takeoffAngle>
          <timeResidual>1.21</timeResidual>
          <timeWeight>0.0</timeWeight>
          <creationInfo>
            <agencyID>CI</agencyID>
            <creationTime>2025-01-06T21:55:46.000000Z</creationTime>
          </creationInfo>
        </arrival>
        <arrival publicID="quakeml:service.scedc.caltech.edu/fdsnws/event/1/query?assocaro=424255060">
          <pickID>quakeml:service.scedc.caltech.edu/fdsnws/event/1/query?assocaro=424255060</pickID>
          <phase>P</phase>
          <timeCorrection>0.37</timeCorrection>
          <azimuth>69.6</azimuth>
          <distance>0.2618</distance>
          <takeoffAngle>
            <value>60.0</value>
          </takeoffAngle>
          <timeResidual>-0.38</timeResidual>
          <timeWeight>0.14</timeWeight>
          <creationInfo>
            <agencyID>CI</agencyID>
            <creationTime>2025-01-06T21:55:46.000000Z</creationTime>
          </creationInfo>
        </arrival>
        <arrival publicID="quakeml:service.scedc.caltech.edu/fdsnws/event/1/query?assocaro=424255068">
          <pickID>quakeml:service.scedc.caltech.edu/fdsnws/event/1/query?assocaro=424255068</pickID>
          <phase>P</phase>
          <timeCorrection>0.0</timeCorrection>
          <azimuth>273.9</azimuth>
          <distance>0.3118</distance>
          <takeoffAngle>
            <value>60.0</value>
          </takeoffAngle>
          <timeResidual>-0.03</timeResidual>
          <timeWeight>0.14</timeWeight>
          <creationInfo>
            <agencyID>CI</agencyID>
            <creationTime>2025-01-06T21:55:46.000000Z</creationTime>
          </creationInfo>
        </arrival>
        <arrival publicID="quakeml:service.scedc.caltech.edu/fdsnws/event/1/query?assocaro=424255076">
          <pickID>quakeml:service.scedc.caltech.edu/fdsnws/event/1/query?assocaro=424255076</pickID>
          <phase>S</phase>
          <timeCorrection>0.0</timeCorrection>
          <azimuth>273.9</azimuth>
          <distance>0.3118</distance>
          <takeoffAngle>
            <value>61.0</value>
          </takeoffAngle>
          <timeResidual>0.22</timeResidual>
          <timeWeight>0.07</timeWeight>
          <creationInfo>
            <agencyID>CI</agencyID>
            <creationTime>2025-01-06T21:55:46.000000Z</creationTime>
          </creationInfo>
        </arrival>
        <arrival publicID="quakeml:service.scedc.caltech.edu/fdsnws/event/1/query?assocaro=424255084">
          <pickID>quakeml:service.scedc.caltech.edu/fdsnws/event/1/query?assocaro=424255084</pickID>
          <phase>P</phase>
          <timeCorrection>-0.01</timeCorrection>
          <azimuth>249.4</azimuth>
          <distance>0.3436</distance>
          <takeoffAngle>
            <value>60.0</value>
          </takeoffAngle>
          <timeResidual>0.03</timeResidual>
          <timeWeight>0.14</timeWeight>
          <creationInfo>
            <agencyID>CI</agencyID>
            <creationTime>2025-01-06T21:55:46.000000Z</creationTime>
          </creationInfo>
        </arrival>
        <arrival publicID="quakeml:service.scedc.caltech.edu/fdsnws/event/1/query?assocaro=424255092">
          <pickID>quakeml:service.scedc.caltech.edu/fdsnws/event/1/query?assocaro=424255092</pickID>
          <phase>S</phase>
          <timeCorrection>-0.23</timeCorrection>
          <azimuth>249.4</azimuth>
          <distance>0.3436</distance>
          <takeoffAngle>
            <value>56.0</value>
          </takeoffAngle>
          <timeResidual>0.23</timeResidual>
          <timeWeight>0.07</timeWeight>
          <creationInfo>
            <agencyID>CI</agencyID>
            <creationTime>2025-01-06T21:55:46.000000Z</creationTime>
          </creationInfo>
        </arrival>
        <arrival publicID="quakeml:service.scedc.caltech.edu/fdsnws/event/1/query?assocaro=424255100">
          <pickID>quakeml:service.scedc.caltech.edu/fdsnws/event/1/query?assocaro=424255100</pickID>
          <phase>P</phase>
          <timeCorrection>0.0</timeCorrection>
          <azimuth>19.5</azimuth>
          <distance>0.3704</distance>
          <takeoffAngle>
            <value>56.0</value>
          </takeoffAngle>
          <timeResidual>0.21</timeResidual>
          <timeWeight>0.14</timeWeight>
          <creationInfo>
            <agencyID>CI</agencyID>
            <creationTime>2025-01-06T21:55:46.000000Z</creationTime>
          </creationInfo>
        </arrival>
        <arrival publicID="quakeml:service.scedc.caltech.edu/fdsnws/event/1/query?assocaro=424255108">
          <pickID>quakeml:service.scedc.caltech.edu/fdsnws/event/1/query?assocaro=424255108</pickID>
          <phase>P</phase>
          <timeCorrection>0.0</timeCorrection>
          <azimuth>332.5</azimuth>
          <distance>0.4529</distance>
          <takeoffAngle>
            <value>56.0</value>
          </takeoffAngle>
          <timeResidual>0.26</timeResidual>
          <timeWeight>0.14</timeWeight>
          <creationInfo>
            <agencyID>CI</agencyID>
            <creationTime>2025-01-06T21:55:46.000000Z</creationTime>
          </creationInfo>
        </arrival>
        <arrival publicID="quakeml:service.scedc.caltech.edu/fdsnws/event/1/query?assocaro=424255116">
