<?xml version='1.0' encoding='utf-8'?>
<q:quakeml xmlns="http://quakeml.org/xmlns/bed/1.2" xmlns:q="http://quakeml.org/xmlns/quakeml/1.2" xmlns:ns0="http://anss.org/xmlns/catalog/0.1">
  <eventParameters publicID="smi:local/fe547afd-ef3a-439e-bb0c-d7abc40d0aaa">
    <event publicID="quakeml:service.scedc.caltech.edu/fdsnws/event/1/query?eventid=40837087" ns0:datasource="ci" ns0:dataid="ci40837087" ns0:eventsource="ci" ns0:eventid="40837087">
      <preferredOriginID>quakeml:service.scedc.caltech.edu/fdsnws/event/1/query?originid=108874836</preferredOriginID>
      <preferredMagnitudeID>quakeml:service.scedc.caltech.edu/fdsnws/event/1/query?magnitudeid=111260748</preferredMagnitudeID>
      <type>earthquake</type>
      <creationInfo>
        <agencyID>CI</agencyID>
        <agencyURI>quakeml:doi.org/10.7909/C3WD3xH1</agencyURI>
        <creationTime>2025-01-10T19:45:14.000000Z</creationTime>
        <version>5</version>
      </creationInfo>
      <origin publicID="quakeml:service.scedc.caltech.edu/fdsnws/event/1/query?originid=108874836" ns0:datasource="ci" ns0:dataid="ci40837087" ns0:eventsource="ci" ns0:eventid="40837087">
        <time>
          <value>2025-01-10T09:25:18.250000Z</value>
        </time>
        <latitude>
          <value>35.714</value>
        </latitude>
        <longitude>
          <value>-117.5695</value>
        </longitude>
        <depth>
          <value>6520.0</value>
          <uncertainty>710.0</uncertainty>
        </depth>
        <depthType>from location</depthType>
        <timeFixed>false</timeFixed>
        <epicenterFixed>false</epicenterFixed>
        <methodID>smi:ci.anss.org/origin/HYP2000</methodID>
        <quality>
          <associatedPhaseCount>44</associatedPhaseCount>
          <usedPhaseCount>43</usedPhaseCount>
          <associatedStationCount>25</associatedStationCount>
          <usedStationCount>25</usedStationCount>
          <standardError>0.15</standardError>
          <azimuthalGap>64.0</azimuthalGap>
          <secondaryAzimuthalGap>419.0</secondaryAzimuthalGap>
          <minimumDistance>0.09927</minimumDistance>
          <maximumDistance>0.8126</maximumDistance>
          <medianDistance>0.4646</medianDistance>
        </quality>
        <type>hypocenter</type>
        <evaluationMode>manual</evaluationMode>
        <evaluationStatus>final</evaluationStatus>
        <creationInfo>
          <agencyID>CI</agencyID>
          <creationTime>2025-01-10T19:45:14.000000Z</creationTime>
        </creationInfo>
        <originUncertainty>
          <preferredDescription>confidence ellipsoid</preferredDescription>
          <horizontalUncertainty>210.0</horizontalUncertainty>
          <confidenceLevel>95.0</confidenceLevel>
          <confidenceEllipsoid>
            <semiMajorAxisLength>1728.0</semiMajorAxisLength>
            <semiMinorAxisLength>384.0</semiMinorAxisLength>
            <semiIntermediateAxisLength>504.0</semiIntermediateAxisLength>
            <majorAxisPlunge>83.0</majorAxisPlunge>
            <majorAxisAzimuth>125.0</majorAxisAzimuth>
            <majorAxisRotation>63.0</majorAxisRotation>
          </confidenceEllipsoid>
        </originUncertainty>
        <arrival publicID="quakeml:service.scedc.caltech.edu/fdsnws/event/1/query?assocaro=144573383">
          <pickID>quakeml:service.scedc.caltech.edu/fdsnws/event/1/query?assocaro=144573383</pickID>
          <phase>S</phase>
          <timeCorrection>-0.36</timeCorrection>
          <azimuth>266.3</azimuth>
          <distance>0.7381</distance>
          <takeoffAngle>
            <value>79.0</value>
          </takeoffAngle>
          <timeResidual>0.23</timeResidual>
          <timeWeight>0.1</timeWeight>
          <creationInfo>
            <agencyID>CI</agencyID>
            <creationTime>2025-01-10T19:45:14.000000Z</creationTime>
          </creationInfo>
        </arrival>
        <arrival publicID="quakeml:service.scedc.caltech.edu/fdsnws/event/1/query?assocaro=144573527">
          <pickID>quakeml:service.scedc.caltech.edu/fdsnws/event/1/query?assocaro=144573527</pickID>
          <phase>S</phase>
          <timeCorrection>-0.38</timeCorrection>
          <azimuth>268.3</azimuth>
          <distance>0.548</distance>
          <takeoffAngle>
            <value>79.0</value>
          </takeoffAngle>
          <timeResidual>0.16</timeResidual>
          <timeWeight>0.13</timeWeight>
          <creationInfo>
            <agencyID>CI</agencyID>
            <creationTime>2025-01-10T19:45:14.000000Z</creationTime>
          </creationInfo>
        </arrival>
        <arrival publicID="quakeml:service.scedc.caltech.edu/fdsnws/event/1/query?assocaro=424307260">
          <pickID>quakeml:service.scedc.caltech.edu/fdsnws/event/1/query?assocaro=424307260</pickID>
          <phase>P</phase>
          <timeCorrection>0.0</timeCorrection>
          <azimuth>229.1</azimuth>
          <distance>0.09927</distance>
          <takeoffAngle>
            <value>114.0</value>
          </takeoffAngle>
          <timeResidual>-0.05</timeResidual>
          <timeWeight>0.13</timeWeight>
          <creationInfo>
            <agencyID>CI</agencyID>
            <creationTime>2025-01-10T19:45:14.000000Z</creationTime>
          </creationInfo>
        </arrival>
        <arrival publicID="quakeml:service.scedc.caltech.edu/fdsnws/event/1/query?assocaro=424307268">
          <pickID>quakeml:service.scedc.caltech.edu/fdsnws/event/1/query?assocaro=424307268</pickID>
          <phase>S</phase>
          <timeCorrection>0.0</timeCorrection>
          <azimuth>229.1</azimuth>
          <distance>0.09927</distance>
          <takeoffAngle>
            <value>113.0</value>
          </takeoffAngle>
          <timeResidual>0.3</timeResidual>
          <timeWeight>0.06</timeWeight>
          <creationInfo>
            <agencyID>CI</agencyID>
            <creationTime>2025-01-10T19:45:14.000000Z</creationTime>
          </creationInfo>
        </arrival>
        <arrival publicID="quakeml:service.scedc.caltech.edu/fdsnws/event/1/query?assocaro=424307276">
          <pickID>quakeml:service.scedc.caltech.edu/fdsnws/event/1/query?assocaro=424307276</pickID>
          <phase>P</phase>
          <timeCorrection>0.0</timeCorrection>
          <azimuth>112.4</azimuth>
          <distance>0.1283</distance>
          <takeoffAngle>
            <value>106.0</value>
          </takeoffAngle>
          <timeResidual>-0.21</timeResidual>
          <timeWeight>0.19</timeWeight>
          <creationInfo>
            <agencyID>CI</agencyID>
            <creationTime>2025-01-10T19:45:14.000000Z</creationTime>
          </creationInfo>
        </arrival>
        <arrival publicID="quakeml:service.scedc.caltech.edu/fdsnws/event/1/query?assocaro=424307284">
          <pickID>quakeml:service.scedc.caltech.edu/fdsnws/event/1/query?assocaro=424307284</pickID>
          <phase>S</phase>
          <timeCorrection>0.0</timeCorrection>
          <azimuth>112.4</azimuth>
          <distance>0.1283</distance>
          <takeoffAngle>
            <value>105.0</value>
          </takeoffAngle>
          <timeResidual>-0.2</timeResidual>
          <timeWeight>0.06</timeWeight>
          <creationInfo>
            <agencyID>CI</agencyID>
            <creationTime>2025-01-10T19:45:14.000000Z</creationTime>
          </creationInfo>
        </arrival>
        <arrival publicID="quakeml:service.scedc.caltech.edu/fdsnws/event/1/query?assocaro=424307292">
          <pickID>quakeml:service.scedc.caltech.edu/fdsnws/event/1/query?assocaro=424307292</pickID>
          <phase>P</phase>
          <timeCorrection>0.18</timeCorrection>
          <azimuth>261.7</azimuth>
          <distance>0.1489</distance>
          <takeoffAngle>
            <value>102.0</value>
          </takeoffAngle>
          <timeResidual>-0.01</timeResidual>
          <timeWeight>0.13</timeWeight>
          <creationInfo>
            <agencyID>CI</agencyID>
            <creationTime>2025-01-10T19:45:14.000000Z</creationTime>
          </creationInfo>
        </arrival>
        <arrival publicID="quakeml:service.scedc.caltech.edu/fdsnws/event/1/query?assocaro=424307300">
          <pickID>quakeml:service.scedc.caltech.edu/fdsnws/event/1/query?assocaro=424307300</pickID>
          <phase>S</phase>
          <timeCorrection>-0.01</timeCorrection>
          <azimuth>261.7</azimuth>
          <distance>0.1489</distance>
          <takeoffAngle>
            <value>101.0</value>
          </takeoffAngle>
          <timeResidual>0.92</timeResidual>
          <timeWeight>0.05</timeWeight>
          <creationInfo>
            <agencyID>CI</agencyID>
            <creationTime>2025-01-10T19:45:14.000000Z</creationTime>
          </creationInfo>
        </arrival>
        <arrival publicID="quakeml:service.scedc.caltech.edu/fdsnws/event/1/query?assocaro=424307308">
          <pickID>quakeml:service.scedc.caltech.edu/fdsnws/event/1/query?assocaro=424307308</pickID>
          <phase>P</phase>
          <timeCorrection>0.0</timeCorrection>
          <azimuth>207.8</azimuth>
          <distance>0.177</distance>
          <takeoffAngle>
            <value>98.0</value>
          </takeoffAngle>
          <timeResidual>-0.06</timeResidual>
          <timeWeight>0.13</timeWeight>
          <creationInfo>
            <agencyID>CI</agencyID>
            <creationTime>2025-01-10T19:45:14.000000Z</creationTime>
          </creationInfo>
        </arrival>
        <arrival publicID="quakeml:service.scedc.caltech.edu/fdsnws/event/1/query?assocaro=424307316">
          <pickID>quakeml:service.scedc.caltech.edu/fdsnws/event/1/query?assocaro=424307316</pickID>
          <phase>S</phase>
          <timeCorrection>0.0</timeCorrection>
          <azimuth>207.8</azimuth>
          <distance>0.177</distance>
          <takeoffAngle>
            <value>98.0</value>
          </takeoffAngle>
          <timeResidual>0.04</timeResidual>
          <timeWeight>0.06</timeWeight>
          <creationInfo>
            <agencyID>CI</agencyID>
            <creationTime>2025-01-10T19:45:14.000000Z</creationTime>
          </creationInfo>
        </arrival>
        <arrival publicID="quakeml:service.scedc.caltech.edu/fdsnws/event/1/query?assocaro=424307324">
          <pickID>quakeml:service.scedc.caltech.edu/fdsnws/event/1/query?assocaro=424307324</pickID>
          <phase>P</phase>
          <timeCorrection>0.2</timeCorrection>
          <azimuth>300.9</azimuth>
          <distance>0.1848</distance>
          <takeoffAngle>
            <value>97.0</value>
          </takeoffAngle>
          <timeResidual>0.0</timeResidual>
          <timeWeight>0.19</timeWeight>
          <creationInfo>
            <agencyID>CI</agencyID>
            <creationTime>2025-01-10T19:45:14.000000Z</creationTime>
          </creationInfo>
        </arrival>
        <arrival publicID="quakeml:service.scedc.caltech.edu/fdsnws/event/1/query?assocaro=424307332">
          <pickID>quakeml:service.scedc.caltech.edu/fdsnws/event/1/query?assocaro=424307332</pickID>
          <phase>S</phase>
          <timeCorrection>-0.18</timeCorrection>
          <azimuth>300.9</azimuth>
          <distance>0.1848</distance>
          <takeoffAngle>
            <value>97.0</value>
          </takeoffAngle>
          <timeResidual>1.29</timeResidual>
          <timeWeight>0.03</timeWeight>
          <creationInfo>
            <agencyID>CI</agencyID>
            <creationTime>2025-01-10T19:45:14.000000Z</creationTime>
          </creationInfo>
        </arrival>
        <arrival publicID="quakeml:service.scedc.caltech.edu/fdsnws/event/1/query?assocaro=424307340">
          <pickID>quakeml:service.scedc.caltech.edu/fdsnws/event/1/query?assocaro=424307340</pickID>
          <phase>P</phase>
          <timeCorrection>-0.09</timeCorrection>
          <azimuth>201.4</azimuth>
          <distance>0.2513</distance>
          <takeoffAngle>
            <value>94.0</value>
          </takeoffAngle>
          <timeResidual>-0.1</timeResidual>
          <timeWeight>0.13</timeWeight>
          <creationInfo>
            <agencyID>CI</agencyID>
            <creationTime>2025-01-10T19:45:14.000000Z</creationTime>
          </creationInfo>
        </arrival>
        <arrival publicID="quakeml:service.scedc.caltech.edu/fdsnws/event/1/query?assocaro=424307348">
          <pickID>quakeml:service.scedc.caltech.edu/fdsnws/event/1/query?assocaro=424307348</pickID>
          <phase>S</phase>
          <timeCorrection>-0.25</timeCorrection>
          <azimuth>201.4</azimuth>
          <distance>0.2513</distance>
          <takeoffAngle>
            <value>94.0</value>
          </takeoffAngle>
          <timeResidual>0.26</timeResidual>
          <timeWeight>0.06</timeWeight>
          <creationInfo>
            <agencyID>CI</agencyID>
            <creationTime>2025-01-10T19:45:14.000000Z</creationTime>
          </creationInfo>
        </arrival>
        <arrival publicID="quakeml:service.scedc.caltech.edu/fdsnws/event/1/query?assocaro=424307356">
          <pickID>quakeml:service.scedc.caltech.edu/fdsnws/event/1/query?assocaro=424307356</pickID>
          <phase>P</phase>
          <timeCorrection>0.13</timeCorrection>
          <azimuth>138.5</azimuth>
          <distance>0.2519</distance>
          <takeoffAngle>
            <value>94.0</value>
          </takeoffAngle>
          <timeResidual>0.17</timeResidual>
          <timeWeight>0.13</timeWeight>
          <creationInfo>
            <agencyID>CI</agencyID>
            <creationTime>2025-01-10T19:45:14.000000Z</creationTime>
          </creationInfo>
        </arrival>
        <arrival publicID="quakeml:service.scedc.caltech.edu/fdsnws/event/1/query?assocaro=424307364">
          <pickID>quakeml:service.scedc.caltech.edu/fdsnws/event/1/query?assocaro=424307364</pickID>
          <phase>S</phase>
          <timeCorrection>0.11</timeCorrection>
          <azimuth>138.5</azimuth>
          <distance>0.2519</distance>
          <takeoffAngle>
            <value>94.0</value>
          </takeoffAngle>
          <timeResidual>1.95</timeResidual>
          <timeWeight>0.0</timeWeight>
          <creationInfo>
            <agencyID>CI</agencyID>
            <creationTime>2025-01-10T19:45:14.000000Z</creationTime>
          </creationInfo>
        </arrival>
        <arrival publicID="quakeml:service.scedc.caltech.edu/fdsnws/event/1/query?assocaro=424307372">
          <pickID>quakeml:service.scedc.caltech.edu/fdsnws/event/1/query?assocaro=424307372</pickID>
          <phase>P</phase>
          <timeCorrection>0.0</timeCorrection>
          <azimuth>118.4</azimuth>
          <distance>0.2617</distance>
          <takeoffAngle>
            <value>94.0</value>
          </takeoffAngle>
          <timeResidual>0.1</timeResidual>
          <timeWeight>0.19</timeWeight>
          <creationInfo>
            <agencyID>CI</agencyID>
            <creationTime>2025-01-10T19:45:14.000000Z</creationTime>
          </creationInfo>
        </arrival>
        <arrival publicID="quakeml:service.scedc.caltech.edu/fdsnws/event/1/query?assocaro=424307380">
          <pickID>quakeml:service.scedc.caltech.edu/fdsnws/event/1/query?assocaro=424307380</pickID>
          <phase>S</phase>
          <timeCorrection>0.0</timeCorrection>
          <azimuth>118.4</azimuth>
          <distance>0.2617</distance>
          <takeoffAngle>
            <value>94.0</value>
          </takeoffAngle>
          <timeResidual>0.58</timeResidual>
          <timeWeight>0.06</timeWeight>
          <creationInfo>
            <agencyID>CI</agencyID>
            <creationTime>2025-01-10T19:45:14.000000Z</creationTime>
          </creationInfo>
        </arrival>
        <arrival publicID="quakeml:service.scedc.caltech.edu/fdsnws/event/1/query?assocaro=424307388">
          <pickID>quakeml:service.scedc.caltech.edu/fdsnws/event/1/query?assocaro=424307388</pickID>
          <phase>P</phase>
          <timeCorrection>-0.01</timeCorrection>
          <azimuth>52.6</azimuth>
          <distance>0.2921</distance>
          <takeoffAngle>
            <value>93.0</value>
          </takeoffAngle>
          <timeResidual>-0.02</timeResidual>
          <timeWeight>0.13</timeWeight>
          <creationInfo>
            <agencyID>CI</agencyID>
            <creationTime>2025-01-10T19:45:14.000000Z</creationTime>
          </creationInfo>
        </arrival>
        <arrival publicID="quakeml:service.scedc.caltech.edu/fdsnws/event/1/query?assocaro=424307396">
          <pickID>quakeml:service.scedc.caltech.edu/fdsnws/event/1/query?assocaro=424307396</pickID>
          <phase>S</phase>
          <timeCorrection>-0.14</timeCorrection>
          <azimuth>52.6</azimuth>
          <distance>0.2921</distance>
          <takeoffAngle>
            <value>93.0</value>
          </takeoffAngle>
          <timeResidual>0.33</timeResidual>
          <timeWeight>0.06</timeWeight>
          <creationInfo>
            <agencyID>CI</agencyID>
            <creationTime>2025-01-10T19:45:14.000000Z</creationTime>
          </creationInfo>
        </arrival>
        <arrival publicID="quakeml:service.scedc.caltech.edu/fdsnws/event/1/query?assocaro=424307404">
          <pickID>quakeml:service.scedc.caltech.edu/fdsnws/event/1/query?assocaro=424307404</pickID>
          <phase>P</phase>
          <timeCorrection>-0.11</timeCorrection>
          <azimuth>295.2</azimuth>
          <distance>0.3022</distance>
          <takeoffAngle>
            <value>93.0</value>
          </takeoffAngle>
          <timeResidual>0.0</timeResidual>
          <timeWeight>0.19</timeWeight>
          <creationInfo>
            <agencyID>CI</agencyID>
            <creationTime>2025-01-10T19:45:14.000000Z</creationTime>
          </creationInfo>
        </arrival>
        <arrival publicID="quakeml:service.scedc.caltech.edu/fdsnws/event/1/query?assocaro=424307412">
          <pickID>quakeml:service.scedc.caltech.edu/fdsnws/event/1/query?assocaro=424307412</pickID>
          <phase>S</phase>
          <timeCorrection>-0.36</timeCorrection>
          <azimuth>295.2</azimuth>
          <distance>0.3022</distance>
          <takeoffAngle>
            <value>93.0</value>
          </takeoffAngle>
          <timeResidual>0.58</timeResidual>
          <timeWeight>0.06</timeWeight>
          <creationInfo>
            <agencyID>CI</agencyID>
            <creationTime>2025-01-10T19:45:14.000000Z</creationTime>
          </creationInfo>
        </arrival>
        <arrival publicID="quakeml:service.scedc.caltech.edu/fdsnws/event/1/query?assocaro=424307420">
          <pickID>quakeml:service.scedc.caltech.edu/fdsnws/event/1/query?assocaro=424307420</pickID>
          <phase>S</phase>
          <timeCorrection>-0.27</timeCorrection>
          <azimuth>333.0</azimuth>
          <distance>0.3489</distance>
          <takeoffAngle>
            <value>92.0</value>
          </takeoffAngle>
          <timeResidual>0.22</timeResidual>
          <timeWeight>0.06</timeWeight>
          <creationInfo>
            <agencyID>CI</agencyID>
            <creationTime>2025-01-10T19:45:14.000000Z</creationTime>
          </creationInfo>
        </arrival>
        <arrival publicID="quakeml:service.scedc.caltech.edu/fdsnws/event/1/query?assocaro=424307428">
          <pickID>quakeml:service.scedc.caltech.edu/fdsnws/event/1/query?assocaro=424307428</pickID>
          <phase>P</phase>
          <timeCorrection>-0.09</timeCorrection>
          <azimuth>318.6</azimuth>
          <distance>0.3923</distance>
          <takeoffAngle>
            <value>79.0</value>
          </takeoffAngle>
          <timeResidual>-0.14</timeResidual>
          <timeWeight>0.19</timeWeight>
          <creationInfo>
            <agencyID>CI</agencyID>
            <creationTime>2025-01-10T19:45:14.000000Z</creationTime>
          </creationInfo>
        </arrival>
        <arrival publicID="quakeml:service.scedc.caltech.edu/fdsnws/event/1/query?assocaro=424307436">
