<?xml version='1.0' encoding='utf-8'?>
<q:quakeml xmlns="http://quakeml.org/xmlns/bed/1.2" xmlns:q="http://quakeml.org/xmlns/quakeml/1.2" xmlns:ns0="http://anss.org/xmlns/catalog/0.1">
  <eventParameters publicID="smi:local/5e704830-f273-4a87-8477-12e2d9c24f32">
    <event publicID="quakeml:service.scedc.caltech.edu/fdsnws/event/1/query?eventid=40838063" ns0:datasource="ci" ns0:dataid="ci40838063" ns0:eventsource="ci" ns0:eventid="40838063">
      <preferredOriginID>quakeml:service.scedc.caltech.edu/fdsnws/event/1/query?originid=108875612</preferredOriginID>
      <preferredMagnitudeID>quakeml:service.scedc.caltech.edu/fdsnws/event/1/query?magnitudeid=111261556</preferredMagnitudeID>
      <type>earthquake</type>
      <creationInfo>
        <agencyID>CI</agencyID>
        <agencyURI>quakeml:doi.org/10.7909/C3WD3xH1</agencyURI>
        <creationTime>2025-01-14T17:41:05.000000Z</creationTime>
        <version>8</version>
      </creationInfo>
      <origin publicID="quakeml:service.scedc.caltech.edu/fdsnws/event/1/query?originid=108875612" ns0:datasource="ci" ns0:dataid="ci40838063" ns0:eventsource="ci" ns0:eventid="40838063">
        <time>
          <value>2025-01-11T19:33:31.650000Z</value>
        </time>
        <latitude>
          <value>34.1801667</value>
        </latitude>
        <longitude>
          <value>-117.6251667</value>
        </longitude>
        <depth>
          <value>5270.0</value>
          <uncertainty>400.0</uncertainty>
        </depth>
        <depthType>from location</depthType>
        <timeFixed>false</timeFixed>
        <epicenterFixed>false</epicenterFixed>
        <methodID>smi:ci.anss.org/origin/HYP2000</methodID>
        <quality>
          <associatedPhaseCount>79</associatedPhaseCount>
          <usedPhaseCount>79</usedPhaseCount>
          <associatedStationCount>49</associatedStationCount>
          <usedStationCount>49</usedStationCount>
          <standardError>0.15</standardError>
          <azimuthalGap>76.0</azimuthalGap>
          <secondaryAzimuthalGap>381.0</secondaryAzimuthalGap>
          <minimumDistance>0.06028</minimumDistance>
          <maximumDistance>0.931</maximumDistance>
          <medianDistance>0.4644</medianDistance>
        </quality>
        <type>hypocenter</type>
        <evaluationMode>manual</evaluationMode>
        <evaluationStatus>final</evaluationStatus>
        <creationInfo>
          <agencyID>CI</agencyID>
          <creationTime>2025-01-14T17:41:05.000000Z</creationTime>
        </creationInfo>
        <originUncertainty>
          <preferredDescription>confidence ellipsoid</preferredDescription>
          <horizontalUncertainty>200.0</horizontalUncertainty>
          <confidenceLevel>95.0</confidenceLevel>
          <confidenceEllipsoid>
            <semiMajorAxisLength>960.0</semiMajorAxisLength>
            <semiMinorAxisLength>240.0</semiMinorAxisLength>
            <semiIntermediateAxisLength>480.0</semiIntermediateAxisLength>
            <majorAxisPlunge>82.0</majorAxisPlunge>
            <majorAxisAzimuth>259.0</majorAxisAzimuth>
            <majorAxisRotation>334.0</majorAxisRotation>
          </confidenceEllipsoid>
        </originUncertainty>
        <arrival publicID="quakeml:service.scedc.caltech.edu/fdsnws/event/1/query?assocaro=266361485">
          <pickID>quakeml:service.scedc.caltech.edu/fdsnws/event/1/query?assocaro=266361485</pickID>
          <phase>P</phase>
          <timeCorrection>-0.17</timeCorrection>
          <azimuth>334.8</azimuth>
          <distance>0.06472</distance>
          <takeoffAngle>
            <value>122.0</value>
          </takeoffAngle>
          <timeResidual>-0.08</timeResidual>
          <timeWeight>0.22</timeWeight>
          <creationInfo>
            <agencyID>CI</agencyID>
            <creationTime>2025-01-14T17:41:05.000000Z</creationTime>
          </creationInfo>
        </arrival>
        <arrival publicID="quakeml:service.scedc.caltech.edu/fdsnws/event/1/query?assocaro=266361501">
          <pickID>quakeml:service.scedc.caltech.edu/fdsnws/event/1/query?assocaro=266361501</pickID>
          <phase>P</phase>
          <timeCorrection>-0.07</timeCorrection>
          <azimuth>297.8</azimuth>
          <distance>0.0646</distance>
          <takeoffAngle>
            <value>122.0</value>
          </takeoffAngle>
          <timeResidual>0.06</timeResidual>
          <timeWeight>0.22</timeWeight>
          <creationInfo>
            <agencyID>CI</agencyID>
            <creationTime>2025-01-14T17:41:05.000000Z</creationTime>
          </creationInfo>
        </arrival>
        <arrival publicID="quakeml:service.scedc.caltech.edu/fdsnws/event/1/query?assocaro=266361509">
          <pickID>quakeml:service.scedc.caltech.edu/fdsnws/event/1/query?assocaro=266361509</pickID>
          <phase>S</phase>
          <timeCorrection>-0.2</timeCorrection>
          <azimuth>297.8</azimuth>
          <distance>0.0646</distance>
          <takeoffAngle>
            <value>122.0</value>
          </takeoffAngle>
          <timeResidual>0.29</timeResidual>
          <timeWeight>0.06</timeWeight>
          <creationInfo>
            <agencyID>CI</agencyID>
            <creationTime>2025-01-14T17:41:05.000000Z</creationTime>
          </creationInfo>
        </arrival>
        <arrival publicID="quakeml:service.scedc.caltech.edu/fdsnws/event/1/query?assocaro=266361541">
          <pickID>quakeml:service.scedc.caltech.edu/fdsnws/event/1/query?assocaro=266361541</pickID>
          <phase>S</phase>
          <timeCorrection>0.0</timeCorrection>
          <azimuth>129.0</azimuth>
          <distance>0.09097</distance>
          <takeoffAngle>
            <value>109.0</value>
          </takeoffAngle>
          <timeResidual>0.21</timeResidual>
          <timeWeight>0.08</timeWeight>
          <creationInfo>
            <agencyID>CI</agencyID>
            <creationTime>2025-01-14T17:41:05.000000Z</creationTime>
          </creationInfo>
        </arrival>
        <arrival publicID="quakeml:service.scedc.caltech.edu/fdsnws/event/1/query?assocaro=266361565">
          <pickID>quakeml:service.scedc.caltech.edu/fdsnws/event/1/query?assocaro=266361565</pickID>
          <phase>P</phase>
          <timeCorrection>0.0</timeCorrection>
          <azimuth>65.5</azimuth>
          <distance>0.1299</distance>
          <takeoffAngle>
            <value>97.0</value>
          </takeoffAngle>
          <timeResidual>-0.03</timeResidual>
          <timeWeight>0.17</timeWeight>
          <creationInfo>
            <agencyID>CI</agencyID>
            <creationTime>2025-01-14T17:41:05.000000Z</creationTime>
          </creationInfo>
        </arrival>
        <arrival publicID="quakeml:service.scedc.caltech.edu/fdsnws/event/1/query?assocaro=266361581">
          <pickID>quakeml:service.scedc.caltech.edu/fdsnws/event/1/query?assocaro=266361581</pickID>
          <phase>P</phase>
          <timeCorrection>-0.09</timeCorrection>
          <azimuth>347.8</azimuth>
          <distance>0.2061</distance>
          <takeoffAngle>
            <value>91.0</value>
          </takeoffAngle>
          <timeResidual>0.03</timeResidual>
          <timeWeight>0.22</timeWeight>
          <creationInfo>
            <agencyID>CI</agencyID>
            <creationTime>2025-01-14T17:41:05.000000Z</creationTime>
          </creationInfo>
        </arrival>
        <arrival publicID="quakeml:service.scedc.caltech.edu/fdsnws/event/1/query?assocaro=266361589">
          <pickID>quakeml:service.scedc.caltech.edu/fdsnws/event/1/query?assocaro=266361589</pickID>
          <phase>S</phase>
          <timeCorrection>-0.28</timeCorrection>
          <azimuth>347.8</azimuth>
          <distance>0.2061</distance>
          <takeoffAngle>
            <value>91.0</value>
          </takeoffAngle>
          <timeResidual>0.37</timeResidual>
          <timeWeight>0.06</timeWeight>
          <creationInfo>
            <agencyID>CI</agencyID>
            <creationTime>2025-01-14T17:41:05.000000Z</creationTime>
          </creationInfo>
        </arrival>
        <arrival publicID="quakeml:service.scedc.caltech.edu/fdsnws/event/1/query?assocaro=266361605">
          <pickID>quakeml:service.scedc.caltech.edu/fdsnws/event/1/query?assocaro=266361605</pickID>
          <phase>P</phase>
          <timeCorrection>0.0</timeCorrection>
          <azimuth>136.6</azimuth>
          <distance>0.2051</distance>
          <takeoffAngle>
            <value>91.0</value>
          </takeoffAngle>
          <timeResidual>-0.1</timeResidual>
          <timeWeight>0.22</timeWeight>
          <creationInfo>
            <agencyID>CI</agencyID>
            <creationTime>2025-01-14T17:41:05.000000Z</creationTime>
          </creationInfo>
        </arrival>
        <arrival publicID="quakeml:service.scedc.caltech.edu/fdsnws/event/1/query?assocaro=266361645">
          <pickID>quakeml:service.scedc.caltech.edu/fdsnws/event/1/query?assocaro=266361645</pickID>
          <phase>S</phase>
          <timeCorrection>-0.32</timeCorrection>
          <azimuth>132.0</azimuth>
          <distance>0.2786</distance>
          <takeoffAngle>
            <value>91.0</value>
          </takeoffAngle>
          <timeResidual>0.08</timeResidual>
          <timeWeight>0.06</timeWeight>
          <creationInfo>
            <agencyID>CI</agencyID>
            <creationTime>2025-01-14T17:41:05.000000Z</creationTime>
          </creationInfo>
        </arrival>
        <arrival publicID="quakeml:service.scedc.caltech.edu/fdsnws/event/1/query?assocaro=266361661">
          <pickID>quakeml:service.scedc.caltech.edu/fdsnws/event/1/query?assocaro=266361661</pickID>
          <phase>S</phase>
          <timeCorrection>-0.35</timeCorrection>
          <azimuth>326.9</azimuth>
          <distance>0.332</distance>
          <takeoffAngle>
            <value>90.0</value>
          </takeoffAngle>
          <timeResidual>0.01</timeResidual>
          <timeWeight>0.08</timeWeight>
          <creationInfo>
            <agencyID>CI</agencyID>
            <creationTime>2025-01-14T17:41:05.000000Z</creationTime>
          </creationInfo>
        </arrival>
        <arrival publicID="quakeml:service.scedc.caltech.edu/fdsnws/event/1/query?assocaro=266361693">
          <pickID>quakeml:service.scedc.caltech.edu/fdsnws/event/1/query?assocaro=266361693</pickID>
          <phase>P</phase>
          <timeCorrection>-0.19</timeCorrection>
          <azimuth>314.7</azimuth>
          <distance>0.3829</distance>
          <takeoffAngle>
            <value>90.0</value>
          </takeoffAngle>
          <timeResidual>-0.18</timeResidual>
          <timeWeight>0.22</timeWeight>
          <creationInfo>
            <agencyID>CI</agencyID>
            <creationTime>2025-01-14T17:41:05.000000Z</creationTime>
          </creationInfo>
        </arrival>
        <arrival publicID="quakeml:service.scedc.caltech.edu/fdsnws/event/1/query?assocaro=266361701">
          <pickID>quakeml:service.scedc.caltech.edu/fdsnws/event/1/query?assocaro=266361701</pickID>
          <phase>S</phase>
          <timeCorrection>-0.3</timeCorrection>
          <azimuth>314.7</azimuth>
          <distance>0.3829</distance>
          <takeoffAngle>
            <value>90.0</value>
          </takeoffAngle>
          <timeResidual>-0.34</timeResidual>
          <timeWeight>0.08</timeWeight>
          <creationInfo>
            <agencyID>CI</agencyID>
            <creationTime>2025-01-14T17:41:05.000000Z</creationTime>
          </creationInfo>
        </arrival>
        <arrival publicID="quakeml:service.scedc.caltech.edu/fdsnws/event/1/query?assocaro=266361717">
          <pickID>quakeml:service.scedc.caltech.edu/fdsnws/event/1/query?assocaro=266361717</pickID>
          <phase>P</phase>
          <timeCorrection>-0.16</timeCorrection>
          <azimuth>157.6</azimuth>
          <distance>0.3915</distance>
          <takeoffAngle>
            <value>90.0</value>
          </takeoffAngle>
          <timeResidual>0.07</timeResidual>
          <timeWeight>0.11</timeWeight>
          <creationInfo>
            <agencyID>CI</agencyID>
            <creationTime>2025-01-14T17:41:05.000000Z</creationTime>
          </creationInfo>
        </arrival>
        <arrival publicID="quakeml:service.scedc.caltech.edu/fdsnws/event/1/query?assocaro=266361733">
          <pickID>quakeml:service.scedc.caltech.edu/fdsnws/event/1/query?assocaro=266361733</pickID>
          <phase>P</phase>
          <timeCorrection>0.0</timeCorrection>
          <azimuth>349.0</azimuth>
          <distance>0.4054</distance>
          <takeoffAngle>
            <value>90.0</value>
          </takeoffAngle>
          <timeResidual>-0.1</timeResidual>
          <timeWeight>0.17</timeWeight>
          <creationInfo>
            <agencyID>CI</agencyID>
            <creationTime>2025-01-14T17:41:05.000000Z</creationTime>
          </creationInfo>
        </arrival>
        <arrival publicID="quakeml:service.scedc.caltech.edu/fdsnws/event/1/query?assocaro=266361749">
          <pickID>quakeml:service.scedc.caltech.edu/fdsnws/event/1/query?assocaro=266361749</pickID>
          <phase>P</phase>
          <timeCorrection>0.0</timeCorrection>
          <azimuth>87.6</azimuth>
          <distance>0.414</distance>
          <takeoffAngle>
            <value>90.0</value>
          </takeoffAngle>
          <timeResidual>0.24</timeResidual>
          <timeWeight>0.11</timeWeight>
          <creationInfo>
            <agencyID>CI</agencyID>
            <creationTime>2025-01-14T17:41:05.000000Z</creationTime>
          </creationInfo>
        </arrival>
        <arrival publicID="quakeml:service.scedc.caltech.edu/fdsnws/event/1/query?assocaro=266361765">
          <pickID>quakeml:service.scedc.caltech.edu/fdsnws/event/1/query?assocaro=266361765</pickID>
          <phase>P</phase>
          <timeCorrection>0.0</timeCorrection>
          <azimuth>273.3</azimuth>
          <distance>0.4554</distance>
          <takeoffAngle>
            <value>90.0</value>
          </takeoffAngle>
          <timeResidual>-0.02</timeResidual>
          <timeWeight>0.11</timeWeight>
          <creationInfo>
            <agencyID>CI</agencyID>
            <creationTime>2025-01-14T17:41:05.000000Z</creationTime>
          </creationInfo>
        </arrival>
        <arrival publicID="quakeml:service.scedc.caltech.edu/fdsnws/event/1/query?assocaro=266361773">
          <pickID>quakeml:service.scedc.caltech.edu/fdsnws/event/1/query?assocaro=266361773</pickID>
          <phase>P</phase>
          <timeCorrection>-0.16</timeCorrection>
          <azimuth>269.1</azimuth>
          <distance>0.4644</distance>
          <takeoffAngle>
            <value>90.0</value>
          </takeoffAngle>
          <timeResidual>0.15</timeResidual>
          <timeWeight>0.11</timeWeight>
          <creationInfo>
            <agencyID>CI</agencyID>
            <creationTime>2025-01-14T17:41:05.000000Z</creationTime>
          </creationInfo>
        </arrival>
        <arrival publicID="quakeml:service.scedc.caltech.edu/fdsnws/event/1/query?assocaro=266361797">
          <pickID>quakeml:service.scedc.caltech.edu/fdsnws/event/1/query?assocaro=266361797</pickID>
          <phase>P</phase>
          <timeCorrection>-0.12</timeCorrection>
          <azimuth>132.3</azimuth>
          <distance>0.4718</distance>
          <takeoffAngle>
            <value>90.0</value>
          </takeoffAngle>
          <timeResidual>-0.02</timeResidual>
          <timeWeight>0.17</timeWeight>
          <creationInfo>
            <agencyID>CI</agencyID>
            <creationTime>2025-01-14T17:41:05.000000Z</creationTime>
          </creationInfo>
        </arrival>
        <arrival publicID="quakeml:service.scedc.caltech.edu/fdsnws/event/1/query?assocaro=266361813">
          <pickID>quakeml:service.scedc.caltech.edu/fdsnws/event/1/query?assocaro=266361813</pickID>
          <phase>P</phase>
          <timeCorrection>-0.16</timeCorrection>
          <azimuth>156.0</azimuth>
          <distance>0.4763</distance>
          <takeoffAngle>
            <value>79.0</value>
          </takeoffAngle>
          <timeResidual>0.05</timeResidual>
          <timeWeight>0.17</timeWeight>
          <creationInfo>
            <agencyID>CI</agencyID>
            <creationTime>2025-01-14T17:41:05.000000Z</creationTime>
          </creationInfo>
        </arrival>
        <arrival publicID="quakeml:service.scedc.caltech.edu/fdsnws/event/1/query?assocaro=266361845">
          <pickID>quakeml:service.scedc.caltech.edu/fdsnws/event/1/query?assocaro=266361845</pickID>
          <phase>P</phase>
          <timeCorrection>-0.16</timeCorrection>
          <azimuth>342.2</azimuth>
          <distance>0.5331</distance>
          <takeoffAngle>
            <value>79.0</value>
          </takeoffAngle>
          <timeResidual>0.06</timeResidual>
          <timeWeight>0.17</timeWeight>
          <creationInfo>
            <agencyID>CI</agencyID>
            <creationTime>2025-01-14T17:41:05.000000Z</creationTime>
          </creationInfo>
        </arrival>
        <arrival publicID="quakeml:service.scedc.caltech.edu/fdsnws/event/1/query?assocaro=266361901">
          <pickID>quakeml:service.scedc.caltech.edu/fdsnws/event/1/query?assocaro=266361901</pickID>
          <phase>P</phase>
          <timeCorrection>-0.1</timeCorrection>
          <azimuth>3.8</azimuth>
          <distance>0.685</distance>
          <takeoffAngle>
            <value>79.0</value>
          </takeoffAngle>
          <timeResidual>0.09</timeResidual>
          <timeWeight>0.22</timeWeight>
          <creationInfo>
            <agencyID>CI</agencyID>
            <creationTime>2025-01-14T17:41:05.000000Z</creationTime>
          </creationInfo>
        </arrival>
        <arrival publicID="quakeml:service.scedc.caltech.edu/fdsnws/event/1/query?assocaro=266361933">
          <pickID>quakeml:service.scedc.caltech.edu/fdsnws/event/1/query?assocaro=266361933</pickID>
          <phase>P</phase>
          <timeCorrection>-0.18</timeCorrection>
          <azimuth>139.3</azimuth>
          <distance>0.7466</distance>
          <takeoffAngle>
            <value>79.0</value>
          </takeoffAngle>
          <timeResidual>0.05</timeResidual>
          <timeWeight>0.22</timeWeight>
          <creationInfo>
            <agencyID>CI</agencyID>
            <creationTime>2025-01-14T17:41:05.000000Z</creationTime>
          </creationInfo>
        </arrival>
        <arrival publicID="quakeml:service.scedc.caltech.edu/fdsnws/event/1/query?assocaro=266361941">
          <pickID>quakeml:service.scedc.caltech.edu/fdsnws/event/1/query?assocaro=266361941</pickID>
          <phase>P</phase>
          <timeCorrection>-0.11</timeCorrection>
          <azimuth>355.6</azimuth>
          <distance>0.7547</distance>
          <takeoffAngle>
            <value>79.0</value>
          </takeoffAngle>
          <timeResidual>0.13</timeResidual>
          <timeWeight>0.11</timeWeight>
          <creationInfo>
            <agencyID>CI</agencyID>
            <creationTime>2025-01-14T17:41:05.000000Z</creationTime>
          </creationInfo>
        </arrival>
        <arrival publicID="quakeml:service.scedc.caltech.edu/fdsnws/event/1/query?assocaro=266361949">
          <pickID>quakeml:service.scedc.caltech.edu/fdsnws/event/1/query?assocaro=266361949</pickID>
          <phase>P</phase>
          <timeCorrection>-0.12</timeCorrection>
          <azimuth>336.7</azimuth>
          <distance>0.7626</distance>
          <takeoffAngle>
            <value>79.0</value>
          </takeoffAngle>
          <timeResidual>0.16</timeResidual>
          <timeWeight>0.22</timeWeight>
          <creationInfo>
            <agencyID>CI</agencyID>
            <creationTime>2025-01-14T17:41:05.000000Z</creationTime>
          </creationInfo>
        </arrival>
        <arrival publicID="quakeml:service.scedc.caltech.edu/fdsnws/event/1/query?assocaro=266361981">
