<?xml version='1.0' encoding='utf-8'?>
<q:quakeml xmlns="http://quakeml.org/xmlns/bed/1.2" xmlns:q="http://quakeml.org/xmlns/quakeml/1.2" xmlns:ns0="http://anss.org/xmlns/catalog/0.1">
  <eventParameters publicID="smi:local/b3ff6060-2ef9-470f-9d43-fde6c5021eb1">
    <event publicID="quakeml:service.scedc.caltech.edu/fdsnws/event/1/query?eventid=40836655" ns0:datasource="ci" ns0:dataid="ci40836655" ns0:eventsource="ci" ns0:eventid="40836655">
      <preferredOriginID>quakeml:service.scedc.caltech.edu/fdsnws/event/1/query?originid=108874564</preferredOriginID>
      <preferredMagnitudeID>quakeml:service.scedc.caltech.edu/fdsnws/event/1/query?magnitudeid=111260460</preferredMagnitudeID>
      <type>earthquake</type>
      <creationInfo>
        <agencyID>CI</agencyID>
        <agencyURI>quakeml:doi.org/10.7909/C3WD3xH1</agencyURI>
        <creationTime>2025-01-09T21:27:33.000000Z</creationTime>
        <version>8</version>
      </creationInfo>
      <origin publicID="quakeml:service.scedc.caltech.edu/fdsnws/event/1/query?originid=108874564" ns0:datasource="ci" ns0:dataid="ci40836655" ns0:eventsource="ci" ns0:eventid="40836655">
        <time>
          <value>2025-01-09T19:45:34.420000Z</value>
        </time>
        <latitude>
          <value>35.0875</value>
        </latitude>
        <longitude>
          <value>-118.3053333</value>
        </longitude>
        <depth>
          <value>4640.0</value>
          <uncertainty>500.0</uncertainty>
        </depth>
        <depthType>from location</depthType>
        <timeFixed>false</timeFixed>
        <epicenterFixed>false</epicenterFixed>
        <methodID>smi:ci.anss.org/origin/HYP2000</methodID>
        <quality>
          <associatedPhaseCount>71</associatedPhaseCount>
          <usedPhaseCount>71</usedPhaseCount>
          <associatedStationCount>40</associatedStationCount>
          <usedStationCount>40</usedStationCount>
          <standardError>0.18</standardError>
          <azimuthalGap>32.0</azimuthalGap>
        </quality>
        <type>hypocenter</type>
        <evaluationMode>manual</evaluationMode>
        <evaluationStatus>final</evaluationStatus>
        <creationInfo>
          <agencyID>CI</agencyID>
          <creationTime>2025-01-09T21:27:33.000000Z</creationTime>
        </creationInfo>
        <originUncertainty>
          <preferredDescription>confidence ellipsoid</preferredDescription>
          <horizontalUncertainty>160.0</horizontalUncertainty>
          <confidenceLevel>95.0</confidenceLevel>
          <confidenceEllipsoid>
            <semiMajorAxisLength>1200.0</semiMajorAxisLength>
            <semiMinorAxisLength>336.0</semiMinorAxisLength>
            <semiIntermediateAxisLength>384.0</semiIntermediateAxisLength>
            <majorAxisPlunge>88.0</majorAxisPlunge>
            <majorAxisAzimuth>125.0</majorAxisAzimuth>
            <majorAxisRotation>339.0</majorAxisRotation>
          </confidenceEllipsoid>
        </originUncertainty>
        <arrival publicID="quakeml:service.scedc.caltech.edu/fdsnws/event/1/query?assocaro=266330501">
          <pickID>quakeml:service.scedc.caltech.edu/fdsnws/event/1/query?assocaro=266330501</pickID>
          <phase>P</phase>
          <timeCorrection>-0.03</timeCorrection>
          <azimuth>197.0</azimuth>
          <distance>0.1011</distance>
          <takeoffAngle>
            <value>106.0</value>
          </takeoffAngle>
          <timeResidual>-0.11</timeResidual>
          <timeWeight>0.23</timeWeight>
          <creationInfo>
            <agencyID>CI</agencyID>
            <creationTime>2025-01-09T21:27:33.000000Z</creationTime>
          </creationInfo>
        </arrival>
        <arrival publicID="quakeml:service.scedc.caltech.edu/fdsnws/event/1/query?assocaro=266330509">
          <pickID>quakeml:service.scedc.caltech.edu/fdsnws/event/1/query?assocaro=266330509</pickID>
          <phase>S</phase>
          <timeCorrection>-0.19</timeCorrection>
          <azimuth>197.0</azimuth>
          <distance>0.1011</distance>
          <takeoffAngle>
            <value>107.0</value>
          </takeoffAngle>
          <timeResidual>0.08</timeResidual>
          <timeWeight>0.09</timeWeight>
          <creationInfo>
            <agencyID>CI</agencyID>
            <creationTime>2025-01-09T21:27:33.000000Z</creationTime>
          </creationInfo>
        </arrival>
        <arrival publicID="quakeml:service.scedc.caltech.edu/fdsnws/event/1/query?assocaro=266330517">
          <pickID>quakeml:service.scedc.caltech.edu/fdsnws/event/1/query?assocaro=266330517</pickID>
          <phase>P</phase>
          <timeCorrection>0.0</timeCorrection>
          <azimuth>54.9</azimuth>
          <distance>0.1084</distance>
          <takeoffAngle>
            <value>105.0</value>
          </takeoffAngle>
          <timeResidual>0.07</timeResidual>
          <timeWeight>0.23</timeWeight>
          <creationInfo>
            <agencyID>CI</agencyID>
            <creationTime>2025-01-09T21:27:33.000000Z</creationTime>
          </creationInfo>
        </arrival>
        <arrival publicID="quakeml:service.scedc.caltech.edu/fdsnws/event/1/query?assocaro=266330533">
          <pickID>quakeml:service.scedc.caltech.edu/fdsnws/event/1/query?assocaro=266330533</pickID>
          <phase>P</phase>
          <timeCorrection>-0.03</timeCorrection>
          <azimuth>163.2</azimuth>
          <distance>0.2175</distance>
          <takeoffAngle>
            <value>73.0</value>
          </takeoffAngle>
          <timeResidual>-0.1</timeResidual>
          <timeWeight>0.23</timeWeight>
          <creationInfo>
            <agencyID>CI</agencyID>
            <creationTime>2025-01-09T21:27:33.000000Z</creationTime>
          </creationInfo>
        </arrival>
        <arrival publicID="quakeml:service.scedc.caltech.edu/fdsnws/event/1/query?assocaro=266330549">
          <pickID>quakeml:service.scedc.caltech.edu/fdsnws/event/1/query?assocaro=266330549</pickID>
          <phase>P</phase>
          <timeCorrection>-0.14</timeCorrection>
          <azimuth>335.2</azimuth>
          <distance>0.2243</distance>
          <takeoffAngle>
            <value>73.0</value>
          </takeoffAngle>
          <timeResidual>-0.04</timeResidual>
          <timeWeight>0.23</timeWeight>
          <creationInfo>
            <agencyID>CI</agencyID>
            <creationTime>2025-01-09T21:27:33.000000Z</creationTime>
          </creationInfo>
        </arrival>
        <arrival publicID="quakeml:service.scedc.caltech.edu/fdsnws/event/1/query?assocaro=266330557">
          <pickID>quakeml:service.scedc.caltech.edu/fdsnws/event/1/query?assocaro=266330557</pickID>
          <phase>S</phase>
          <timeCorrection>-0.4</timeCorrection>
          <azimuth>335.2</azimuth>
          <distance>0.2243</distance>
          <takeoffAngle>
            <value>72.0</value>
          </takeoffAngle>
          <timeResidual>0.16</timeResidual>
          <timeWeight>0.09</timeWeight>
          <creationInfo>
            <agencyID>CI</agencyID>
            <creationTime>2025-01-09T21:27:33.000000Z</creationTime>
          </creationInfo>
        </arrival>
        <arrival publicID="quakeml:service.scedc.caltech.edu/fdsnws/event/1/query?assocaro=266330565">
          <pickID>quakeml:service.scedc.caltech.edu/fdsnws/event/1/query?assocaro=266330565</pickID>
          <phase>P</phase>
          <timeCorrection>-0.01</timeCorrection>
          <azimuth>74.5</azimuth>
          <distance>0.2455</distance>
          <takeoffAngle>
            <value>73.0</value>
          </takeoffAngle>
          <timeResidual>0.12</timeResidual>
          <timeWeight>0.23</timeWeight>
          <creationInfo>
            <agencyID>CI</agencyID>
            <creationTime>2025-01-09T21:27:33.000000Z</creationTime>
          </creationInfo>
        </arrival>
        <arrival publicID="quakeml:service.scedc.caltech.edu/fdsnws/event/1/query?assocaro=266330573">
          <pickID>quakeml:service.scedc.caltech.edu/fdsnws/event/1/query?assocaro=266330573</pickID>
          <phase>S</phase>
          <timeCorrection>-0.24</timeCorrection>
          <azimuth>74.5</azimuth>
          <distance>0.2455</distance>
          <takeoffAngle>
            <value>72.0</value>
          </takeoffAngle>
          <timeResidual>0.64</timeResidual>
          <timeWeight>0.06</timeWeight>
          <creationInfo>
            <agencyID>CI</agencyID>
            <creationTime>2025-01-09T21:27:33.000000Z</creationTime>
          </creationInfo>
        </arrival>
        <arrival publicID="quakeml:service.scedc.caltech.edu/fdsnws/event/1/query?assocaro=266330581">
          <pickID>quakeml:service.scedc.caltech.edu/fdsnws/event/1/query?assocaro=266330581</pickID>
          <phase>P</phase>
          <timeCorrection>-0.12</timeCorrection>
          <azimuth>128.9</azimuth>
          <distance>0.3283</distance>
          <takeoffAngle>
            <value>73.0</value>
          </takeoffAngle>
          <timeResidual>-0.09</timeResidual>
          <timeWeight>0.23</timeWeight>
          <creationInfo>
            <agencyID>CI</agencyID>
            <creationTime>2025-01-09T21:27:33.000000Z</creationTime>
          </creationInfo>
        </arrival>
        <arrival publicID="quakeml:service.scedc.caltech.edu/fdsnws/event/1/query?assocaro=266330589">
          <pickID>quakeml:service.scedc.caltech.edu/fdsnws/event/1/query?assocaro=266330589</pickID>
          <phase>S</phase>
          <timeCorrection>-0.31</timeCorrection>
          <azimuth>128.9</azimuth>
          <distance>0.3283</distance>
          <takeoffAngle>
            <value>72.0</value>
          </takeoffAngle>
          <timeResidual>0.04</timeResidual>
          <timeWeight>0.06</timeWeight>
          <creationInfo>
            <agencyID>CI</agencyID>
            <creationTime>2025-01-09T21:27:33.000000Z</creationTime>
          </creationInfo>
        </arrival>
        <arrival publicID="quakeml:service.scedc.caltech.edu/fdsnws/event/1/query?assocaro=266330597">
          <pickID>quakeml:service.scedc.caltech.edu/fdsnws/event/1/query?assocaro=266330597</pickID>
          <phase>P</phase>
          <timeCorrection>-0.11</timeCorrection>
          <azimuth>294.7</azimuth>
          <distance>0.3453</distance>
          <takeoffAngle>
            <value>73.0</value>
          </takeoffAngle>
          <timeResidual>-0.1</timeResidual>
          <timeWeight>0.23</timeWeight>
          <creationInfo>
            <agencyID>CI</agencyID>
            <creationTime>2025-01-09T21:27:33.000000Z</creationTime>
          </creationInfo>
        </arrival>
        <arrival publicID="quakeml:service.scedc.caltech.edu/fdsnws/event/1/query?assocaro=266330605">
          <pickID>quakeml:service.scedc.caltech.edu/fdsnws/event/1/query?assocaro=266330605</pickID>
          <phase>S</phase>
          <timeCorrection>-0.34</timeCorrection>
          <azimuth>294.7</azimuth>
          <distance>0.3453</distance>
          <takeoffAngle>
            <value>72.0</value>
          </takeoffAngle>
          <timeResidual>0.1</timeResidual>
          <timeWeight>0.06</timeWeight>
          <creationInfo>
            <agencyID>CI</agencyID>
            <creationTime>2025-01-09T21:27:33.000000Z</creationTime>
          </creationInfo>
        </arrival>
        <arrival publicID="quakeml:service.scedc.caltech.edu/fdsnws/event/1/query?assocaro=266330701">
          <pickID>quakeml:service.scedc.caltech.edu/fdsnws/event/1/query?assocaro=266330701</pickID>
          <phase>P</phase>
          <timeCorrection>-0.08</timeCorrection>
          <azimuth>194.4</azimuth>
          <distance>44.13</distance>
          <takeoffAngle>
            <value>73.0</value>
          </takeoffAngle>
          <timeResidual>0.05</timeResidual>
          <timeWeight>0.17</timeWeight>
          <creationInfo>
            <agencyID>CI</agencyID>
            <creationTime>2025-01-09T21:27:33.000000Z</creationTime>
          </creationInfo>
        </arrival>
        <arrival publicID="quakeml:service.scedc.caltech.edu/fdsnws/event/1/query?assocaro=266330725">
          <pickID>quakeml:service.scedc.caltech.edu/fdsnws/event/1/query?assocaro=266330725</pickID>
          <phase>S</phase>
          <timeCorrection>-0.32</timeCorrection>
          <azimuth>64.3</azimuth>
          <distance>0.417</distance>
          <takeoffAngle>
            <value>72.0</value>
          </takeoffAngle>
          <timeResidual>0.62</timeResidual>
          <timeWeight>0.06</timeWeight>
          <creationInfo>
            <agencyID>CI</agencyID>
            <creationTime>2025-01-09T21:27:33.000000Z</creationTime>
          </creationInfo>
        </arrival>
        <arrival publicID="quakeml:service.scedc.caltech.edu/fdsnws/event/1/query?assocaro=266330733">
          <pickID>quakeml:service.scedc.caltech.edu/fdsnws/event/1/query?assocaro=266330733</pickID>
          <phase>P</phase>
          <timeCorrection>0.0</timeCorrection>
          <azimuth>221.4</azimuth>
          <distance>0.4155</distance>
          <takeoffAngle>
            <value>73.0</value>
          </takeoffAngle>
          <timeResidual>0.36</timeResidual>
          <timeWeight>0.23</timeWeight>
          <creationInfo>
            <agencyID>CI</agencyID>
            <creationTime>2025-01-09T21:27:33.000000Z</creationTime>
          </creationInfo>
        </arrival>
        <arrival publicID="quakeml:service.scedc.caltech.edu/fdsnws/event/1/query?assocaro=266330749">
          <pickID>quakeml:service.scedc.caltech.edu/fdsnws/event/1/query?assocaro=266330749</pickID>
          <phase>P</phase>
          <timeCorrection>0.1</timeCorrection>
          <azimuth>275.4</azimuth>
          <distance>0.432</distance>
          <takeoffAngle>
            <value>73.0</value>
          </takeoffAngle>
          <timeResidual>0.06</timeResidual>
          <timeWeight>0.11</timeWeight>
          <creationInfo>
            <agencyID>CI</agencyID>
            <creationTime>2025-01-09T21:27:33.000000Z</creationTime>
          </creationInfo>
        </arrival>
        <arrival publicID="quakeml:service.scedc.caltech.edu/fdsnws/event/1/query?assocaro=424301484">
          <pickID>quakeml:service.scedc.caltech.edu/fdsnws/event/1/query?assocaro=424301484</pickID>
          <phase>S</phase>
          <timeCorrection>0.0</timeCorrection>
          <azimuth>54.9</azimuth>
          <distance>0.1084</distance>
          <takeoffAngle>
            <value>105.0</value>
          </takeoffAngle>
          <timeResidual>0.33</timeResidual>
          <timeWeight>0.06</timeWeight>
          <creationInfo>
            <agencyID>CI</agencyID>
            <creationTime>2025-01-09T21:27:33.000000Z</creationTime>
          </creationInfo>
        </arrival>
        <arrival publicID="quakeml:service.scedc.caltech.edu/fdsnws/event/1/query?assocaro=424301492">
          <pickID>quakeml:service.scedc.caltech.edu/fdsnws/event/1/query?assocaro=424301492</pickID>
          <phase>S</phase>
          <timeCorrection>-0.1</timeCorrection>
          <azimuth>163.2</azimuth>
          <distance>0.2175</distance>
          <takeoffAngle>
            <value>72.0</value>
          </takeoffAngle>
          <timeResidual>-0.1</timeResidual>
          <timeWeight>0.06</timeWeight>
          <creationInfo>
            <agencyID>CI</agencyID>
            <creationTime>2025-01-09T21:27:33.000000Z</creationTime>
          </creationInfo>
        </arrival>
        <arrival publicID="quakeml:service.scedc.caltech.edu/fdsnws/event/1/query?assocaro=424301500">
          <pickID>quakeml:service.scedc.caltech.edu/fdsnws/event/1/query?assocaro=424301500</pickID>
          <phase>P</phase>
          <timeCorrection>-0.11</timeCorrection>
          <azimuth>238.8</azimuth>
          <distance>0.3447</distance>
          <takeoffAngle>
            <value>73.0</value>
          </takeoffAngle>
          <timeResidual>0.07</timeResidual>
          <timeWeight>0.17</timeWeight>
          <creationInfo>
            <agencyID>CI</agencyID>
            <creationTime>2025-01-09T21:27:33.000000Z</creationTime>
          </creationInfo>
        </arrival>
        <arrival publicID="quakeml:service.scedc.caltech.edu/fdsnws/event/1/query?assocaro=424301508">
          <pickID>quakeml:service.scedc.caltech.edu/fdsnws/event/1/query?assocaro=424301508</pickID>
          <phase>S</phase>
          <timeCorrection>-0.37</timeCorrection>
          <azimuth>238.8</azimuth>
          <distance>0.3447</distance>
          <takeoffAngle>
            <value>72.0</value>
          </takeoffAngle>
          <timeResidual>0.43</timeResidual>
          <timeWeight>0.06</timeWeight>
          <creationInfo>
            <agencyID>CI</agencyID>
            <creationTime>2025-01-09T21:27:33.000000Z</creationTime>
          </creationInfo>
        </arrival>
        <arrival publicID="quakeml:service.scedc.caltech.edu/fdsnws/event/1/query?assocaro=424301516">
          <pickID>quakeml:service.scedc.caltech.edu/fdsnws/event/1/query?assocaro=424301516</pickID>
          <phase>P</phase>
          <timeCorrection>0.11</timeCorrection>
          <azimuth>207.3</azimuth>
          <distance>0.3504</distance>
          <takeoffAngle>
            <value>73.0</value>
          </takeoffAngle>
          <timeResidual>0.29</timeResidual>
          <timeWeight>0.17</timeWeight>
          <creationInfo>
            <agencyID>CI</agencyID>
            <creationTime>2025-01-09T21:27:33.000000Z</creationTime>
          </creationInfo>
        </arrival>
        <arrival publicID="quakeml:service.scedc.caltech.edu/fdsnws/event/1/query?assocaro=424301524">
          <pickID>quakeml:service.scedc.caltech.edu/fdsnws/event/1/query?assocaro=424301524</pickID>
          <phase>S</phase>
          <timeCorrection>0.0</timeCorrection>
          <azimuth>207.3</azimuth>
          <distance>0.3504</distance>
          <takeoffAngle>
            <value>72.0</value>
          </takeoffAngle>
          <timeResidual>0.98</timeResidual>
          <timeWeight>0.03</timeWeight>
          <creationInfo>
            <agencyID>CI</agencyID>
            <creationTime>2025-01-09T21:27:33.000000Z</creationTime>
          </creationInfo>
        </arrival>
        <arrival publicID="quakeml:service.scedc.caltech.edu/fdsnws/event/1/query?assocaro=424301532">
          <pickID>quakeml:service.scedc.caltech.edu/fdsnws/event/1/query?assocaro=424301532</pickID>
          <phase>S</phase>
          <timeCorrection>-0.03</timeCorrection>
          <azimuth>171.4</azimuth>
          <distance>0.3568</distance>
          <takeoffAngle>
            <value>72.0</value>
          </takeoffAngle>
          <timeResidual>0.27</timeResidual>
          <timeWeight>0.06</timeWeight>
          <creationInfo>
            <agencyID>CI</agencyID>
            <creationTime>2025-01-09T21:27:33.000000Z</creationTime>
          </creationInfo>
        </arrival>
        <arrival publicID="quakeml:service.scedc.caltech.edu/fdsnws/event/1/query?assocaro=424301540">
          <pickID>quakeml:service.scedc.caltech.edu/fdsnws/event/1/query?assocaro=424301540</pickID>
          <phase>P</phase>
          <timeCorrection>-0.11</timeCorrection>
          <azimuth>260.6</azimuth>
          <distance>0.3646</distance>
          <takeoffAngle>
            <value>73.0</value>
          </takeoffAngle>
          <timeResidual>-0.29</timeResidual>
          <timeWeight>0.11</timeWeight>
          <creationInfo>
            <agencyID>CI</agencyID>
            <creationTime>2025-01-09T21:27:33.000000Z</creationTime>
          </creationInfo>
        </arrival>
        <arrival publicID="quakeml:service.scedc.caltech.edu/fdsnws/event/1/query?assocaro=424301548">
          <pickID>quakeml:service.scedc.caltech.edu/fdsnws/event/1/query?assocaro=424301548</pickID>
          <phase>S</phase>
          <timeCorrection>-0.24</timeCorrection>
          <azimuth>260.6</azimuth>
          <distance>0.3646</distance>
