<?xml version='1.0' encoding='utf-8'?>
<q:quakeml xmlns="http://quakeml.org/xmlns/bed/1.2" xmlns:q="http://quakeml.org/xmlns/quakeml/1.2" xmlns:ns0="http://anss.org/xmlns/catalog/0.1">
  <eventParameters publicID="smi:local/db15228d-b892-4c1f-b059-fc60b9ec198e">
    <event publicID="quakeml:service.scedc.caltech.edu/fdsnws/event/1/query?eventid=40842855" ns0:datasource="ci" ns0:dataid="ci40842855" ns0:eventsource="ci" ns0:eventid="40842855">
      <preferredOriginID>quakeml:service.scedc.caltech.edu/fdsnws/event/1/query?originid=105811981</preferredOriginID>
      <preferredMagnitudeID>quakeml:service.scedc.caltech.edu/fdsnws/event/1/query?magnitudeid=109268277</preferredMagnitudeID>
      <type>earthquake</type>
      <creationInfo>
        <agencyID>CI</agencyID>
        <agencyURI>quakeml:doi.org/10.7909/C3WD3xH1</agencyURI>
        <creationTime>2025-01-18T21:54:34.000000Z</creationTime>
        <version>5</version>
      </creationInfo>
      <origin publicID="quakeml:service.scedc.caltech.edu/fdsnws/event/1/query?originid=105811981" ns0:datasource="ci" ns0:dataid="ci40842855" ns0:eventsource="ci" ns0:eventid="40842855">
        <time>
          <value>2025-01-18T21:51:19.000000Z</value>
        </time>
        <latitude>
          <value>35.953</value>
        </latitude>
        <longitude>
          <value>-117.6793333</value>
        </longitude>
        <depth>
          <value>5140.0</value>
          <uncertainty>330.0</uncertainty>
        </depth>
        <depthType>from location</depthType>
        <timeFixed>false</timeFixed>
        <epicenterFixed>false</epicenterFixed>
        <methodID>smi:ci.anss.org/origin/HYP2000</methodID>
        <quality>
          <associatedPhaseCount>27</associatedPhaseCount>
          <usedPhaseCount>27</usedPhaseCount>
          <associatedStationCount>17</associatedStationCount>
          <usedStationCount>17</usedStationCount>
          <standardError>0.09</standardError>
          <azimuthalGap>61.0</azimuthalGap>
          <secondaryAzimuthalGap>386.0</secondaryAzimuthalGap>
          <minimumDistance>0.02404</minimumDistance>
          <maximumDistance>0.8504</maximumDistance>
          <medianDistance>0.3273</medianDistance>
        </quality>
        <type>hypocenter</type>
        <evaluationMode>manual</evaluationMode>
        <evaluationStatus>final</evaluationStatus>
        <creationInfo>
          <agencyID>CI</agencyID>
          <creationTime>2025-01-18T21:54:14.000000Z</creationTime>
        </creationInfo>
        <originUncertainty>
          <preferredDescription>confidence ellipsoid</preferredDescription>
          <horizontalUncertainty>160.0</horizontalUncertainty>
          <confidenceLevel>95.0</confidenceLevel>
          <confidenceEllipsoid>
            <semiMajorAxisLength>864.0</semiMajorAxisLength>
            <semiMinorAxisLength>336.0</semiMinorAxisLength>
            <semiIntermediateAxisLength>384.0</semiIntermediateAxisLength>
            <majorAxisPlunge>66.0</majorAxisPlunge>
            <majorAxisAzimuth>72.0</majorAxisAzimuth>
            <majorAxisRotation>319.0</majorAxisRotation>
          </confidenceEllipsoid>
        </originUncertainty>
        <arrival publicID="quakeml:service.scedc.caltech.edu/fdsnws/event/1/query?assocaro=266482877">
          <pickID>quakeml:service.scedc.caltech.edu/fdsnws/event/1/query?assocaro=266482877</pickID>
          <phase>P</phase>
          <timeCorrection>-0.05</timeCorrection>
          <azimuth>102.0</azimuth>
          <distance>0.02404</distance>
          <takeoffAngle>
            <value>153.0</value>
          </takeoffAngle>
          <timeResidual>-0.04</timeResidual>
          <timeWeight>0.22</timeWeight>
          <creationInfo>
            <agencyID>CI</agencyID>
            <creationTime>2025-01-18T21:54:14.000000Z</creationTime>
          </creationInfo>
        </arrival>
        <arrival publicID="quakeml:service.scedc.caltech.edu/fdsnws/event/1/query?assocaro=266482885">
          <pickID>quakeml:service.scedc.caltech.edu/fdsnws/event/1/query?assocaro=266482885</pickID>
          <phase>S</phase>
          <timeCorrection>-0.18</timeCorrection>
          <azimuth>102.0</azimuth>
          <distance>0.02404</distance>
          <takeoffAngle>
            <value>153.0</value>
          </takeoffAngle>
          <timeResidual>0.26</timeResidual>
          <timeWeight>0.08</timeWeight>
          <creationInfo>
            <agencyID>CI</agencyID>
            <creationTime>2025-01-18T21:54:14.000000Z</creationTime>
          </creationInfo>
        </arrival>
        <arrival publicID="quakeml:service.scedc.caltech.edu/fdsnws/event/1/query?assocaro=266482893">
          <pickID>quakeml:service.scedc.caltech.edu/fdsnws/event/1/query?assocaro=266482893</pickID>
          <phase>P</phase>
          <timeCorrection>-0.07</timeCorrection>
          <azimuth>316.0</azimuth>
          <distance>0.1002</distance>
          <takeoffAngle>
            <value>104.0</value>
          </takeoffAngle>
          <timeResidual>-0.05</timeResidual>
          <timeWeight>0.11</timeWeight>
          <creationInfo>
            <agencyID>CI</agencyID>
            <creationTime>2025-01-18T21:54:14.000000Z</creationTime>
          </creationInfo>
        </arrival>
        <arrival publicID="quakeml:service.scedc.caltech.edu/fdsnws/event/1/query?assocaro=266482901">
          <pickID>quakeml:service.scedc.caltech.edu/fdsnws/event/1/query?assocaro=266482901</pickID>
          <phase>S</phase>
          <timeCorrection>-0.27</timeCorrection>
          <azimuth>316.0</azimuth>
          <distance>0.1002</distance>
          <takeoffAngle>
            <value>104.0</value>
          </takeoffAngle>
          <timeResidual>0.21</timeResidual>
          <timeWeight>0.06</timeWeight>
          <creationInfo>
            <agencyID>CI</agencyID>
            <creationTime>2025-01-18T21:54:14.000000Z</creationTime>
          </creationInfo>
        </arrival>
        <arrival publicID="quakeml:service.scedc.caltech.edu/fdsnws/event/1/query?assocaro=266482909">
          <pickID>quakeml:service.scedc.caltech.edu/fdsnws/event/1/query?assocaro=266482909</pickID>
          <phase>P</phase>
          <timeCorrection>-0.07</timeCorrection>
          <azimuth>286.0</azimuth>
          <distance>0.1091</distance>
          <takeoffAngle>
            <value>101.0</value>
          </takeoffAngle>
          <timeResidual>0.04</timeResidual>
          <timeWeight>0.22</timeWeight>
          <creationInfo>
            <agencyID>CI</agencyID>
            <creationTime>2025-01-18T21:54:14.000000Z</creationTime>
          </creationInfo>
        </arrival>
        <arrival publicID="quakeml:service.scedc.caltech.edu/fdsnws/event/1/query?assocaro=266482917">
          <pickID>quakeml:service.scedc.caltech.edu/fdsnws/event/1/query?assocaro=266482917</pickID>
          <phase>S</phase>
          <timeCorrection>-0.23</timeCorrection>
          <azimuth>286.0</azimuth>
          <distance>0.1091</distance>
          <takeoffAngle>
            <value>100.0</value>
          </takeoffAngle>
          <timeResidual>0.29</timeResidual>
          <timeWeight>0.06</timeWeight>
          <creationInfo>
            <agencyID>CI</agencyID>
            <creationTime>2025-01-18T21:54:14.000000Z</creationTime>
          </creationInfo>
        </arrival>
        <arrival publicID="quakeml:service.scedc.caltech.edu/fdsnws/event/1/query?assocaro=266482925">
          <pickID>quakeml:service.scedc.caltech.edu/fdsnws/event/1/query?assocaro=266482925</pickID>
          <phase>P</phase>
          <timeCorrection>0.2</timeCorrection>
          <azimuth>206.0</azimuth>
          <distance>0.16</distance>
          <takeoffAngle>
            <value>92.0</value>
          </takeoffAngle>
          <timeResidual>-0.07</timeResidual>
          <timeWeight>0.22</timeWeight>
          <creationInfo>
            <agencyID>CI</agencyID>
            <creationTime>2025-01-18T21:54:14.000000Z</creationTime>
          </creationInfo>
        </arrival>
        <arrival publicID="quakeml:service.scedc.caltech.edu/fdsnws/event/1/query?assocaro=266482933">
          <pickID>quakeml:service.scedc.caltech.edu/fdsnws/event/1/query?assocaro=266482933</pickID>
          <phase>S</phase>
          <timeCorrection>-0.18</timeCorrection>
          <azimuth>206.0</azimuth>
          <distance>0.16</distance>
          <takeoffAngle>
            <value>92.0</value>
          </takeoffAngle>
          <timeResidual>1.23</timeResidual>
          <timeWeight>0.03</timeWeight>
          <creationInfo>
            <agencyID>CI</agencyID>
            <creationTime>2025-01-18T21:54:14.000000Z</creationTime>
          </creationInfo>
        </arrival>
        <arrival publicID="quakeml:service.scedc.caltech.edu/fdsnws/event/1/query?assocaro=266482941">
          <pickID>quakeml:service.scedc.caltech.edu/fdsnws/event/1/query?assocaro=266482941</pickID>
          <phase>P</phase>
          <timeCorrection>-0.09</timeCorrection>
          <azimuth>288.0</azimuth>
          <distance>0.1797</distance>
          <takeoffAngle>
            <value>91.0</value>
          </takeoffAngle>
          <timeResidual>0.03</timeResidual>
          <timeWeight>0.22</timeWeight>
          <creationInfo>
            <agencyID>CI</agencyID>
            <creationTime>2025-01-18T21:54:14.000000Z</creationTime>
          </creationInfo>
        </arrival>
        <arrival publicID="quakeml:service.scedc.caltech.edu/fdsnws/event/1/query?assocaro=266482949">
          <pickID>quakeml:service.scedc.caltech.edu/fdsnws/event/1/query?assocaro=266482949</pickID>
          <phase>S</phase>
          <timeCorrection>-0.28</timeCorrection>
          <azimuth>288.0</azimuth>
          <distance>0.1797</distance>
          <takeoffAngle>
            <value>91.0</value>
          </takeoffAngle>
          <timeResidual>0.26</timeResidual>
          <timeWeight>0.08</timeWeight>
          <creationInfo>
            <agencyID>CI</agencyID>
            <creationTime>2025-01-18T21:54:14.000000Z</creationTime>
          </creationInfo>
        </arrival>
        <arrival publicID="quakeml:service.scedc.caltech.edu/fdsnws/event/1/query?assocaro=266482957">
          <pickID>quakeml:service.scedc.caltech.edu/fdsnws/event/1/query?assocaro=266482957</pickID>
          <phase>P</phase>
          <timeCorrection>-0.11</timeCorrection>
          <azimuth>240.0</azimuth>
          <distance>0.2148</distance>
          <takeoffAngle>
            <value>91.0</value>
          </takeoffAngle>
          <timeResidual>-0.04</timeResidual>
          <timeWeight>0.22</timeWeight>
          <creationInfo>
            <agencyID>CI</agencyID>
            <creationTime>2025-01-18T21:54:14.000000Z</creationTime>
          </creationInfo>
        </arrival>
        <arrival publicID="quakeml:service.scedc.caltech.edu/fdsnws/event/1/query?assocaro=266482965">
          <pickID>quakeml:service.scedc.caltech.edu/fdsnws/event/1/query?assocaro=266482965</pickID>
          <phase>S</phase>
          <timeCorrection>-0.36</timeCorrection>
          <azimuth>240.0</azimuth>
          <distance>0.2148</distance>
          <takeoffAngle>
            <value>91.0</value>
          </takeoffAngle>
          <timeResidual>0.3</timeResidual>
          <timeWeight>0.06</timeWeight>
          <creationInfo>
            <agencyID>CI</agencyID>
            <creationTime>2025-01-18T21:54:14.000000Z</creationTime>
          </creationInfo>
        </arrival>
        <arrival publicID="quakeml:service.scedc.caltech.edu/fdsnws/event/1/query?assocaro=266482973">
          <pickID>quakeml:service.scedc.caltech.edu/fdsnws/event/1/query?assocaro=266482973</pickID>
          <phase>P</phase>
          <timeCorrection>-0.09</timeCorrection>
          <azimuth>320.0</azimuth>
          <distance>0.2173</distance>
          <takeoffAngle>
            <value>91.0</value>
          </takeoffAngle>
          <timeResidual>-0.02</timeResidual>
          <timeWeight>0.22</timeWeight>
          <creationInfo>
            <agencyID>CI</agencyID>
            <creationTime>2025-01-18T21:54:14.000000Z</creationTime>
          </creationInfo>
        </arrival>
        <arrival publicID="quakeml:service.scedc.caltech.edu/fdsnws/event/1/query?assocaro=266482981">
          <pickID>quakeml:service.scedc.caltech.edu/fdsnws/event/1/query?assocaro=266482981</pickID>
          <phase>S</phase>
          <timeCorrection>-0.27</timeCorrection>
          <azimuth>320.0</azimuth>
          <distance>0.2173</distance>
          <takeoffAngle>
            <value>90.0</value>
          </takeoffAngle>
          <timeResidual>0.38</timeResidual>
          <timeWeight>0.06</timeWeight>
          <creationInfo>
            <agencyID>CI</agencyID>
            <creationTime>2025-01-18T21:54:14.000000Z</creationTime>
          </creationInfo>
        </arrival>
        <arrival publicID="quakeml:service.scedc.caltech.edu/fdsnws/event/1/query?assocaro=266482989">
          <pickID>quakeml:service.scedc.caltech.edu/fdsnws/event/1/query?assocaro=266482989</pickID>
          <phase>P</phase>
          <timeCorrection>0.0</timeCorrection>
          <azimuth>12.0</azimuth>
          <distance>0.3256</distance>
          <takeoffAngle>
            <value>90.0</value>
          </takeoffAngle>
          <timeResidual>-0.15</timeResidual>
          <timeWeight>0.11</timeWeight>
          <creationInfo>
            <agencyID>CI</agencyID>
            <creationTime>2025-01-18T21:54:14.000000Z</creationTime>
          </creationInfo>
        </arrival>
        <arrival publicID="quakeml:service.scedc.caltech.edu/fdsnws/event/1/query?assocaro=266482997">
          <pickID>quakeml:service.scedc.caltech.edu/fdsnws/event/1/query?assocaro=266482997</pickID>
          <phase>S</phase>
          <timeCorrection>0.0</timeCorrection>
          <azimuth>12.0</azimuth>
          <distance>0.3256</distance>
          <takeoffAngle>
            <value>90.0</value>
          </takeoffAngle>
          <timeResidual>-0.05</timeResidual>
          <timeWeight>0.06</timeWeight>
          <creationInfo>
            <agencyID>CI</agencyID>
            <creationTime>2025-01-18T21:54:14.000000Z</creationTime>
          </creationInfo>
        </arrival>
        <arrival publicID="quakeml:service.scedc.caltech.edu/fdsnws/event/1/query?assocaro=266483005">
          <pickID>quakeml:service.scedc.caltech.edu/fdsnws/event/1/query?assocaro=266483005</pickID>
          <phase>S</phase>
          <timeCorrection>-0.14</timeCorrection>
          <azimuth>100.0</azimuth>
          <distance>0.3273</distance>
          <takeoffAngle>
            <value>90.0</value>
          </takeoffAngle>
          <timeResidual>0.21</timeResidual>
          <timeWeight>0.06</timeWeight>
          <creationInfo>
            <agencyID>CI</agencyID>
            <creationTime>2025-01-18T21:54:14.000000Z</creationTime>
          </creationInfo>
        </arrival>
        <arrival publicID="quakeml:service.scedc.caltech.edu/fdsnws/event/1/query?assocaro=266483013">
          <pickID>quakeml:service.scedc.caltech.edu/fdsnws/event/1/query?assocaro=266483013</pickID>
          <phase>S</phase>
          <timeCorrection>0.0</timeCorrection>
          <azimuth>144.0</azimuth>
          <distance>0.3545</distance>
          <takeoffAngle>
            <value>90.0</value>
          </takeoffAngle>
          <timeResidual>-0.13</timeResidual>
          <timeWeight>0.03</timeWeight>
          <creationInfo>
            <agencyID>CI</agencyID>
            <creationTime>2025-01-18T21:54:14.000000Z</creationTime>
          </creationInfo>
        </arrival>
        <arrival publicID="quakeml:service.scedc.caltech.edu/fdsnws/event/1/query?assocaro=266483021">
          <pickID>quakeml:service.scedc.caltech.edu/fdsnws/event/1/query?assocaro=266483021</pickID>
          <phase>P</phase>
          <timeCorrection>0.13</timeCorrection>
          <azimuth>148.0</azimuth>
          <distance>0.498</distance>
          <takeoffAngle>
            <value>79.0</value>
          </takeoffAngle>
          <timeResidual>0.07</timeResidual>
          <timeWeight>0.11</timeWeight>
          <creationInfo>
            <agencyID>CI</agencyID>
            <creationTime>2025-01-18T21:54:14.000000Z</creationTime>
          </creationInfo>
        </arrival>
        <arrival publicID="quakeml:service.scedc.caltech.edu/fdsnws/event/1/query?assocaro=266483029">
          <pickID>quakeml:service.scedc.caltech.edu/fdsnws/event/1/query?assocaro=266483029</pickID>
          <phase>S</phase>
          <timeCorrection>0.11</timeCorrection>
          <azimuth>148.0</azimuth>
          <distance>0.498</distance>
          <takeoffAngle>
            <value>79.0</value>
          </takeoffAngle>
          <timeResidual>0.67</timeResidual>
          <timeWeight>0.05</timeWeight>
          <creationInfo>
            <agencyID>CI</agencyID>
            <creationTime>2025-01-18T21:54:14.000000Z</creationTime>
          </creationInfo>
        </arrival>
        <arrival publicID="quakeml:service.scedc.caltech.edu/fdsnws/event/1/query?assocaro=266483037">
          <pickID>quakeml:service.scedc.caltech.edu/fdsnws/event/1/query?assocaro=266483037</pickID>
          <phase>P</phase>
          <timeCorrection>-0.12</timeCorrection>
          <azimuth>241.0</azimuth>
          <distance>0.5248</distance>
          <takeoffAngle>
            <value>79.0</value>
          </takeoffAngle>
          <timeResidual>-0.06</timeResidual>
          <timeWeight>0.11</timeWeight>
          <creationInfo>
            <agencyID>CI</agencyID>
            <creationTime>2025-01-18T21:54:14.000000Z</creationTime>
          </creationInfo>
        </arrival>
        <arrival publicID="quakeml:service.scedc.caltech.edu/fdsnws/event/1/query?assocaro=266483045">
          <pickID>quakeml:service.scedc.caltech.edu/fdsnws/event/1/query?assocaro=266483045</pickID>
          <phase>P</phase>
          <timeCorrection>-0.09</timeCorrection>
          <azimuth>245.0</azimuth>
          <distance>0.6041</distance>
          <takeoffAngle>
            <value>79.0</value>
          </takeoffAngle>
          <timeResidual>-0.02</timeResidual>
          <timeWeight>0.17</timeWeight>
          <creationInfo>
            <agencyID>CI</agencyID>
            <creationTime>2025-01-18T21:54:14.000000Z</creationTime>
          </creationInfo>
        </arrival>
        <arrival publicID="quakeml:service.scedc.caltech.edu/fdsnws/event/1/query?assocaro=266483053">
          <pickID>quakeml:service.scedc.caltech.edu/fdsnws/event/1/query?assocaro=266483053</pickID>
          <phase>S</phase>
          <timeCorrection>-0.35</timeCorrection>
          <azimuth>245.0</azimuth>
          <distance>0.6041</distance>
          <takeoffAngle>
            <value>79.0</value>
          </takeoffAngle>
          <timeResidual>0.08</timeResidual>
          <timeWeight>0.06</timeWeight>
          <creationInfo>
            <agencyID>CI</agencyID>
            <creationTime>2025-01-18T21:54:14.000000Z</creationTime>
          </creationInfo>
        </arrival>
        <arrival publicID="quakeml:service.scedc.caltech.edu/fdsnws/event/1/query?assocaro=266483061">
          <pickID>quakeml:service.scedc.caltech.edu/fdsnws/event/1/query?assocaro=266483061</pickID>
          <phase>S</phase>
          <timeCorrection>-0.26</timeCorrection>
          <azimuth>351.0</azimuth>
          <distance>0.6045</distance>
          <takeoffAngle>
            <value>79.0</value>
          </takeoffAngle>
          <timeResidual>1.4</timeResidual>
          <timeWeight>0.0</timeWeight>
          <creationInfo>
            <agencyID>CI</agencyID>
            <creationTime>2025-01-18T21:54:14.000000Z</creationTime>
          </creationInfo>
        </arrival>
        <arrival publicID="quakeml:service.scedc.caltech.edu/fdsnws/event/1/query?assocaro=266483069">
