<?xml version='1.0' encoding='utf-8'?>
<q:quakeml xmlns="http://quakeml.org/xmlns/bed/1.2" xmlns:q="http://quakeml.org/xmlns/quakeml/1.2" xmlns:ns0="http://anss.org/xmlns/catalog/0.1">
  <eventParameters publicID="smi:local/1d426c98-1cc2-4968-a060-91ce10fcad0e">
    <event publicID="quakeml:service.scedc.caltech.edu/fdsnws/event/1/query?eventid=40841535" ns0:datasource="ci" ns0:dataid="ci40841535" ns0:eventsource="ci" ns0:eventid="40841535">
      <preferredOriginID>quakeml:service.scedc.caltech.edu/fdsnws/event/1/query?originid=108876828</preferredOriginID>
      <preferredMagnitudeID>quakeml:service.scedc.caltech.edu/fdsnws/event/1/query?magnitudeid=111262796</preferredMagnitudeID>
      <type>earthquake</type>
      <creationInfo>
        <agencyID>CI</agencyID>
        <agencyURI>quakeml:doi.org/10.7909/C3WD3xH1</agencyURI>
        <creationTime>2025-01-17T21:20:54.000000Z</creationTime>
        <version>6</version>
      </creationInfo>
      <origin publicID="quakeml:service.scedc.caltech.edu/fdsnws/event/1/query?originid=108876828" ns0:datasource="ci" ns0:dataid="ci40841535" ns0:eventsource="ci" ns0:eventid="40841535">
        <time>
          <value>2025-01-17T00:41:35.620000Z</value>
        </time>
        <latitude>
          <value>33.1686667</value>
        </latitude>
        <longitude>
          <value>-116.0385</value>
        </longitude>
        <depth>
          <value>6070.0</value>
          <uncertainty>650.0</uncertainty>
        </depth>
        <depthType>from location</depthType>
        <timeFixed>false</timeFixed>
        <epicenterFixed>false</epicenterFixed>
        <methodID>smi:ci.anss.org/origin/HYP2000</methodID>
        <quality>
          <associatedPhaseCount>46</associatedPhaseCount>
          <usedPhaseCount>46</usedPhaseCount>
          <associatedStationCount>28</associatedStationCount>
          <usedStationCount>28</usedStationCount>
          <standardError>0.17</standardError>
          <azimuthalGap>40.0</azimuthalGap>
          <secondaryAzimuthalGap>413.0</secondaryAzimuthalGap>
          <minimumDistance>0.05118</minimumDistance>
          <maximumDistance>0.7632</maximumDistance>
          <medianDistance>0.4943</medianDistance>
        </quality>
        <type>hypocenter</type>
        <evaluationMode>manual</evaluationMode>
        <evaluationStatus>final</evaluationStatus>
        <creationInfo>
          <agencyID>CI</agencyID>
          <creationTime>2025-01-17T21:20:54.000000Z</creationTime>
        </creationInfo>
        <originUncertainty>
          <preferredDescription>confidence ellipsoid</preferredDescription>
          <horizontalUncertainty>220.0</horizontalUncertainty>
          <confidenceLevel>95.0</confidenceLevel>
          <confidenceEllipsoid>
            <semiMajorAxisLength>1608.0</semiMajorAxisLength>
            <semiMinorAxisLength>432.0</semiMinorAxisLength>
            <semiIntermediateAxisLength>552.0</semiIntermediateAxisLength>
            <majorAxisPlunge>75.0</majorAxisPlunge>
            <majorAxisAzimuth>88.0</majorAxisAzimuth>
            <majorAxisRotation>303.0</majorAxisRotation>
          </confidenceEllipsoid>
        </originUncertainty>
        <arrival publicID="quakeml:service.scedc.caltech.edu/fdsnws/event/1/query?assocaro=266449973">
          <pickID>quakeml:service.scedc.caltech.edu/fdsnws/event/1/query?assocaro=266449973</pickID>
          <phase>P</phase>
          <timeCorrection>0.0</timeCorrection>
          <azimuth>84.6</azimuth>
          <distance>0.05118</distance>
          <takeoffAngle>
            <value>129.0</value>
          </takeoffAngle>
          <timeResidual>0.02</timeResidual>
          <timeWeight>0.26</timeWeight>
          <creationInfo>
            <agencyID>CI</agencyID>
            <creationTime>2025-01-17T21:20:54.000000Z</creationTime>
          </creationInfo>
        </arrival>
        <arrival publicID="quakeml:service.scedc.caltech.edu/fdsnws/event/1/query?assocaro=266450149">
          <pickID>quakeml:service.scedc.caltech.edu/fdsnws/event/1/query?assocaro=266450149</pickID>
          <phase>S</phase>
          <timeCorrection>-0.09</timeCorrection>
          <azimuth>55.0</azimuth>
          <distance>0.4081</distance>
          <takeoffAngle>
            <value>90.0</value>
          </takeoffAngle>
          <timeResidual>-0.14</timeResidual>
          <timeWeight>0.06</timeWeight>
          <creationInfo>
            <agencyID>CI</agencyID>
            <creationTime>2025-01-17T21:20:54.000000Z</creationTime>
          </creationInfo>
        </arrival>
        <arrival publicID="quakeml:service.scedc.caltech.edu/fdsnws/event/1/query?assocaro=266450261">
          <pickID>quakeml:service.scedc.caltech.edu/fdsnws/event/1/query?assocaro=266450261</pickID>
          <phase>S</phase>
          <timeCorrection>-0.46</timeCorrection>
          <azimuth>329.5</azimuth>
          <distance>0.5558</distance>
          <takeoffAngle>
            <value>79.0</value>
          </takeoffAngle>
          <timeResidual>-0.26</timeResidual>
          <timeWeight>0.06</timeWeight>
          <creationInfo>
            <agencyID>CI</agencyID>
            <creationTime>2025-01-17T21:20:54.000000Z</creationTime>
          </creationInfo>
        </arrival>
        <arrival publicID="quakeml:service.scedc.caltech.edu/fdsnws/event/1/query?assocaro=266450285">
          <pickID>quakeml:service.scedc.caltech.edu/fdsnws/event/1/query?assocaro=266450285</pickID>
          <phase>P</phase>
          <timeCorrection>-0.17</timeCorrection>
          <azimuth>321.7</azimuth>
          <distance>0.565</distance>
          <takeoffAngle>
            <value>79.0</value>
          </takeoffAngle>
          <timeResidual>0.02</timeResidual>
          <timeWeight>0.13</timeWeight>
          <creationInfo>
            <agencyID>CI</agencyID>
            <creationTime>2025-01-17T21:20:54.000000Z</creationTime>
          </creationInfo>
        </arrival>
        <arrival publicID="quakeml:service.scedc.caltech.edu/fdsnws/event/1/query?assocaro=266450301">
          <pickID>quakeml:service.scedc.caltech.edu/fdsnws/event/1/query?assocaro=266450301</pickID>
          <phase>P</phase>
          <timeCorrection>-0.08</timeCorrection>
          <azimuth>304.8</azimuth>
          <distance>0.5731</distance>
          <takeoffAngle>
            <value>79.0</value>
          </takeoffAngle>
          <timeResidual>0.2</timeResidual>
          <timeWeight>0.26</timeWeight>
          <creationInfo>
            <agencyID>CI</agencyID>
            <creationTime>2025-01-17T21:20:54.000000Z</creationTime>
          </creationInfo>
        </arrival>
        <arrival publicID="quakeml:service.scedc.caltech.edu/fdsnws/event/1/query?assocaro=266450333">
          <pickID>quakeml:service.scedc.caltech.edu/fdsnws/event/1/query?assocaro=266450333</pickID>
          <phase>P</phase>
          <timeCorrection>0.0</timeCorrection>
          <azimuth>315.8</azimuth>
          <distance>0.6649</distance>
          <takeoffAngle>
            <value>79.0</value>
          </takeoffAngle>
          <timeResidual>-0.08</timeResidual>
          <timeWeight>0.13</timeWeight>
          <creationInfo>
            <agencyID>CI</agencyID>
            <creationTime>2025-01-17T21:20:54.000000Z</creationTime>
          </creationInfo>
        </arrival>
        <arrival publicID="quakeml:service.scedc.caltech.edu/fdsnws/event/1/query?assocaro=424377436">
          <pickID>quakeml:service.scedc.caltech.edu/fdsnws/event/1/query?assocaro=424377436</pickID>
          <phase>S</phase>
          <timeCorrection>0.0</timeCorrection>
          <azimuth>84.6</azimuth>
          <distance>0.05118</distance>
          <takeoffAngle>
            <value>129.0</value>
          </takeoffAngle>
          <timeResidual>-0.18</timeResidual>
          <timeWeight>0.06</timeWeight>
          <creationInfo>
            <agencyID>CI</agencyID>
            <creationTime>2025-01-17T21:20:54.000000Z</creationTime>
          </creationInfo>
        </arrival>
        <arrival publicID="quakeml:service.scedc.caltech.edu/fdsnws/event/1/query?assocaro=424377444">
          <pickID>quakeml:service.scedc.caltech.edu/fdsnws/event/1/query?assocaro=424377444</pickID>
          <phase>P</phase>
          <timeCorrection>0.07</timeCorrection>
          <azimuth>277.6</azimuth>
          <distance>0.1823</distance>
          <takeoffAngle>
            <value>91.0</value>
          </takeoffAngle>
          <timeResidual>-0.06</timeResidual>
          <timeWeight>0.13</timeWeight>
          <creationInfo>
            <agencyID>CI</agencyID>
            <creationTime>2025-01-17T21:20:54.000000Z</creationTime>
          </creationInfo>
        </arrival>
        <arrival publicID="quakeml:service.scedc.caltech.edu/fdsnws/event/1/query?assocaro=424377452">
          <pickID>quakeml:service.scedc.caltech.edu/fdsnws/event/1/query?assocaro=424377452</pickID>
          <phase>P</phase>
          <timeCorrection>0.39</timeCorrection>
          <azimuth>106.0</azimuth>
          <distance>0.1884</distance>
          <takeoffAngle>
            <value>91.0</value>
          </takeoffAngle>
          <timeResidual>0.12</timeResidual>
          <timeWeight>0.13</timeWeight>
          <creationInfo>
            <agencyID>CI</agencyID>
            <creationTime>2025-01-17T21:20:54.000000Z</creationTime>
          </creationInfo>
        </arrival>
        <arrival publicID="quakeml:service.scedc.caltech.edu/fdsnws/event/1/query?assocaro=424377460">
          <pickID>quakeml:service.scedc.caltech.edu/fdsnws/event/1/query?assocaro=424377460</pickID>
          <phase>S</phase>
          <timeCorrection>0.82</timeCorrection>
          <azimuth>106.0</azimuth>
          <distance>0.1884</distance>
          <takeoffAngle>
            <value>91.0</value>
          </takeoffAngle>
          <timeResidual>0.31</timeResidual>
          <timeWeight>0.02</timeWeight>
          <creationInfo>
            <agencyID>CI</agencyID>
            <creationTime>2025-01-17T21:20:54.000000Z</creationTime>
          </creationInfo>
        </arrival>
        <arrival publicID="quakeml:service.scedc.caltech.edu/fdsnws/event/1/query?assocaro=424377468">
          <pickID>quakeml:service.scedc.caltech.edu/fdsnws/event/1/query?assocaro=424377468</pickID>
          <phase>P</phase>
          <timeCorrection>0.11</timeCorrection>
          <azimuth>168.3</azimuth>
          <distance>0.287</distance>
          <takeoffAngle>
            <value>90.0</value>
          </takeoffAngle>
          <timeResidual>0.04</timeResidual>
          <timeWeight>0.13</timeWeight>
          <creationInfo>
            <agencyID>CI</agencyID>
            <creationTime>2025-01-17T21:20:54.000000Z</creationTime>
          </creationInfo>
        </arrival>
        <arrival publicID="quakeml:service.scedc.caltech.edu/fdsnws/event/1/query?assocaro=424377476">
          <pickID>quakeml:service.scedc.caltech.edu/fdsnws/event/1/query?assocaro=424377476</pickID>
          <phase>S</phase>
          <timeCorrection>-0.04</timeCorrection>
          <azimuth>168.3</azimuth>
          <distance>0.287</distance>
          <takeoffAngle>
            <value>90.0</value>
          </takeoffAngle>
          <timeResidual>0.55</timeResidual>
          <timeWeight>0.03</timeWeight>
          <creationInfo>
            <agencyID>CI</agencyID>
            <creationTime>2025-01-17T21:20:54.000000Z</creationTime>
          </creationInfo>
        </arrival>
        <arrival publicID="quakeml:service.scedc.caltech.edu/fdsnws/event/1/query?assocaro=424377484">
          <pickID>quakeml:service.scedc.caltech.edu/fdsnws/event/1/query?assocaro=424377484</pickID>
          <phase>P</phase>
          <timeCorrection>0.0</timeCorrection>
          <azimuth>310.6</azimuth>
          <distance>0.2982</distance>
          <takeoffAngle>
            <value>90.0</value>
          </takeoffAngle>
          <timeResidual>-0.29</timeResidual>
          <timeWeight>0.13</timeWeight>
          <creationInfo>
            <agencyID>CI</agencyID>
            <creationTime>2025-01-17T21:20:54.000000Z</creationTime>
          </creationInfo>
        </arrival>
        <arrival publicID="quakeml:service.scedc.caltech.edu/fdsnws/event/1/query?assocaro=424377492">
          <pickID>quakeml:service.scedc.caltech.edu/fdsnws/event/1/query?assocaro=424377492</pickID>
          <phase>S</phase>
          <timeCorrection>0.0</timeCorrection>
          <azimuth>310.6</azimuth>
          <distance>0.2982</distance>
          <takeoffAngle>
            <value>90.0</value>
          </takeoffAngle>
          <timeResidual>-0.4</timeResidual>
          <timeWeight>0.06</timeWeight>
          <creationInfo>
            <agencyID>CI</agencyID>
            <creationTime>2025-01-17T21:20:54.000000Z</creationTime>
          </creationInfo>
        </arrival>
        <arrival publicID="quakeml:service.scedc.caltech.edu/fdsnws/event/1/query?assocaro=424377500">
          <pickID>quakeml:service.scedc.caltech.edu/fdsnws/event/1/query?assocaro=424377500</pickID>
          <phase>P</phase>
          <timeCorrection>0.04</timeCorrection>
          <azimuth>138.1</azimuth>
          <distance>0.2998</distance>
          <takeoffAngle>
            <value>90.0</value>
          </takeoffAngle>
          <timeResidual>-0.12</timeResidual>
          <timeWeight>0.13</timeWeight>
          <creationInfo>
            <agencyID>CI</agencyID>
            <creationTime>2025-01-17T21:20:54.000000Z</creationTime>
          </creationInfo>
        </arrival>
        <arrival publicID="quakeml:service.scedc.caltech.edu/fdsnws/event/1/query?assocaro=424377508">
          <pickID>quakeml:service.scedc.caltech.edu/fdsnws/event/1/query?assocaro=424377508</pickID>
          <phase>S</phase>
          <timeCorrection>-0.03</timeCorrection>
          <azimuth>138.1</azimuth>
          <distance>0.2998</distance>
          <takeoffAngle>
            <value>90.0</value>
          </takeoffAngle>
          <timeResidual>-0.15</timeResidual>
          <timeWeight>0.06</timeWeight>
          <creationInfo>
            <agencyID>CI</agencyID>
            <creationTime>2025-01-17T21:20:54.000000Z</creationTime>
          </creationInfo>
        </arrival>
        <arrival publicID="quakeml:service.scedc.caltech.edu/fdsnws/event/1/query?assocaro=424377516">
          <pickID>quakeml:service.scedc.caltech.edu/fdsnws/event/1/query?assocaro=424377516</pickID>
          <phase>P</phase>
          <timeCorrection>0.0</timeCorrection>
          <azimuth>226.1</azimuth>
          <distance>0.3083</distance>
          <takeoffAngle>
            <value>90.0</value>
          </takeoffAngle>
          <timeResidual>-0.01</timeResidual>
          <timeWeight>0.06</timeWeight>
          <creationInfo>
            <agencyID>CI</agencyID>
            <creationTime>2025-01-17T21:20:54.000000Z</creationTime>
          </creationInfo>
        </arrival>
        <arrival publicID="quakeml:service.scedc.caltech.edu/fdsnws/event/1/query?assocaro=424377524">
          <pickID>quakeml:service.scedc.caltech.edu/fdsnws/event/1/query?assocaro=424377524</pickID>
          <phase>S</phase>
          <timeCorrection>0.0</timeCorrection>
          <azimuth>226.1</azimuth>
          <distance>0.3083</distance>
          <takeoffAngle>
            <value>90.0</value>
          </takeoffAngle>
          <timeResidual>0.16</timeResidual>
          <timeWeight>0.03</timeWeight>
          <creationInfo>
            <agencyID>CI</agencyID>
            <creationTime>2025-01-17T21:20:54.000000Z</creationTime>
          </creationInfo>
        </arrival>
        <arrival publicID="quakeml:service.scedc.caltech.edu/fdsnws/event/1/query?assocaro=424377532">
          <pickID>quakeml:service.scedc.caltech.edu/fdsnws/event/1/query?assocaro=424377532</pickID>
          <phase>P</phase>
          <timeCorrection>-0.07</timeCorrection>
          <azimuth>287.5</azimuth>
          <distance>0.3326</distance>
          <takeoffAngle>
            <value>90.0</value>
          </takeoffAngle>
          <timeResidual>-0.22</timeResidual>
          <timeWeight>0.13</timeWeight>
          <creationInfo>
            <agencyID>CI</agencyID>
            <creationTime>2025-01-17T21:20:54.000000Z</creationTime>
          </creationInfo>
        </arrival>
        <arrival publicID="quakeml:service.scedc.caltech.edu/fdsnws/event/1/query?assocaro=424377540">
          <pickID>quakeml:service.scedc.caltech.edu/fdsnws/event/1/query?assocaro=424377540</pickID>
          <phase>P</phase>
          <timeCorrection>0.23</timeCorrection>
          <azimuth>24.4</azimuth>
          <distance>0.347</distance>
          <takeoffAngle>
            <value>90.0</value>
          </takeoffAngle>
          <timeResidual>-0.17</timeResidual>
          <timeWeight>0.13</timeWeight>
          <creationInfo>
            <agencyID>CI</agencyID>
            <creationTime>2025-01-17T21:20:54.000000Z</creationTime>
          </creationInfo>
        </arrival>
        <arrival publicID="quakeml:service.scedc.caltech.edu/fdsnws/event/1/query?assocaro=424377548">
          <pickID>quakeml:service.scedc.caltech.edu/fdsnws/event/1/query?assocaro=424377548</pickID>
          <phase>P</phase>
          <timeCorrection>0.0</timeCorrection>
          <azimuth>237.8</azimuth>
          <distance>0.369</distance>
          <takeoffAngle>
            <value>90.0</value>
          </takeoffAngle>
          <timeResidual>0.16</timeResidual>
          <timeWeight>0.13</timeWeight>
          <creationInfo>
            <agencyID>CI</agencyID>
            <creationTime>2025-01-17T21:20:54.000000Z</creationTime>
          </creationInfo>
        </arrival>
        <arrival publicID="quakeml:service.scedc.caltech.edu/fdsnws/event/1/query?assocaro=424377556">
          <pickID>quakeml:service.scedc.caltech.edu/fdsnws/event/1/query?assocaro=424377556</pickID>
          <phase>S</phase>
          <timeCorrection>0.0</timeCorrection>
          <azimuth>237.8</azimuth>
          <distance>0.369</distance>
          <takeoffAngle>
            <value>90.0</value>
          </takeoffAngle>
          <timeResidual>0.14</timeResidual>
          <timeWeight>0.06</timeWeight>
          <creationInfo>
            <agencyID>CI</agencyID>
            <creationTime>2025-01-17T21:20:54.000000Z</creationTime>
          </creationInfo>
        </arrival>
        <arrival publicID="quakeml:service.scedc.caltech.edu/fdsnws/event/1/query?assocaro=424377564">
          <pickID>quakeml:service.scedc.caltech.edu/fdsnws/event/1/query?assocaro=424377564</pickID>
          <phase>P</phase>
          <timeCorrection>-0.1</timeCorrection>
          <azimuth>339.0</azimuth>
          <distance>0.4348</distance>
          <takeoffAngle>
            <value>90.0</value>
          </takeoffAngle>
          <timeResidual>0.43</timeResidual>
          <timeWeight>0.13</timeWeight>
          <creationInfo>
            <agencyID>CI</agencyID>
            <creationTime>2025-01-17T21:20:54.000000Z</creationTime>
          </creationInfo>
        </arrival>
        <arrival publicID="quakeml:service.scedc.caltech.edu/fdsnws/event/1/query?assocaro=424377572">
          <pickID>quakeml:service.scedc.caltech.edu/fdsnws/event/1/query?assocaro=424377572</pickID>
          <phase>S</phase>
          <timeCorrection>-0.29</timeCorrection>
          <azimuth>339.0</azimuth>
          <distance>0.4348</distance>
          <takeoffAngle>
            <value>90.0</value>
          </takeoffAngle>
          <timeResidual>-0.02</timeResidual>
          <timeWeight>0.06</timeWeight>
          <creationInfo>
            <agencyID>CI</agencyID>
            <creationTime>2025-01-17T21:20:54.000000Z</creationTime>
          </creationInfo>
        </arrival>
        <arrival publicID="quakeml:service.scedc.caltech.edu/fdsnws/event/1/query?assocaro=424377580">
