<?xml version='1.0' encoding='utf-8'?>
<q:quakeml xmlns="http://quakeml.org/xmlns/bed/1.2" xmlns:q="http://quakeml.org/xmlns/quakeml/1.2" xmlns:ns0="http://anss.org/xmlns/catalog/0.1">
  <eventParameters publicID="smi:local/06cb9f22-3496-48ac-9fc9-d45def0f4c42">
    <event publicID="quakeml:service.scedc.caltech.edu/fdsnws/event/1/query?eventid=37693972" ns0:datasource="ci" ns0:dataid="ci37693972" ns0:eventsource="ci" ns0:eventid="37693972">
      <preferredOriginID>quakeml:service.scedc.caltech.edu/fdsnws/event/1/query?originid=108872932</preferredOriginID>
      <preferredMagnitudeID>quakeml:service.scedc.caltech.edu/fdsnws/event/1/query?magnitudeid=111258804</preferredMagnitudeID>
      <type>earthquake</type>
      <creationInfo>
        <agencyID>CI</agencyID>
        <agencyURI>quakeml:doi.org/10.7909/C3WD3xH1</agencyURI>
        <creationTime>2025-01-06T18:15:29.000000Z</creationTime>
        <version>3</version>
      </creationInfo>
      <origin publicID="quakeml:service.scedc.caltech.edu/fdsnws/event/1/query?originid=108872932" ns0:datasource="ci" ns0:dataid="ci37693972" ns0:eventsource="ci" ns0:eventid="37693972">
        <time>
          <value>2025-01-01T12:31:29.490000Z</value>
        </time>
        <latitude>
          <value>34.035</value>
        </latitude>
        <longitude>
          <value>-117.614</value>
        </longitude>
        <depth>
          <value>7700.0</value>
          <uncertainty>1310.0</uncertainty>
        </depth>
        <depthType>from location</depthType>
        <timeFixed>false</timeFixed>
        <epicenterFixed>false</epicenterFixed>
        <methodID>smi:ci.anss.org/origin/HYP2000</methodID>
        <quality>
          <associatedPhaseCount>8</associatedPhaseCount>
          <usedPhaseCount>8</usedPhaseCount>
          <associatedStationCount>5</associatedStationCount>
          <usedStationCount>5</usedStationCount>
          <standardError>0.21</standardError>
          <azimuthalGap>304.0</azimuthalGap>
          <secondaryAzimuthalGap>393.0</secondaryAzimuthalGap>
          <minimumDistance>0.005846</minimumDistance>
          <maximumDistance>0.3442</maximumDistance>
          <medianDistance>0.1321</medianDistance>
        </quality>
        <type>hypocenter</type>
        <evaluationMode>manual</evaluationMode>
        <evaluationStatus>final</evaluationStatus>
        <creationInfo>
          <agencyID>CI</agencyID>
          <creationTime>2025-01-06T18:15:29.000000Z</creationTime>
        </creationInfo>
        <originUncertainty>
          <preferredDescription>confidence ellipsoid</preferredDescription>
          <horizontalUncertainty>1220.0</horizontalUncertainty>
          <confidenceLevel>95.0</confidenceLevel>
          <confidenceEllipsoid>
            <semiMajorAxisLength>4296.0</semiMajorAxisLength>
            <semiMinorAxisLength>1776.0</semiMinorAxisLength>
            <semiIntermediateAxisLength>2760.0</semiIntermediateAxisLength>
            <majorAxisPlunge>46.0</majorAxisPlunge>
            <majorAxisAzimuth>288.0</majorAxisAzimuth>
            <majorAxisRotation>287.0</majorAxisRotation>
          </confidenceEllipsoid>
        </originUncertainty>
        <arrival publicID="quakeml:service.scedc.caltech.edu/fdsnws/event/1/query?assocaro=424247100">
          <pickID>quakeml:service.scedc.caltech.edu/fdsnws/event/1/query?assocaro=424247100</pickID>
          <phase>P</phase>
          <timeCorrection>0.0</timeCorrection>
          <azimuth>108.0</azimuth>
          <distance>0.005846</distance>
          <takeoffAngle>
            <value>174.0</value>
          </takeoffAngle>
          <timeResidual>-0.24</timeResidual>
          <timeWeight>0.14</timeWeight>
          <creationInfo>
            <agencyID>CI</agencyID>
            <creationTime>2025-01-06T18:15:29.000000Z</creationTime>
          </creationInfo>
        </arrival>
        <arrival publicID="quakeml:service.scedc.caltech.edu/fdsnws/event/1/query?assocaro=424247108">
          <pickID>quakeml:service.scedc.caltech.edu/fdsnws/event/1/query?assocaro=424247108</pickID>
          <phase>S</phase>
          <timeCorrection>-0.01</timeCorrection>
          <azimuth>108.0</azimuth>
          <distance>0.005846</distance>
          <takeoffAngle>
            <value>174.0</value>
          </takeoffAngle>
          <timeResidual>0.53</timeResidual>
          <timeWeight>0.07</timeWeight>
          <creationInfo>
            <agencyID>CI</agencyID>
            <creationTime>2025-01-06T18:15:29.000000Z</creationTime>
          </creationInfo>
        </arrival>
        <arrival publicID="quakeml:service.scedc.caltech.edu/fdsnws/event/1/query?assocaro=424247116">
          <pickID>quakeml:service.scedc.caltech.edu/fdsnws/event/1/query?assocaro=424247116</pickID>
          <phase>S</phase>
          <timeCorrection>-0.24</timeCorrection>
          <azimuth>125.0</azimuth>
          <distance>0.05303</distance>
          <takeoffAngle>
            <value>138.0</value>
          </takeoffAngle>
          <timeResidual>-0.15</timeResidual>
          <timeWeight>0.07</timeWeight>
          <creationInfo>
            <agencyID>CI</agencyID>
            <creationTime>2025-01-06T18:15:29.000000Z</creationTime>
          </creationInfo>
        </arrival>
        <arrival publicID="quakeml:service.scedc.caltech.edu/fdsnws/event/1/query?assocaro=424247124">
          <pickID>quakeml:service.scedc.caltech.edu/fdsnws/event/1/query?assocaro=424247124</pickID>
          <phase>P</phase>
          <timeCorrection>-0.09</timeCorrection>
          <azimuth>125.0</azimuth>
          <distance>0.05303</distance>
          <takeoffAngle>
            <value>138.0</value>
          </takeoffAngle>
          <timeResidual>0.13</timeResidual>
          <timeWeight>0.14</timeWeight>
          <creationInfo>
            <agencyID>CI</agencyID>
            <creationTime>2025-01-06T18:15:29.000000Z</creationTime>
          </creationInfo>
        </arrival>
        <arrival publicID="quakeml:service.scedc.caltech.edu/fdsnws/event/1/query?assocaro=424247132">
          <pickID>quakeml:service.scedc.caltech.edu/fdsnws/event/1/query?assocaro=424247132</pickID>
          <phase>P</phase>
          <timeCorrection>0.0</timeCorrection>
          <azimuth>91.7</azimuth>
          <distance>0.1321</distance>
          <takeoffAngle>
            <value>107.0</value>
          </takeoffAngle>
          <timeResidual>0.1</timeResidual>
          <timeWeight>0.14</timeWeight>
          <creationInfo>
            <agencyID>CI</agencyID>
            <creationTime>2025-01-06T18:15:29.000000Z</creationTime>
          </creationInfo>
        </arrival>
        <arrival publicID="quakeml:service.scedc.caltech.edu/fdsnws/event/1/query?assocaro=424247140">
          <pickID>quakeml:service.scedc.caltech.edu/fdsnws/event/1/query?assocaro=424247140</pickID>
          <phase>S</phase>
          <timeCorrection>0.0</timeCorrection>
          <azimuth>91.7</azimuth>
          <distance>0.1321</distance>
          <takeoffAngle>
            <value>107.0</value>
          </takeoffAngle>
          <timeResidual>-0.24</timeResidual>
          <timeWeight>0.07</timeWeight>
          <creationInfo>
            <agencyID>CI</agencyID>
            <creationTime>2025-01-06T18:15:29.000000Z</creationTime>
          </creationInfo>
        </arrival>
        <arrival publicID="quakeml:service.scedc.caltech.edu/fdsnws/event/1/query?assocaro=424247148">
          <pickID>quakeml:service.scedc.caltech.edu/fdsnws/event/1/query?assocaro=424247148</pickID>
          <phase>S</phase>
          <timeCorrection>-0.31</timeCorrection>
          <azimuth>147.1</azimuth>
          <distance>0.2585</distance>
          <takeoffAngle>
            <value>90.0</value>
          </takeoffAngle>
          <timeResidual>0.15</timeResidual>
          <timeWeight>0.07</timeWeight>
          <creationInfo>
            <agencyID>CI</agencyID>
            <creationTime>2025-01-06T18:15:29.000000Z</creationTime>
          </creationInfo>
        </arrival>
        <arrival publicID="quakeml:service.scedc.caltech.edu/fdsnws/event/1/query?assocaro=424247156">
          <pickID>quakeml:service.scedc.caltech.edu/fdsnws/event/1/query?assocaro=424247156</pickID>
          <phase>S</phase>
          <timeCorrection>-0.26</timeCorrection>
          <azimuth>147.5</azimuth>
          <distance>0.3442</distance>
          <takeoffAngle>
            <value>90.0</value>
          </takeoffAngle>
          <timeResidual>0.08</timeResidual>
          <timeWeight>0.07</timeWeight>
          <creationInfo>
            <agencyID>CI</agencyID>
            <creationTime>2025-01-06T18:15:29.000000Z</creationTime>
          </creationInfo>
        </arrival>
      </origin>
      <magnitude publicID="quakeml:service.scedc.caltech.edu/fdsnws/event/1/query?magnitudeid=111258804">
        <mag>
          <value>0.28</value>
          <uncertainty>0.171</uncertainty>
        </mag>
        <type>Ml</type>
        <originID>quakeml:service.scedc.caltech.edu/fdsnws/event/1/query?originid=108872932</originID>
        <methodID>smi:ci.anss.org/magnitude/CISNml2</methodID>
        <stationCount>5</stationCount>
        <azimuthalGap>304.2</azimuthalGap>
        <evaluationMode>manual</evaluationMode>
        <evaluationStatus>reviewed</evaluationStatus>
        <stationMagnitudeContribution>
          <stationMagnitudeID>quakeml:service.scedc.caltech.edu/fdsnws/event/1/query?assocammid=872319500</stationMagnitudeID>
          <weight>1.0</weight>
          <residual>-0.05</residual>
        </stationMagnitudeContribution>
        <stationMagnitudeContribution>
          <stationMagnitudeID>quakeml:service.scedc.caltech.edu/fdsnws/event/1/query?assocammid=872319516</stationMagnitudeID>
          <weight>1.0</weight>
          <residual>-0.11</residual>
        </stationMagnitudeContribution>
        <stationMagnitudeContribution>
          <stationMagnitudeID>quakeml:service.scedc.caltech.edu/fdsnws/event/1/query?assocammid=872319532</stationMagnitudeID>
          <weight>1.0</weight>
          <residual>-0.15</residual>
        </stationMagnitudeContribution>
        <stationMagnitudeContribution>
          <stationMagnitudeID>quakeml:service.scedc.caltech.edu/fdsnws/event/1/query?assocammid=872319484</stationMagnitudeID>
          <weight>1.0</weight>
          <residual>0.66</residual>
        </stationMagnitudeContribution>
        <stationMagnitudeContribution>
          <stationMagnitudeID>quakeml:service.scedc.caltech.edu/fdsnws/event/1/query?assocammid=872319492</stationMagnitudeID>
          <weight>1.0</weight>
          <residual>0.63</residual>
        </stationMagnitudeContribution>
        <stationMagnitudeContribution>
          <stationMagnitudeID>quakeml:service.scedc.caltech.edu/fdsnws/event/1/query?assocammid=872319524</stationMagnitudeID>
          <weight>1.0</weight>
          <residual>-0.25</residual>
        </stationMagnitudeContribution>
        <stationMagnitudeContribution>
          <stationMagnitudeID>quakeml:service.scedc.caltech.edu/fdsnws/event/1/query?assocammid=872319540</stationMagnitudeID>
          <weight>1.0</weight>
          <residual>0.19</residual>
        </stationMagnitudeContribution>
        <stationMagnitudeContribution>
          <stationMagnitudeID>quakeml:service.scedc.caltech.edu/fdsnws/event/1/query?assocammid=872319508</stationMagnitudeID>
          <weight>1.0</weight>
          <residual>0.05</residual>
        </stationMagnitudeContribution>
        <creationInfo>
          <agencyID>CI</agencyID>
          <creationTime>2025-01-06T18:15:29.000000Z</creationTime>
        </creationInfo>
      </magnitude>
      <stationMagnitude publicID="quakeml:service.scedc.caltech.edu/fdsnws/event/1/query?assocammid=872319484">
        <originID>quakeml:service.scedc.caltech.edu/fdsnws/event/1/query?originid=108872932</originID>
        <mag>
          <value>0.94</value>
        </mag>
        <type>ML</type>
        <amplitudeID>quakeml:service.scedc.caltech.edu/fdsnws/event/1/query?ampid=872319484</amplitudeID>
        <waveformID networkCode="CE" stationCode="23417" locationCode="10" channelCode="HNN"></waveformID>
      </stationMagnitude>
      <stationMagnitude publicID="quakeml:service.scedc.caltech.edu/fdsnws/event/1/query?assocammid=872319492">
        <originID>quakeml:service.scedc.caltech.edu/fdsnws/event/1/query?originid=108872932</originID>
        <mag>
          <value>0.91</value>
        </mag>
        <type>ML</type>
        <amplitudeID>quakeml:service.scedc.caltech.edu/fdsnws/event/1/query?ampid=872319492</amplitudeID>
        <waveformID networkCode="CE" stationCode="23417" locationCode="10" channelCode="HNE"></waveformID>
      </stationMagnitude>
      <stationMagnitude publicID="quakeml:service.scedc.caltech.edu/fdsnws/event/1/query?assocammid=872319500">
        <originID>quakeml:service.scedc.caltech.edu/fdsnws/event/1/query?originid=108872932</originID>
        <mag>
          <value>0.23</value>
        </mag>
        <type>ML</type>
        <amplitudeID>quakeml:service.scedc.caltech.edu/fdsnws/event/1/query?ampid=872319500</amplitudeID>
        <waveformID networkCode="CI" stationCode="MLS" locationCode="" channelCode="HHN"></waveformID>
      </stationMagnitude>
      <stationMagnitude publicID="quakeml:service.scedc.caltech.edu/fdsnws/event/1/query?assocammid=872319508">
        <originID>quakeml:service.scedc.caltech.edu/fdsnws/event/1/query?originid=108872932</originID>
        <mag>
          <value>0.33</value>
        </mag>
        <type>ML</type>
        <amplitudeID>quakeml:service.scedc.caltech.edu/fdsnws/event/1/query?ampid=872319508</amplitudeID>
        <waveformID networkCode="CI" stationCode="MLS" locationCode="" channelCode="HHE"></waveformID>
      </stationMagnitude>
      <stationMagnitude publicID="quakeml:service.scedc.caltech.edu/fdsnws/event/1/query?assocammid=872319516">
        <originID>quakeml:service.scedc.caltech.edu/fdsnws/event/1/query?originid=108872932</originID>
        <mag>
          <value>0.17</value>
        </mag>
        <type>ML</type>
        <amplitudeID>quakeml:service.scedc.caltech.edu/fdsnws/event/1/query?ampid=872319516</amplitudeID>
        <waveformID networkCode="CI" stationCode="SSS" locationCode="" channelCode="HHN"></waveformID>
      </stationMagnitude>
      <stationMagnitude publicID="quakeml:service.scedc.caltech.edu/fdsnws/event/1/query?assocammid=872319524">
        <originID>quakeml:service.scedc.caltech.edu/fdsnws/event/1/query?originid=108872932</originID>
        <mag>
          <value>0.03</value>
        </mag>
        <type>ML</type>
        <amplitudeID>quakeml:service.scedc.caltech.edu/fdsnws/event/1/query?ampid=872319524</amplitudeID>
        <waveformID networkCode="CI" stationCode="SSS" locationCode="" channelCode="HHE"></waveformID>
      </stationMagnitude>
      <stationMagnitude publicID="quakeml:service.scedc.caltech.edu/fdsnws/event/1/query?assocammid=872319532">
        <originID>quakeml:service.scedc.caltech.edu/fdsnws/event/1/query?originid=108872932</originID>
        <mag>
          <value>0.13</value>
        </mag>
        <type>ML</type>
        <amplitudeID>quakeml:service.scedc.caltech.edu/fdsnws/event/1/query?ampid=872319532</amplitudeID>
        <waveformID networkCode="CI" stationCode="LMS" locationCode="" channelCode="HHN"></waveformID>
      </stationMagnitude>
      <stationMagnitude publicID="quakeml:service.scedc.caltech.edu/fdsnws/event/1/query?assocammid=872319540">
        <originID>quakeml:service.scedc.caltech.edu/fdsnws/event/1/query?originid=108872932</originID>
        <mag>
          <value>0.47</value>
        </mag>
        <type>ML</type>
        <amplitudeID>quakeml:service.scedc.caltech.edu/fdsnws/event/1/query?ampid=872319540</amplitudeID>
        <waveformID networkCode="CI" stationCode="LMH" locationCode="" channelCode="HHE"></waveformID>
      </stationMagnitude>
      <pick publicID="quakeml:service.scedc.caltech.edu/fdsnws/event/1/query?assocaro=424247100">
        <time>
          <value>2025-01-01T12:31:30.710000Z</value>
          <uncertainty>0.15</uncertainty>
        </time>
        <waveformID networkCode="CE" stationCode="23417" locationCode="10" channelCode="HNZ"></waveformID>
        <onset>emergent</onset>
        <phaseHint>P</phaseHint>
        <polarity>undecidable</polarity>
        <evaluationMode>manual</evaluationMode>
        <evaluationStatus>reviewed</evaluationStatus>
        <creationInfo>
          <agencyID>CI</agencyID>
          <creationTime>2025-01-06T18:12:27.000000Z</creationTime>
        </creationInfo>
      </pick>
      <pick publicID="quakeml:service.scedc.caltech.edu/fdsnws/event/1/query?assocaro=424247108">
        <time>
          <value>2025-01-01T12:31:32.510000Z</value>
          <uncertainty>0.15</uncertainty>
        </time>
        <waveformID networkCode="CE" stationCode="23417" locationCode="10" channelCode="HNE"></waveformID>
        <onset>emergent</onset>
        <phaseHint>S</phaseHint>
        <polarity>undecidable</polarity>
        <evaluationMode>manual</evaluationMode>
        <evaluationStatus>reviewed</evaluationStatus>
        <creationInfo>
          <agencyID>CI</agencyID>
          <creationTime>2025-01-06T18:12:27.000000Z</creationTime>
        </creationInfo>
      </pick>
      <pick publicID="quakeml:service.scedc.caltech.edu/fdsnws/event/1/query?assocaro=424247116">
        <time>
          <value>2025-01-01T12:31:32.180000Z</value>
          <uncertainty>0.15</uncertainty>
        </time>
        <waveformID networkCode="CI" stationCode="MLS" locationCode="" channelCode="HHN"></waveformID>
        <onset>emergent</onset>
        <phaseHint>S</phaseHint>
        <polarity>undecidable</polarity>
        <evaluationMode>manual</evaluationMode>
        <evaluationStatus>reviewed</evaluationStatus>
        <creationInfo>
          <agencyID>CI</agencyID>
          <creationTime>2025-01-06T18:12:27.000000Z</creationTime>
        </creationInfo>
      </pick>
      <pick publicID="quakeml:service.scedc.caltech.edu/fdsnws/event/1/query?assocaro=424247124">
        <time>
          <value>2025-01-01T12:31:31.330000Z</value>
          <uncertainty>0.15</uncertainty>
        </time>
        <waveformID networkCode="CI" stationCode="MLS" locationCode="" channelCode="HNZ"></waveformID>
        <onset>emergent</onset>
        <phaseHint>P</phaseHint>
        <polarity>undecidable</polarity>
        <evaluationMode>manual</evaluationMode>
        <evaluationStatus>reviewed</evaluationStatus>
        <creationInfo>
          <agencyID>CI</agencyID>
          <creationTime>2025-01-06T18:12:27.000000Z</creationTime>
        </creationInfo>
      </pick>
      <pick publicID="quakeml:service.scedc.caltech.edu/fdsnws/event/1/query?assocaro=424247132">
        <time>
          <value>2025-01-01T12:31:32.580000Z</value>
          <uncertainty>0.15</uncertainty>
        </time>
        <waveformID networkCode="CI" stationCode="SSS" locationCode="" channelCode="BHZ"></waveformID>
        <onset>emergent</onset>
        <phaseHint>P</phaseHint>
        <polarity>undecidable</polarity>
        <evaluationMode>manual</evaluationMode>
        <evaluationStatus>reviewed</evaluationStatus>
        <creationInfo>
          <agencyID>CI</agencyID>
          <creationTime>2025-01-06T18:12:27.000000Z</creationTime>
        </creationInfo>
      </pick>
      <pick publicID="quakeml:service.scedc.caltech.edu/fdsnws/event/1/query?assocaro=424247140">
        <time>
          <value>2025-01-01T12:31:34.380000Z</value>
          <uncertainty>0.15</uncertainty>
        </time>
        <waveformID networkCode="CI" stationCode="SSS" locationCode="" channelCode="BHN"></waveformID>
        <onset>emergent</onset>
        <phaseHint>S</phaseHint>
        <polarity>undecidable</polarity>
        <evaluationMode>manual</evaluationMode>
