<?xml version='1.0' encoding='utf-8'?>
<q:quakeml xmlns="http://quakeml.org/xmlns/bed/1.2" xmlns:q="http://quakeml.org/xmlns/quakeml/1.2" xmlns:ns0="http://anss.org/xmlns/catalog/0.1">
  <eventParameters publicID="smi:local/a7d4e1c6-5210-4864-b22b-f6fa74f82171">
    <event publicID="quakeml:service.scedc.caltech.edu/fdsnws/event/1/query?eventid=40841279" ns0:datasource="ci" ns0:dataid="ci40841279" ns0:eventsource="ci" ns0:eventid="40841279">
      <preferredOriginID>quakeml:service.scedc.caltech.edu/fdsnws/event/1/query?originid=108886012</preferredOriginID>
      <preferredMagnitudeID>quakeml:service.scedc.caltech.edu/fdsnws/event/1/query?magnitudeid=111270868</preferredMagnitudeID>
      <type>earthquake</type>
      <creationInfo>
        <agencyID>CI</agencyID>
        <agencyURI>quakeml:doi.org/10.7909/C3WD3xH1</agencyURI>
        <creationTime>2025-02-12T21:45:06.000000Z</creationTime>
        <version>7</version>
      </creationInfo>
      <origin publicID="quakeml:service.scedc.caltech.edu/fdsnws/event/1/query?originid=108886012" ns0:datasource="ci" ns0:dataid="ci40841279" ns0:eventsource="ci" ns0:eventid="40841279">
        <time>
          <value>2025-01-16T20:56:43.870000Z</value>
        </time>
        <latitude>
          <value>35.951</value>
        </latitude>
        <longitude>
          <value>-117.6773333</value>
        </longitude>
        <depth>
          <value>5220.0</value>
          <uncertainty>400.0</uncertainty>
        </depth>
        <depthType>from location</depthType>
        <timeFixed>false</timeFixed>
        <epicenterFixed>false</epicenterFixed>
        <methodID>smi:ci.anss.org/origin/HYP2000</methodID>
        <quality>
          <associatedPhaseCount>35</associatedPhaseCount>
          <usedPhaseCount>35</usedPhaseCount>
          <associatedStationCount>20</associatedStationCount>
          <usedStationCount>20</usedStationCount>
          <standardError>0.13</standardError>
          <azimuthalGap>100.0</azimuthalGap>
          <secondaryAzimuthalGap>400.0</secondaryAzimuthalGap>
          <minimumDistance>0.02209</minimumDistance>
          <maximumDistance>1.087</maximumDistance>
          <medianDistance>0.503</medianDistance>
        </quality>
        <type>hypocenter</type>
        <evaluationMode>manual</evaluationMode>
        <evaluationStatus>final</evaluationStatus>
        <creationInfo>
          <agencyID>CI</agencyID>
          <creationTime>2025-02-12T21:45:06.000000Z</creationTime>
        </creationInfo>
        <originUncertainty>
          <preferredDescription>confidence ellipsoid</preferredDescription>
          <horizontalUncertainty>190.0</horizontalUncertainty>
          <confidenceLevel>95.0</confidenceLevel>
          <confidenceEllipsoid>
            <semiMajorAxisLength>1032.0</semiMajorAxisLength>
            <semiMinorAxisLength>408.0</semiMinorAxisLength>
            <semiIntermediateAxisLength>480.0</semiIntermediateAxisLength>
            <majorAxisPlunge>69.0</majorAxisPlunge>
            <majorAxisAzimuth>49.0</majorAxisAzimuth>
            <majorAxisRotation>316.0</majorAxisRotation>
          </confidenceEllipsoid>
        </originUncertainty>
        <arrival publicID="quakeml:service.scedc.caltech.edu/fdsnws/event/1/query?assocaro=266444853">
          <pickID>quakeml:service.scedc.caltech.edu/fdsnws/event/1/query?assocaro=266444853</pickID>
          <phase>P</phase>
          <timeCorrection>-0.05</timeCorrection>
          <azimuth>98.1</azimuth>
          <distance>0.02209</distance>
          <takeoffAngle>
            <value>154.0</value>
          </takeoffAngle>
          <timeResidual>0.01</timeResidual>
          <timeWeight>0.25</timeWeight>
          <creationInfo>
            <agencyID>CI</agencyID>
            <creationTime>2025-02-12T21:45:06.000000Z</creationTime>
          </creationInfo>
        </arrival>
        <arrival publicID="quakeml:service.scedc.caltech.edu/fdsnws/event/1/query?assocaro=266444885">
          <pickID>quakeml:service.scedc.caltech.edu/fdsnws/event/1/query?assocaro=266444885</pickID>
          <phase>P</phase>
          <timeCorrection>0.2</timeCorrection>
          <azimuth>206.5</azimuth>
          <distance>0.1589</distance>
          <takeoffAngle>
            <value>92.0</value>
          </takeoffAngle>
          <timeResidual>0.03</timeResidual>
          <timeWeight>0.25</timeWeight>
          <creationInfo>
            <agencyID>CI</agencyID>
            <creationTime>2025-02-12T21:45:06.000000Z</creationTime>
          </creationInfo>
        </arrival>
        <arrival publicID="quakeml:service.scedc.caltech.edu/fdsnws/event/1/query?assocaro=266444917">
          <pickID>quakeml:service.scedc.caltech.edu/fdsnws/event/1/query?assocaro=266444917</pickID>
          <phase>P</phase>
          <timeCorrection>-0.11</timeCorrection>
          <azimuth>239.7</azimuth>
          <distance>0.2152</distance>
          <takeoffAngle>
            <value>90.0</value>
          </takeoffAngle>
          <timeResidual>0.03</timeResidual>
          <timeWeight>0.25</timeWeight>
          <creationInfo>
            <agencyID>CI</agencyID>
            <creationTime>2025-02-12T21:45:06.000000Z</creationTime>
          </creationInfo>
        </arrival>
        <arrival publicID="quakeml:service.scedc.caltech.edu/fdsnws/event/1/query?assocaro=266445053">
          <pickID>quakeml:service.scedc.caltech.edu/fdsnws/event/1/query?assocaro=266445053</pickID>
          <phase>P</phase>
          <timeCorrection>-0.1</timeCorrection>
          <azimuth>222.3</azimuth>
          <distance>0.5593</distance>
          <takeoffAngle>
            <value>79.0</value>
          </takeoffAngle>
          <timeResidual>0.04</timeResidual>
          <timeWeight>0.12</timeWeight>
          <creationInfo>
            <agencyID>CI</agencyID>
            <creationTime>2025-02-12T21:45:06.000000Z</creationTime>
          </creationInfo>
        </arrival>
        <arrival publicID="quakeml:service.scedc.caltech.edu/fdsnws/event/1/query?assocaro=424694908">
          <pickID>quakeml:service.scedc.caltech.edu/fdsnws/event/1/query?assocaro=424694908</pickID>
          <phase>S</phase>
          <timeCorrection>-0.18</timeCorrection>
          <azimuth>98.1</azimuth>
          <distance>0.02209</distance>
          <takeoffAngle>
            <value>154.0</value>
          </takeoffAngle>
          <timeResidual>0.24</timeResidual>
          <timeWeight>0.06</timeWeight>
          <creationInfo>
            <agencyID>CI</agencyID>
            <creationTime>2025-02-12T21:45:06.000000Z</creationTime>
          </creationInfo>
        </arrival>
        <arrival publicID="quakeml:service.scedc.caltech.edu/fdsnws/event/1/query?assocaro=424694916">
          <pickID>quakeml:service.scedc.caltech.edu/fdsnws/event/1/query?assocaro=424694916</pickID>
          <phase>P</phase>
          <timeCorrection>-0.07</timeCorrection>
          <azimuth>316.2</azimuth>
          <distance>0.1028</distance>
          <takeoffAngle>
            <value>103.0</value>
          </takeoffAngle>
          <timeResidual>-0.03</timeResidual>
          <timeWeight>0.19</timeWeight>
          <creationInfo>
            <agencyID>CI</agencyID>
            <creationTime>2025-02-12T21:45:06.000000Z</creationTime>
          </creationInfo>
        </arrival>
        <arrival publicID="quakeml:service.scedc.caltech.edu/fdsnws/event/1/query?assocaro=424694924">
          <pickID>quakeml:service.scedc.caltech.edu/fdsnws/event/1/query?assocaro=424694924</pickID>
          <phase>S</phase>
          <timeCorrection>-0.27</timeCorrection>
          <azimuth>316.2</azimuth>
          <distance>0.1028</distance>
          <takeoffAngle>
            <value>102.0</value>
          </takeoffAngle>
          <timeResidual>0.02</timeResidual>
          <timeWeight>0.06</timeWeight>
          <creationInfo>
            <agencyID>CI</agencyID>
            <creationTime>2025-02-12T21:45:06.000000Z</creationTime>
          </creationInfo>
        </arrival>
        <arrival publicID="quakeml:service.scedc.caltech.edu/fdsnws/event/1/query?assocaro=424694932">
          <pickID>quakeml:service.scedc.caltech.edu/fdsnws/event/1/query?assocaro=424694932</pickID>
          <phase>S</phase>
          <timeCorrection>-0.18</timeCorrection>
          <azimuth>206.5</azimuth>
          <distance>0.1589</distance>
          <takeoffAngle>
            <value>91.0</value>
          </takeoffAngle>
          <timeResidual>1.09</timeResidual>
          <timeWeight>0.05</timeWeight>
          <creationInfo>
            <agencyID>CI</agencyID>
            <creationTime>2025-02-12T21:45:06.000000Z</creationTime>
          </creationInfo>
        </arrival>
        <arrival publicID="quakeml:service.scedc.caltech.edu/fdsnws/event/1/query?assocaro=424694940">
          <pickID>quakeml:service.scedc.caltech.edu/fdsnws/event/1/query?assocaro=424694940</pickID>
          <phase>P</phase>
          <timeCorrection>-0.09</timeCorrection>
          <azimuth>288.3</azimuth>
          <distance>0.1819</distance>
          <takeoffAngle>
            <value>91.0</value>
          </takeoffAngle>
          <timeResidual>-0.03</timeResidual>
          <timeWeight>0.12</timeWeight>
          <creationInfo>
            <agencyID>CI</agencyID>
            <creationTime>2025-02-12T21:45:06.000000Z</creationTime>
          </creationInfo>
        </arrival>
        <arrival publicID="quakeml:service.scedc.caltech.edu/fdsnws/event/1/query?assocaro=424694948">
          <pickID>quakeml:service.scedc.caltech.edu/fdsnws/event/1/query?assocaro=424694948</pickID>
          <phase>S</phase>
          <timeCorrection>-0.28</timeCorrection>
          <azimuth>288.3</azimuth>
          <distance>0.1819</distance>
          <takeoffAngle>
            <value>91.0</value>
          </takeoffAngle>
          <timeResidual>0.0</timeResidual>
          <timeWeight>0.06</timeWeight>
          <creationInfo>
            <agencyID>CI</agencyID>
            <creationTime>2025-02-12T21:45:06.000000Z</creationTime>
          </creationInfo>
        </arrival>
        <arrival publicID="quakeml:service.scedc.caltech.edu/fdsnws/event/1/query?assocaro=424694956">
          <pickID>quakeml:service.scedc.caltech.edu/fdsnws/event/1/query?assocaro=424694956</pickID>
          <phase>S</phase>
          <timeCorrection>-0.36</timeCorrection>
          <azimuth>239.7</azimuth>
          <distance>0.2152</distance>
          <takeoffAngle>
            <value>90.0</value>
          </takeoffAngle>
          <timeResidual>0.16</timeResidual>
          <timeWeight>0.06</timeWeight>
          <creationInfo>
            <agencyID>CI</agencyID>
            <creationTime>2025-02-12T21:45:06.000000Z</creationTime>
          </creationInfo>
        </arrival>
        <arrival publicID="quakeml:service.scedc.caltech.edu/fdsnws/event/1/query?assocaro=424694964">
          <pickID>quakeml:service.scedc.caltech.edu/fdsnws/event/1/query?assocaro=424694964</pickID>
          <phase>P</phase>
          <timeCorrection>-0.09</timeCorrection>
          <azimuth>319.3</azimuth>
          <distance>0.2199</distance>
          <takeoffAngle>
            <value>90.0</value>
          </takeoffAngle>
          <timeResidual>0.01</timeResidual>
          <timeWeight>0.19</timeWeight>
          <creationInfo>
            <agencyID>CI</agencyID>
            <creationTime>2025-02-12T21:45:06.000000Z</creationTime>
          </creationInfo>
        </arrival>
        <arrival publicID="quakeml:service.scedc.caltech.edu/fdsnws/event/1/query?assocaro=424694972">
          <pickID>quakeml:service.scedc.caltech.edu/fdsnws/event/1/query?assocaro=424694972</pickID>
          <phase>S</phase>
          <timeCorrection>-0.27</timeCorrection>
          <azimuth>319.3</azimuth>
          <distance>0.2199</distance>
          <takeoffAngle>
            <value>90.0</value>
          </takeoffAngle>
          <timeResidual>-0.06</timeResidual>
          <timeWeight>0.06</timeWeight>
          <creationInfo>
            <agencyID>CI</agencyID>
            <creationTime>2025-02-12T21:45:06.000000Z</creationTime>
          </creationInfo>
        </arrival>
        <arrival publicID="quakeml:service.scedc.caltech.edu/fdsnws/event/1/query?assocaro=424694980">
          <pickID>quakeml:service.scedc.caltech.edu/fdsnws/event/1/query?assocaro=424694980</pickID>
          <phase>P</phase>
          <timeCorrection>-0.01</timeCorrection>
          <azimuth>100.5</azimuth>
          <distance>0.3254</distance>
          <takeoffAngle>
            <value>90.0</value>
          </takeoffAngle>
          <timeResidual>0.01</timeResidual>
          <timeWeight>0.12</timeWeight>
          <creationInfo>
            <agencyID>CI</agencyID>
            <creationTime>2025-02-12T21:45:06.000000Z</creationTime>
          </creationInfo>
        </arrival>
        <arrival publicID="quakeml:service.scedc.caltech.edu/fdsnws/event/1/query?assocaro=424694988">
          <pickID>quakeml:service.scedc.caltech.edu/fdsnws/event/1/query?assocaro=424694988</pickID>
          <phase>S</phase>
          <timeCorrection>-0.14</timeCorrection>
          <azimuth>100.5</azimuth>
          <distance>0.3254</distance>
          <takeoffAngle>
            <value>90.0</value>
          </takeoffAngle>
          <timeResidual>0.06</timeResidual>
          <timeWeight>0.06</timeWeight>
          <creationInfo>
            <agencyID>CI</agencyID>
            <creationTime>2025-02-12T21:45:06.000000Z</creationTime>
          </creationInfo>
        </arrival>
        <arrival publicID="quakeml:service.scedc.caltech.edu/fdsnws/event/1/query?assocaro=424694996">
          <pickID>quakeml:service.scedc.caltech.edu/fdsnws/event/1/query?assocaro=424694996</pickID>
          <phase>P</phase>
          <timeCorrection>0.0</timeCorrection>
          <azimuth>144.2</azimuth>
          <distance>0.352</distance>
          <takeoffAngle>
            <value>90.0</value>
          </takeoffAngle>
          <timeResidual>-0.37</timeResidual>
          <timeWeight>0.12</timeWeight>
          <creationInfo>
            <agencyID>CI</agencyID>
            <creationTime>2025-02-12T21:45:06.000000Z</creationTime>
          </creationInfo>
        </arrival>
        <arrival publicID="quakeml:service.scedc.caltech.edu/fdsnws/event/1/query?assocaro=424695004">
          <pickID>quakeml:service.scedc.caltech.edu/fdsnws/event/1/query?assocaro=424695004</pickID>
          <phase>S</phase>
          <timeCorrection>0.0</timeCorrection>
          <azimuth>144.2</azimuth>
          <distance>0.352</distance>
          <takeoffAngle>
            <value>90.0</value>
          </takeoffAngle>
          <timeResidual>-0.57</timeResidual>
          <timeWeight>0.06</timeWeight>
          <creationInfo>
            <agencyID>CI</agencyID>
            <creationTime>2025-02-12T21:45:06.000000Z</creationTime>
          </creationInfo>
        </arrival>
        <arrival publicID="quakeml:service.scedc.caltech.edu/fdsnws/event/1/query?assocaro=424695012">
          <pickID>quakeml:service.scedc.caltech.edu/fdsnws/event/1/query?assocaro=424695012</pickID>
          <phase>S</phase>
          <timeCorrection>-0.25</timeCorrection>
          <azimuth>180.5</azimuth>
          <distance>0.4705</distance>
          <takeoffAngle>
            <value>90.0</value>
          </takeoffAngle>
          <timeResidual>0.15</timeResidual>
          <timeWeight>0.06</timeWeight>
          <creationInfo>
            <agencyID>CI</agencyID>
            <creationTime>2025-02-12T21:45:06.000000Z</creationTime>
          </creationInfo>
        </arrival>
        <arrival publicID="quakeml:service.scedc.caltech.edu/fdsnws/event/1/query?assocaro=424695020">
          <pickID>quakeml:service.scedc.caltech.edu/fdsnws/event/1/query?assocaro=424695020</pickID>
          <phase>P</phase>
          <timeCorrection>-0.09</timeCorrection>
          <azimuth>180.5</azimuth>
          <distance>0.4705</distance>
          <takeoffAngle>
            <value>90.0</value>
          </takeoffAngle>
          <timeResidual>-0.04</timeResidual>
          <timeWeight>0.12</timeWeight>
          <creationInfo>
            <agencyID>CI</agencyID>
            <creationTime>2025-02-12T21:45:06.000000Z</creationTime>
          </creationInfo>
        </arrival>
        <arrival publicID="quakeml:service.scedc.caltech.edu/fdsnws/event/1/query?assocaro=424695028">
          <pickID>quakeml:service.scedc.caltech.edu/fdsnws/event/1/query?assocaro=424695028</pickID>
          <phase>P</phase>
          <timeCorrection>0.0</timeCorrection>
          <azimuth>138.7</azimuth>
          <distance>0.4808</distance>
          <takeoffAngle>
            <value>90.0</value>
          </takeoffAngle>
          <timeResidual>-0.05</timeResidual>
          <timeWeight>0.12</timeWeight>
          <creationInfo>
            <agencyID>CI</agencyID>
            <creationTime>2025-02-12T21:45:06.000000Z</creationTime>
          </creationInfo>
        </arrival>
        <arrival publicID="quakeml:service.scedc.caltech.edu/fdsnws/event/1/query?assocaro=424695036">
          <pickID>quakeml:service.scedc.caltech.edu/fdsnws/event/1/query?assocaro=424695036</pickID>
          <phase>S</phase>
          <timeCorrection>0.0</timeCorrection>
          <azimuth>138.7</azimuth>
          <distance>0.4808</distance>
          <takeoffAngle>
            <value>90.0</value>
          </takeoffAngle>
          <timeResidual>0.35</timeResidual>
          <timeWeight>0.06</timeWeight>
          <creationInfo>
            <agencyID>CI</agencyID>
            <creationTime>2025-02-12T21:45:06.000000Z</creationTime>
          </creationInfo>
        </arrival>
        <arrival publicID="quakeml:service.scedc.caltech.edu/fdsnws/event/1/query?assocaro=424695044">
          <pickID>quakeml:service.scedc.caltech.edu/fdsnws/event/1/query?assocaro=424695044</pickID>
          <phase>P</phase>
          <timeCorrection>-0.12</timeCorrection>
          <azimuth>241.0</azimuth>
          <distance>0.5252</distance>
          <takeoffAngle>
            <value>79.0</value>
          </takeoffAngle>
          <timeResidual>-0.09</timeResidual>
          <timeWeight>0.12</timeWeight>
          <creationInfo>
            <agencyID>CI</agencyID>
            <creationTime>2025-02-12T21:45:06.000000Z</creationTime>
          </creationInfo>
        </arrival>
        <arrival publicID="quakeml:service.scedc.caltech.edu/fdsnws/event/1/query?assocaro=424695052">
          <pickID>quakeml:service.scedc.caltech.edu/fdsnws/event/1/query?assocaro=424695052</pickID>
          <phase>S</phase>
          <timeCorrection>0.0</timeCorrection>
          <azimuth>60.7</azimuth>
          <distance>0.5485</distance>
          <takeoffAngle>
            <value>79.0</value>
          </takeoffAngle>
          <timeResidual>0.13</timeResidual>
          <timeWeight>0.03</timeWeight>
          <creationInfo>
            <agencyID>CI</agencyID>
            <creationTime>2025-02-12T21:45:06.000000Z</creationTime>
          </creationInfo>
        </arrival>
        <arrival publicID="quakeml:service.scedc.caltech.edu/fdsnws/event/1/query?assocaro=424695060">
          <pickID>quakeml:service.scedc.caltech.edu/fdsnws/event/1/query?assocaro=424695060</pickID>
          <phase>S</phase>
          <timeCorrection>-0.3</timeCorrection>
          <azimuth>222.3</azimuth>
          <distance>0.5593</distance>
          <takeoffAngle>
            <value>79.0</value>
          </takeoffAngle>
          <timeResidual>0.28</timeResidual>
          <timeWeight>0.06</timeWeight>
          <creationInfo>
            <agencyID>CI</agencyID>
            <creationTime>2025-02-12T21:45:06.000000Z</creationTime>
          </creationInfo>
        </arrival>
        <arrival publicID="quakeml:service.scedc.caltech.edu/fdsnws/event/1/query?assocaro=424695068">
