<?xml version='1.0' encoding='utf-8'?>
<q:quakeml xmlns="http://quakeml.org/xmlns/bed/1.2" xmlns:q="http://quakeml.org/xmlns/quakeml/1.2" xmlns:ns0="http://anss.org/xmlns/catalog/0.1">
  <eventParameters publicID="smi:local/84b4a4fe-391e-4783-8a5b-01f81c2c4e7f">
    <event publicID="quakeml:service.scedc.caltech.edu/fdsnws/event/1/query?eventid=40831479" ns0:datasource="ci" ns0:dataid="ci40831479" ns0:eventsource="ci" ns0:eventid="40831479">
      <preferredOriginID>quakeml:service.scedc.caltech.edu/fdsnws/event/1/query?originid=108876620</preferredOriginID>
      <preferredMagnitudeID>quakeml:service.scedc.caltech.edu/fdsnws/event/1/query?magnitudeid=111262572</preferredMagnitudeID>
      <type>earthquake</type>
      <creationInfo>
        <agencyID>CI</agencyID>
        <agencyURI>quakeml:doi.org/10.7909/C3WD3xH1</agencyURI>
        <creationTime>2025-01-16T23:11:37.000000Z</creationTime>
        <version>6</version>
      </creationInfo>
      <origin publicID="quakeml:service.scedc.caltech.edu/fdsnws/event/1/query?originid=108876620" ns0:datasource="ci" ns0:dataid="ci40831479" ns0:eventsource="ci" ns0:eventid="40831479">
        <time>
          <value>2025-01-01T15:21:02.590000Z</value>
        </time>
        <latitude>
          <value>32.7605</value>
        </latitude>
        <longitude>
          <value>-115.4283333</value>
        </longitude>
        <depth>
          <value>11860.0</value>
          <uncertainty>700.0</uncertainty>
        </depth>
        <depthType>from location</depthType>
        <timeFixed>false</timeFixed>
        <epicenterFixed>false</epicenterFixed>
        <methodID>smi:ci.anss.org/origin/HYP2000</methodID>
        <quality>
          <associatedPhaseCount>44</associatedPhaseCount>
          <usedPhaseCount>39</usedPhaseCount>
          <associatedStationCount>28</associatedStationCount>
          <usedStationCount>26</usedStationCount>
          <standardError>0.31</standardError>
          <azimuthalGap>105.0</azimuthalGap>
          <secondaryAzimuthalGap>464.0</secondaryAzimuthalGap>
          <minimumDistance>0.04732</minimumDistance>
          <maximumDistance>0.8925</maximumDistance>
          <medianDistance>0.4792</medianDistance>
        </quality>
        <type>hypocenter</type>
        <evaluationMode>manual</evaluationMode>
        <evaluationStatus>final</evaluationStatus>
        <creationInfo>
          <agencyID>CI</agencyID>
          <creationTime>2025-01-16T23:11:37.000000Z</creationTime>
        </creationInfo>
        <originUncertainty>
          <preferredDescription>confidence ellipsoid</preferredDescription>
          <horizontalUncertainty>510.0</horizontalUncertainty>
          <confidenceLevel>95.0</confidenceLevel>
          <confidenceEllipsoid>
            <semiMajorAxisLength>1776.0</semiMajorAxisLength>
            <semiMinorAxisLength>888.0</semiMinorAxisLength>
            <semiIntermediateAxisLength>1248.0</semiIntermediateAxisLength>
            <majorAxisPlunge>71.0</majorAxisPlunge>
            <majorAxisAzimuth>10.0</majorAxisAzimuth>
            <majorAxisRotation>323.0</majorAxisRotation>
          </confidenceEllipsoid>
        </originUncertainty>
        <arrival publicID="quakeml:service.scedc.caltech.edu/fdsnws/event/1/query?assocaro=266187109">
          <pickID>quakeml:service.scedc.caltech.edu/fdsnws/event/1/query?assocaro=266187109</pickID>
          <phase>S</phase>
          <timeCorrection>0.69</timeCorrection>
          <azimuth>356.4</azimuth>
          <distance>0.1013</distance>
          <takeoffAngle>
            <value>132.0</value>
          </takeoffAngle>
          <timeResidual>0.33</timeResidual>
          <timeWeight>0.11</timeWeight>
          <creationInfo>
            <agencyID>CI</agencyID>
            <creationTime>2025-01-16T23:11:37.000000Z</creationTime>
          </creationInfo>
        </arrival>
        <arrival publicID="quakeml:service.scedc.caltech.edu/fdsnws/event/1/query?assocaro=266187125">
          <pickID>quakeml:service.scedc.caltech.edu/fdsnws/event/1/query?assocaro=266187125</pickID>
          <phase>S</phase>
          <timeCorrection>0.0</timeCorrection>
          <azimuth>266.5</azimuth>
          <distance>0.1408</distance>
          <takeoffAngle>
            <value>121.0</value>
          </takeoffAngle>
          <timeResidual>1.4</timeResidual>
          <timeWeight>0.0</timeWeight>
          <creationInfo>
            <agencyID>CI</agencyID>
            <creationTime>2025-01-16T23:11:37.000000Z</creationTime>
          </creationInfo>
        </arrival>
        <arrival publicID="quakeml:service.scedc.caltech.edu/fdsnws/event/1/query?assocaro=266187157">
          <pickID>quakeml:service.scedc.caltech.edu/fdsnws/event/1/query?assocaro=266187157</pickID>
          <phase>S</phase>
          <timeCorrection>0.6</timeCorrection>
          <azimuth>321.8</azimuth>
          <distance>0.1794</distance>
          <takeoffAngle>
            <value>114.0</value>
          </takeoffAngle>
          <timeResidual>0.59</timeResidual>
          <timeWeight>0.06</timeWeight>
          <creationInfo>
            <agencyID>CI</agencyID>
            <creationTime>2025-01-16T23:11:37.000000Z</creationTime>
          </creationInfo>
        </arrival>
        <arrival publicID="quakeml:service.scedc.caltech.edu/fdsnws/event/1/query?assocaro=266187165">
          <pickID>quakeml:service.scedc.caltech.edu/fdsnws/event/1/query?assocaro=266187165</pickID>
          <phase>P</phase>
          <timeCorrection>0.33</timeCorrection>
          <azimuth>289.7</azimuth>
          <distance>0.2682</distance>
          <takeoffAngle>
            <value>105.0</value>
          </takeoffAngle>
          <timeResidual>-0.2</timeResidual>
          <timeWeight>0.15</timeWeight>
          <creationInfo>
            <agencyID>CI</agencyID>
            <creationTime>2025-01-16T23:11:37.000000Z</creationTime>
          </creationInfo>
        </arrival>
        <arrival publicID="quakeml:service.scedc.caltech.edu/fdsnws/event/1/query?assocaro=266187173">
          <pickID>quakeml:service.scedc.caltech.edu/fdsnws/event/1/query?assocaro=266187173</pickID>
          <phase>S</phase>
          <timeCorrection>0.33</timeCorrection>
          <azimuth>289.7</azimuth>
          <distance>0.2682</distance>
          <takeoffAngle>
            <value>105.0</value>
          </takeoffAngle>
          <timeResidual>0.61</timeResidual>
          <timeWeight>0.07</timeWeight>
          <creationInfo>
            <agencyID>CI</agencyID>
            <creationTime>2025-01-16T23:11:37.000000Z</creationTime>
          </creationInfo>
        </arrival>
        <arrival publicID="quakeml:service.scedc.caltech.edu/fdsnws/event/1/query?assocaro=266187205">
          <pickID>quakeml:service.scedc.caltech.edu/fdsnws/event/1/query?assocaro=266187205</pickID>
          <phase>S</phase>
          <timeCorrection>-0.06</timeCorrection>
          <azimuth>246.2</azimuth>
          <distance>0.2747</distance>
          <takeoffAngle>
            <value>104.0</value>
          </takeoffAngle>
          <timeResidual>0.0</timeResidual>
          <timeWeight>0.11</timeWeight>
          <creationInfo>
            <agencyID>CI</agencyID>
            <creationTime>2025-01-16T23:11:37.000000Z</creationTime>
          </creationInfo>
        </arrival>
        <arrival publicID="quakeml:service.scedc.caltech.edu/fdsnws/event/1/query?assocaro=266187221">
          <pickID>quakeml:service.scedc.caltech.edu/fdsnws/event/1/query?assocaro=266187221</pickID>
          <phase>S</phase>
          <timeCorrection>-0.03</timeCorrection>
          <azimuth>300.7</azimuth>
          <distance>0.3629</distance>
          <takeoffAngle>
            <value>99.0</value>
          </takeoffAngle>
          <timeResidual>0.73</timeResidual>
          <timeWeight>0.07</timeWeight>
          <creationInfo>
            <agencyID>CI</agencyID>
            <creationTime>2025-01-16T23:11:37.000000Z</creationTime>
          </creationInfo>
        </arrival>
        <arrival publicID="quakeml:service.scedc.caltech.edu/fdsnws/event/1/query?assocaro=266187229">
          <pickID>quakeml:service.scedc.caltech.edu/fdsnws/event/1/query?assocaro=266187229</pickID>
          <phase>P</phase>
          <timeCorrection>0.37</timeCorrection>
          <azimuth>93.1</azimuth>
          <distance>0.374</distance>
          <takeoffAngle>
            <value>99.0</value>
          </takeoffAngle>
          <timeResidual>0.37</timeResidual>
          <timeWeight>0.15</timeWeight>
          <creationInfo>
            <agencyID>CI</agencyID>
            <creationTime>2025-01-16T23:11:37.000000Z</creationTime>
          </creationInfo>
        </arrival>
        <arrival publicID="quakeml:service.scedc.caltech.edu/fdsnws/event/1/query?assocaro=266187245">
          <pickID>quakeml:service.scedc.caltech.edu/fdsnws/event/1/query?assocaro=266187245</pickID>
          <phase>S</phase>
          <timeCorrection>-0.08</timeCorrection>
          <azimuth>60.6</azimuth>
          <distance>0.4338</distance>
          <takeoffAngle>
            <value>77.0</value>
          </takeoffAngle>
          <timeResidual>0.22</timeResidual>
          <timeWeight>0.08</timeWeight>
          <creationInfo>
            <agencyID>CI</agencyID>
            <creationTime>2025-01-16T23:11:37.000000Z</creationTime>
          </creationInfo>
        </arrival>
        <arrival publicID="quakeml:service.scedc.caltech.edu/fdsnws/event/1/query?assocaro=266187261">
          <pickID>quakeml:service.scedc.caltech.edu/fdsnws/event/1/query?assocaro=266187261</pickID>
          <phase>S</phase>
          <timeCorrection>-0.27</timeCorrection>
          <azimuth>254.9</azimuth>
          <distance>0.4314</distance>
          <takeoffAngle>
            <value>77.0</value>
          </takeoffAngle>
          <timeResidual>0.03</timeResidual>
          <timeWeight>0.08</timeWeight>
          <creationInfo>
            <agencyID>CI</agencyID>
            <creationTime>2025-01-16T23:11:37.000000Z</creationTime>
          </creationInfo>
        </arrival>
        <arrival publicID="quakeml:service.scedc.caltech.edu/fdsnws/event/1/query?assocaro=266187269">
          <pickID>quakeml:service.scedc.caltech.edu/fdsnws/event/1/query?assocaro=266187269</pickID>
          <phase>P</phase>
          <timeCorrection>0.11</timeCorrection>
          <azimuth>285.7</azimuth>
          <distance>0.4725</distance>
          <takeoffAngle>
            <value>77.0</value>
          </takeoffAngle>
          <timeResidual>0.16</timeResidual>
          <timeWeight>0.15</timeWeight>
          <creationInfo>
            <agencyID>CI</agencyID>
            <creationTime>2025-01-16T23:11:37.000000Z</creationTime>
          </creationInfo>
        </arrival>
        <arrival publicID="quakeml:service.scedc.caltech.edu/fdsnws/event/1/query?assocaro=266187285">
          <pickID>quakeml:service.scedc.caltech.edu/fdsnws/event/1/query?assocaro=266187285</pickID>
          <phase>S</phase>
          <timeCorrection>0.82</timeCorrection>
          <azimuth>317.2</azimuth>
          <distance>0.4858</distance>
          <takeoffAngle>
            <value>77.0</value>
          </takeoffAngle>
          <timeResidual>1.08</timeResidual>
          <timeWeight>0.0</timeWeight>
          <creationInfo>
            <agencyID>CI</agencyID>
            <creationTime>2025-01-16T23:11:37.000000Z</creationTime>
          </creationInfo>
        </arrival>
        <arrival publicID="quakeml:service.scedc.caltech.edu/fdsnws/event/1/query?assocaro=266187293">
          <pickID>quakeml:service.scedc.caltech.edu/fdsnws/event/1/query?assocaro=266187293</pickID>
          <phase>P</phase>
          <timeCorrection>0.0</timeCorrection>
          <azimuth>268.7</azimuth>
          <distance>0.4982</distance>
          <takeoffAngle>
            <value>77.0</value>
          </takeoffAngle>
          <timeResidual>0.27</timeResidual>
          <timeWeight>0.15</timeWeight>
          <creationInfo>
            <agencyID>CI</agencyID>
            <creationTime>2025-01-16T23:11:37.000000Z</creationTime>
          </creationInfo>
        </arrival>
        <arrival publicID="quakeml:service.scedc.caltech.edu/fdsnws/event/1/query?assocaro=266187309">
          <pickID>quakeml:service.scedc.caltech.edu/fdsnws/event/1/query?assocaro=266187309</pickID>
          <phase>S</phase>
          <timeCorrection>0.0</timeCorrection>
          <azimuth>129.8</azimuth>
          <distance>0.5091</distance>
          <takeoffAngle>
            <value>77.0</value>
          </takeoffAngle>
          <timeResidual>2.5</timeResidual>
          <timeWeight>0.0</timeWeight>
          <creationInfo>
            <agencyID>CI</agencyID>
            <creationTime>2025-01-16T23:11:37.000000Z</creationTime>
          </creationInfo>
        </arrival>
        <arrival publicID="quakeml:service.scedc.caltech.edu/fdsnws/event/1/query?assocaro=266187365">
          <pickID>quakeml:service.scedc.caltech.edu/fdsnws/event/1/query?assocaro=266187365</pickID>
          <phase>S</phase>
          <timeCorrection>0.0</timeCorrection>
          <azimuth>273.4</azimuth>
          <distance>0.5643</distance>
          <takeoffAngle>
            <value>77.0</value>
          </takeoffAngle>
          <timeResidual>-0.01</timeResidual>
          <timeWeight>0.08</timeWeight>
          <creationInfo>
            <agencyID>CI</agencyID>
            <creationTime>2025-01-16T23:11:37.000000Z</creationTime>
          </creationInfo>
        </arrival>
        <arrival publicID="quakeml:service.scedc.caltech.edu/fdsnws/event/1/query?assocaro=266187381">
          <pickID>quakeml:service.scedc.caltech.edu/fdsnws/event/1/query?assocaro=266187381</pickID>
          <phase>S</phase>
          <timeCorrection>-0.17</timeCorrection>
          <azimuth>59.9</azimuth>
          <distance>0.5831</distance>
          <takeoffAngle>
            <value>77.0</value>
          </takeoffAngle>
          <timeResidual>-0.2</timeResidual>
          <timeWeight>0.08</timeWeight>
          <creationInfo>
            <agencyID>CI</agencyID>
            <creationTime>2025-01-16T23:11:37.000000Z</creationTime>
          </creationInfo>
        </arrival>
        <arrival publicID="quakeml:service.scedc.caltech.edu/fdsnws/event/1/query?assocaro=266187397">
          <pickID>quakeml:service.scedc.caltech.edu/fdsnws/event/1/query?assocaro=266187397</pickID>
          <phase>S</phase>
          <timeCorrection>-0.23</timeCorrection>
          <azimuth>259.3</azimuth>
          <distance>0.5847</distance>
          <takeoffAngle>
            <value>77.0</value>
          </takeoffAngle>
          <timeResidual>0.02</timeResidual>
          <timeWeight>0.08</timeWeight>
          <creationInfo>
            <agencyID>CI</agencyID>
            <creationTime>2025-01-16T23:11:37.000000Z</creationTime>
          </creationInfo>
        </arrival>
        <arrival publicID="quakeml:service.scedc.caltech.edu/fdsnws/event/1/query?assocaro=266187405">
          <pickID>quakeml:service.scedc.caltech.edu/fdsnws/event/1/query?assocaro=266187405</pickID>
          <phase>P</phase>
          <timeCorrection>0.0</timeCorrection>
          <azimuth>312.0</azimuth>
          <distance>0.6188</distance>
          <takeoffAngle>
            <value>77.0</value>
          </takeoffAngle>
          <timeResidual>0.05</timeResidual>
          <timeWeight>0.15</timeWeight>
          <creationInfo>
            <agencyID>CI</agencyID>
            <creationTime>2025-01-16T23:11:37.000000Z</creationTime>
          </creationInfo>
        </arrival>
        <arrival publicID="quakeml:service.scedc.caltech.edu/fdsnws/event/1/query?assocaro=266187413">
          <pickID>quakeml:service.scedc.caltech.edu/fdsnws/event/1/query?assocaro=266187413</pickID>
          <phase>S</phase>
          <timeCorrection>0.0</timeCorrection>
          <azimuth>312.0</azimuth>
          <distance>0.6188</distance>
          <takeoffAngle>
            <value>77.0</value>
          </takeoffAngle>
          <timeResidual>0.8</timeResidual>
          <timeWeight>0.05</timeWeight>
          <creationInfo>
            <agencyID>CI</agencyID>
            <creationTime>2025-01-16T23:11:37.000000Z</creationTime>
          </creationInfo>
        </arrival>
        <arrival publicID="quakeml:service.scedc.caltech.edu/fdsnws/event/1/query?assocaro=266187421">
          <pickID>quakeml:service.scedc.caltech.edu/fdsnws/event/1/query?assocaro=266187421</pickID>
          <phase>S</phase>
          <timeCorrection>0.01</timeCorrection>
          <azimuth>262.4</azimuth>
          <distance>0.7977</distance>
          <takeoffAngle>
            <value>77.0</value>
          </takeoffAngle>
          <timeResidual>-0.2</timeResidual>
          <timeWeight>0.07</timeWeight>
          <creationInfo>
            <agencyID>CI</agencyID>
            <creationTime>2025-01-16T23:11:37.000000Z</creationTime>
          </creationInfo>
        </arrival>
        <arrival publicID="quakeml:service.scedc.caltech.edu/fdsnws/event/1/query?assocaro=266187429">
          <pickID>quakeml:service.scedc.caltech.edu/fdsnws/event/1/query?assocaro=266187429</pickID>
          <phase>S</phase>
          <timeCorrection>0.0</timeCorrection>
          <azimuth>197.5</azimuth>
          <distance>0.7873</distance>
          <takeoffAngle>
            <value>77.0</value>
          </takeoffAngle>
          <timeResidual>0.38</timeResidual>
          <timeWeight>0.08</timeWeight>
          <creationInfo>
            <agencyID>CI</agencyID>
            <creationTime>2025-01-16T23:11:37.000000Z</creationTime>
          </creationInfo>
        </arrival>
        <arrival publicID="quakeml:service.scedc.caltech.edu/fdsnws/event/1/query?assocaro=266187461">
          <pickID>quakeml:service.scedc.caltech.edu/fdsnws/event/1/query?assocaro=266187461</pickID>
          <phase>S</phase>
          <timeCorrection>0.0</timeCorrection>
          <azimuth>284.6</azimuth>
          <distance>0.8531</distance>
          <takeoffAngle>
            <value>77.0</value>
          </takeoffAngle>
          <timeResidual>0.01</timeResidual>
          <timeWeight>0.07</timeWeight>
          <creationInfo>
            <agencyID>CI</agencyID>
            <creationTime>2025-01-16T23:11:37.000000Z</creationTime>
          </creationInfo>
        </arrival>
        <arrival publicID="quakeml:service.scedc.caltech.edu/fdsnws/event/1/query?assocaro=266187469">
          <pickID>quakeml:service.scedc.caltech.edu/fdsnws/event/1/query?assocaro=266187469</pickID>
          <phase>P</phase>
          <timeCorrection>0.08</timeCorrection>
          <azimuth>358.7</azimuth>
          <distance>0.8925</distance>
          <takeoffAngle>
            <value>77.0</value>
          </takeoffAngle>
          <timeResidual>-0.48</timeResidual>
          <timeWeight>0.13</timeWeight>
          <creationInfo>
            <agencyID>CI</agencyID>
            <creationTime>2025-01-16T23:11:37.000000Z</creationTime>
          </creationInfo>
        </arrival>
        <arrival publicID="quakeml:service.scedc.caltech.edu/fdsnws/event/1/query?assocaro=266187477">
          <pickID>quakeml:service.scedc.caltech.edu/fdsnws/event/1/query?assocaro=266187477</pickID>
          <phase>P</phase>
          <timeCorrection>-0.22</timeCorrection>
          <azimuth>210.3</azimuth>
          <distance>0.8724</distance>
          <takeoffAngle>
            <value>77.0</value>
          </takeoffAngle>
          <timeResidual>0.08</timeResidual>
          <timeWeight>0.13</timeWeight>
          <creationInfo>
            <agencyID>CI</agencyID>
            <creationTime>2025-01-16T23:11:37.000000Z</creationTime>
          </creationInfo>
        </arrival>
        <arrival publicID="quakeml:service.scedc.caltech.edu/fdsnws/event/1/query?assocaro=424372948">
