<?xml version='1.0' encoding='utf-8'?>
<q:quakeml xmlns="http://quakeml.org/xmlns/bed/1.2" xmlns:q="http://quakeml.org/xmlns/quakeml/1.2" xmlns:ns0="http://anss.org/xmlns/catalog/0.1">
  <eventParameters publicID="smi:local/121ac4d5-1b9e-4720-ae1d-e24252210a0c">
    <event publicID="quakeml:service.scedc.caltech.edu/fdsnws/event/1/query?eventid=40838719" ns0:datasource="ci" ns0:dataid="ci40838719" ns0:eventsource="ci" ns0:eventid="40838719">
      <preferredOriginID>quakeml:service.scedc.caltech.edu/fdsnws/event/1/query?originid=108875228</preferredOriginID>
      <preferredMagnitudeID>quakeml:service.scedc.caltech.edu/fdsnws/event/1/query?magnitudeid=111261164</preferredMagnitudeID>
      <type>earthquake</type>
      <creationInfo>
        <agencyID>CI</agencyID>
        <agencyURI>quakeml:doi.org/10.7909/C3WD3xH1</agencyURI>
        <creationTime>2025-01-13T19:39:34.000000Z</creationTime>
        <version>7</version>
      </creationInfo>
      <origin publicID="quakeml:service.scedc.caltech.edu/fdsnws/event/1/query?originid=108875228" ns0:datasource="ci" ns0:dataid="ci40838719" ns0:eventsource="ci" ns0:eventid="40838719">
        <time>
          <value>2025-01-13T09:49:42.300000Z</value>
        </time>
        <latitude>
          <value>35.5333333</value>
        </latitude>
        <longitude>
          <value>-117.3758333</value>
        </longitude>
        <depth>
          <value>7850.0</value>
          <uncertainty>360.0</uncertainty>
        </depth>
        <depthType>from location</depthType>
        <timeFixed>false</timeFixed>
        <epicenterFixed>false</epicenterFixed>
        <methodID>smi:ci.anss.org/origin/HYP2000</methodID>
        <quality>
          <associatedPhaseCount>53</associatedPhaseCount>
          <usedPhaseCount>53</usedPhaseCount>
          <associatedStationCount>29</associatedStationCount>
          <usedStationCount>29</usedStationCount>
          <standardError>0.14</standardError>
          <azimuthalGap>64.0</azimuthalGap>
          <secondaryAzimuthalGap>423.0</secondaryAzimuthalGap>
          <minimumDistance>0.01245</minimumDistance>
          <maximumDistance>0.9043</maximumDistance>
          <medianDistance>0.57</medianDistance>
        </quality>
        <type>hypocenter</type>
        <evaluationMode>manual</evaluationMode>
        <evaluationStatus>final</evaluationStatus>
        <creationInfo>
          <agencyID>CI</agencyID>
          <creationTime>2025-01-13T19:39:34.000000Z</creationTime>
        </creationInfo>
        <originUncertainty>
          <preferredDescription>confidence ellipsoid</preferredDescription>
          <horizontalUncertainty>180.0</horizontalUncertainty>
          <confidenceLevel>95.0</confidenceLevel>
          <confidenceEllipsoid>
            <semiMajorAxisLength>888.0</semiMajorAxisLength>
            <semiMinorAxisLength>384.0</semiMinorAxisLength>
            <semiIntermediateAxisLength>432.0</semiIntermediateAxisLength>
            <majorAxisPlunge>74.0</majorAxisPlunge>
            <majorAxisAzimuth>79.0</majorAxisAzimuth>
            <majorAxisRotation>276.0</majorAxisRotation>
          </confidenceEllipsoid>
        </originUncertainty>
        <arrival publicID="quakeml:service.scedc.caltech.edu/fdsnws/event/1/query?assocaro=144608351">
          <pickID>quakeml:service.scedc.caltech.edu/fdsnws/event/1/query?assocaro=144608351</pickID>
          <phase>S</phase>
          <timeCorrection>-0.28</timeCorrection>
          <azimuth>41.0</azimuth>
          <distance>0.8678</distance>
          <takeoffAngle>
            <value>77.0</value>
          </takeoffAngle>
          <timeResidual>0.84</timeResidual>
          <timeWeight>0.03</timeWeight>
          <creationInfo>
            <agencyID>CI</agencyID>
            <creationTime>2025-01-13T19:39:34.000000Z</creationTime>
          </creationInfo>
        </arrival>
        <arrival publicID="quakeml:service.scedc.caltech.edu/fdsnws/event/1/query?assocaro=266379197">
          <pickID>quakeml:service.scedc.caltech.edu/fdsnws/event/1/query?assocaro=266379197</pickID>
          <phase>S</phase>
          <timeCorrection>0.11</timeCorrection>
          <azimuth>132.3</azimuth>
          <distance>0.01245</distance>
          <takeoffAngle>
            <value>169.0</value>
          </takeoffAngle>
          <timeResidual>0.18</timeResidual>
          <timeWeight>0.1</timeWeight>
          <creationInfo>
            <agencyID>CI</agencyID>
            <creationTime>2025-01-13T19:39:34.000000Z</creationTime>
          </creationInfo>
        </arrival>
        <arrival publicID="quakeml:service.scedc.caltech.edu/fdsnws/event/1/query?assocaro=266379205">
          <pickID>quakeml:service.scedc.caltech.edu/fdsnws/event/1/query?assocaro=266379205</pickID>
          <phase>P</phase>
          <timeCorrection>0.0</timeCorrection>
          <azimuth>52.3</azimuth>
          <distance>0.09152</distance>
          <takeoffAngle>
            <value>123.0</value>
          </takeoffAngle>
          <timeResidual>0.0</timeResidual>
          <timeWeight>0.25</timeWeight>
          <creationInfo>
            <agencyID>CI</agencyID>
            <creationTime>2025-01-13T19:39:34.000000Z</creationTime>
          </creationInfo>
        </arrival>
        <arrival publicID="quakeml:service.scedc.caltech.edu/fdsnws/event/1/query?assocaro=266379213">
          <pickID>quakeml:service.scedc.caltech.edu/fdsnws/event/1/query?assocaro=266379213</pickID>
          <phase>S</phase>
          <timeCorrection>0.0</timeCorrection>
          <azimuth>52.3</azimuth>
          <distance>0.09152</distance>
          <takeoffAngle>
            <value>123.0</value>
          </takeoffAngle>
          <timeResidual>0.31</timeResidual>
          <timeWeight>0.1</timeWeight>
          <creationInfo>
            <agencyID>CI</agencyID>
            <creationTime>2025-01-13T19:39:34.000000Z</creationTime>
          </creationInfo>
        </arrival>
        <arrival publicID="quakeml:service.scedc.caltech.edu/fdsnws/event/1/query?assocaro=266379245">
          <pickID>quakeml:service.scedc.caltech.edu/fdsnws/event/1/query?assocaro=266379245</pickID>
          <phase>S</phase>
          <timeCorrection>-0.25</timeCorrection>
          <azimuth>257.9</azimuth>
          <distance>0.2556</distance>
          <takeoffAngle>
            <value>94.0</value>
          </takeoffAngle>
          <timeResidual>0.4</timeResidual>
          <timeWeight>0.06</timeWeight>
          <creationInfo>
            <agencyID>CI</agencyID>
            <creationTime>2025-01-13T19:39:34.000000Z</creationTime>
          </creationInfo>
        </arrival>
        <arrival publicID="quakeml:service.scedc.caltech.edu/fdsnws/event/1/query?assocaro=266379261">
          <pickID>quakeml:service.scedc.caltech.edu/fdsnws/event/1/query?assocaro=266379261</pickID>
          <phase>S</phase>
          <timeCorrection>0.0</timeCorrection>
          <azimuth>296.5</azimuth>
          <distance>0.2602</distance>
          <takeoffAngle>
            <value>94.0</value>
          </takeoffAngle>
          <timeResidual>0.4</timeResidual>
          <timeWeight>0.06</timeWeight>
          <creationInfo>
            <agencyID>CI</agencyID>
            <creationTime>2025-01-13T19:39:34.000000Z</creationTime>
          </creationInfo>
        </arrival>
        <arrival publicID="quakeml:service.scedc.caltech.edu/fdsnws/event/1/query?assocaro=266379269">
          <pickID>quakeml:service.scedc.caltech.edu/fdsnws/event/1/query?assocaro=266379269</pickID>
          <phase>P</phase>
          <timeCorrection>0.18</timeCorrection>
          <azimuth>297.7</azimuth>
          <distance>0.3441</distance>
          <takeoffAngle>
            <value>92.0</value>
          </takeoffAngle>
          <timeResidual>-0.05</timeResidual>
          <timeWeight>0.25</timeWeight>
          <creationInfo>
            <agencyID>CI</agencyID>
            <creationTime>2025-01-13T19:39:34.000000Z</creationTime>
          </creationInfo>
        </arrival>
        <arrival publicID="quakeml:service.scedc.caltech.edu/fdsnws/event/1/query?assocaro=266379277">
          <pickID>quakeml:service.scedc.caltech.edu/fdsnws/event/1/query?assocaro=266379277</pickID>
          <phase>S</phase>
          <timeCorrection>-0.01</timeCorrection>
          <azimuth>297.7</azimuth>
          <distance>0.3441</distance>
          <takeoffAngle>
            <value>92.0</value>
          </takeoffAngle>
          <timeResidual>1.0</timeResidual>
          <timeWeight>0.04</timeWeight>
          <creationInfo>
            <agencyID>CI</agencyID>
            <creationTime>2025-01-13T19:39:34.000000Z</creationTime>
          </creationInfo>
        </arrival>
        <arrival publicID="quakeml:service.scedc.caltech.edu/fdsnws/event/1/query?assocaro=266379285">
          <pickID>quakeml:service.scedc.caltech.edu/fdsnws/event/1/query?assocaro=266379285</pickID>
          <phase>P</phase>
          <timeCorrection>-0.01</timeCorrection>
          <azimuth>11.8</azimuth>
          <distance>0.3647</distance>
          <takeoffAngle>
            <value>92.0</value>
          </takeoffAngle>
          <timeResidual>-0.08</timeResidual>
          <timeWeight>0.13</timeWeight>
          <creationInfo>
            <agencyID>CI</agencyID>
            <creationTime>2025-01-13T19:39:34.000000Z</creationTime>
          </creationInfo>
        </arrival>
        <arrival publicID="quakeml:service.scedc.caltech.edu/fdsnws/event/1/query?assocaro=266379317">
          <pickID>quakeml:service.scedc.caltech.edu/fdsnws/event/1/query?assocaro=266379317</pickID>
          <phase>P</phase>
          <timeCorrection>-0.1</timeCorrection>
          <azimuth>235.4</azimuth>
          <distance>0.4667</distance>
          <takeoffAngle>
            <value>91.0</value>
          </takeoffAngle>
          <timeResidual>-0.11</timeResidual>
          <timeWeight>0.19</timeWeight>
          <creationInfo>
            <agencyID>CI</agencyID>
            <creationTime>2025-01-13T19:39:34.000000Z</creationTime>
          </creationInfo>
        </arrival>
        <arrival publicID="quakeml:service.scedc.caltech.edu/fdsnws/event/1/query?assocaro=266379325">
          <pickID>quakeml:service.scedc.caltech.edu/fdsnws/event/1/query?assocaro=266379325</pickID>
          <phase>S</phase>
          <timeCorrection>-0.32</timeCorrection>
          <azimuth>235.4</azimuth>
          <distance>0.4667</distance>
          <takeoffAngle>
            <value>91.0</value>
          </takeoffAngle>
          <timeResidual>0.51</timeResidual>
          <timeWeight>0.06</timeWeight>
          <creationInfo>
            <agencyID>CI</agencyID>
            <creationTime>2025-01-13T19:39:34.000000Z</creationTime>
          </creationInfo>
        </arrival>
        <arrival publicID="quakeml:service.scedc.caltech.edu/fdsnws/event/1/query?assocaro=266379333">
          <pickID>quakeml:service.scedc.caltech.edu/fdsnws/event/1/query?assocaro=266379333</pickID>
          <phase>S</phase>
          <timeCorrection>-0.18</timeCorrection>
          <azimuth>331.8</azimuth>
          <distance>0.4701</distance>
          <takeoffAngle>
            <value>91.0</value>
          </takeoffAngle>
          <timeResidual>0.56</timeResidual>
          <timeWeight>0.03</timeWeight>
          <creationInfo>
            <agencyID>CI</agencyID>
            <creationTime>2025-01-13T19:39:34.000000Z</creationTime>
          </creationInfo>
        </arrival>
        <arrival publicID="quakeml:service.scedc.caltech.edu/fdsnws/event/1/query?assocaro=266379341">
          <pickID>quakeml:service.scedc.caltech.edu/fdsnws/event/1/query?assocaro=266379341</pickID>
          <phase>P</phase>
          <timeCorrection>0.0</timeCorrection>
          <azimuth>116.3</azimuth>
          <distance>0.5198</distance>
          <takeoffAngle>
            <value>91.0</value>
          </takeoffAngle>
          <timeResidual>-0.13</timeResidual>
          <timeWeight>0.13</timeWeight>
          <creationInfo>
            <agencyID>CI</agencyID>
            <creationTime>2025-01-13T19:39:34.000000Z</creationTime>
          </creationInfo>
        </arrival>
        <arrival publicID="quakeml:service.scedc.caltech.edu/fdsnws/event/1/query?assocaro=266379365">
          <pickID>quakeml:service.scedc.caltech.edu/fdsnws/event/1/query?assocaro=266379365</pickID>
          <phase>S</phase>
          <timeCorrection>0.0</timeCorrection>
          <azimuth>252.4</azimuth>
          <distance>0.5262</distance>
          <takeoffAngle>
            <value>91.0</value>
          </takeoffAngle>
          <timeResidual>0.12</timeResidual>
          <timeWeight>0.06</timeWeight>
          <creationInfo>
            <agencyID>CI</agencyID>
            <creationTime>2025-01-13T19:39:34.000000Z</creationTime>
          </creationInfo>
        </arrival>
        <arrival publicID="quakeml:service.scedc.caltech.edu/fdsnws/event/1/query?assocaro=266379397">
          <pickID>quakeml:service.scedc.caltech.edu/fdsnws/event/1/query?assocaro=266379397</pickID>
          <phase>S</phase>
          <timeCorrection>-0.23</timeCorrection>
          <azimuth>322.1</azimuth>
          <distance>0.57</distance>
          <takeoffAngle>
            <value>90.0</value>
          </takeoffAngle>
          <timeResidual>0.27</timeResidual>
          <timeWeight>0.06</timeWeight>
          <creationInfo>
            <agencyID>CI</agencyID>
            <creationTime>2025-01-13T19:39:34.000000Z</creationTime>
          </creationInfo>
        </arrival>
        <arrival publicID="quakeml:service.scedc.caltech.edu/fdsnws/event/1/query?assocaro=266379413">
          <pickID>quakeml:service.scedc.caltech.edu/fdsnws/event/1/query?assocaro=266379413</pickID>
          <phase>S</phase>
          <timeCorrection>-0.19</timeCorrection>
          <azimuth>43.5</azimuth>
          <distance>0.5962</distance>
          <takeoffAngle>
            <value>90.0</value>
          </takeoffAngle>
          <timeResidual>0.23</timeResidual>
          <timeWeight>0.06</timeWeight>
          <creationInfo>
            <agencyID>CI</agencyID>
            <creationTime>2025-01-13T19:39:34.000000Z</creationTime>
          </creationInfo>
        </arrival>
        <arrival publicID="quakeml:service.scedc.caltech.edu/fdsnws/event/1/query?assocaro=266379429">
          <pickID>quakeml:service.scedc.caltech.edu/fdsnws/event/1/query?assocaro=266379429</pickID>
          <phase>S</phase>
          <timeCorrection>-0.28</timeCorrection>
          <azimuth>318.8</azimuth>
          <distance>0.6318</distance>
          <takeoffAngle>
            <value>90.0</value>
          </takeoffAngle>
          <timeResidual>0.12</timeResidual>
          <timeWeight>0.06</timeWeight>
          <creationInfo>
            <agencyID>CI</agencyID>
            <creationTime>2025-01-13T19:39:34.000000Z</creationTime>
          </creationInfo>
        </arrival>
        <arrival publicID="quakeml:service.scedc.caltech.edu/fdsnws/event/1/query?assocaro=266379437">
          <pickID>quakeml:service.scedc.caltech.edu/fdsnws/event/1/query?assocaro=266379437</pickID>
          <phase>S</phase>
          <timeCorrection>-0.24</timeCorrection>
          <azimuth>234.1</azimuth>
          <distance>0.6471</distance>
          <takeoffAngle>
            <value>90.0</value>
          </takeoffAngle>
          <timeResidual>0.53</timeResidual>
          <timeWeight>0.03</timeWeight>
          <creationInfo>
            <agencyID>CI</agencyID>
            <creationTime>2025-01-13T19:39:34.000000Z</creationTime>
          </creationInfo>
        </arrival>
        <arrival publicID="quakeml:service.scedc.caltech.edu/fdsnws/event/1/query?assocaro=266379445">
          <pickID>quakeml:service.scedc.caltech.edu/fdsnws/event/1/query?assocaro=266379445</pickID>
          <phase>P</phase>
          <timeCorrection>-0.11</timeCorrection>
          <azimuth>203.7</azimuth>
          <distance>0.6526</distance>
          <takeoffAngle>
            <value>90.0</value>
          </takeoffAngle>
          <timeResidual>0.17</timeResidual>
          <timeWeight>0.13</timeWeight>
          <creationInfo>
            <agencyID>CI</agencyID>
            <creationTime>2025-01-13T19:39:34.000000Z</creationTime>
          </creationInfo>
        </arrival>
        <arrival publicID="quakeml:service.scedc.caltech.edu/fdsnws/event/1/query?assocaro=266379461">
          <pickID>quakeml:service.scedc.caltech.edu/fdsnws/event/1/query?assocaro=266379461</pickID>
          <phase>P</phase>
          <timeCorrection>-0.1</timeCorrection>
          <azimuth>193.4</azimuth>
          <distance>0.6852</distance>
          <takeoffAngle>
            <value>90.0</value>
          </takeoffAngle>
          <timeResidual>0.19</timeResidual>
          <timeWeight>0.13</timeWeight>
          <creationInfo>
            <agencyID>CI</agencyID>
            <creationTime>2025-01-13T19:39:34.000000Z</creationTime>
          </creationInfo>
        </arrival>
        <arrival publicID="quakeml:service.scedc.caltech.edu/fdsnws/event/1/query?assocaro=266379469">
          <pickID>quakeml:service.scedc.caltech.edu/fdsnws/event/1/query?assocaro=266379469</pickID>
          <phase>S</phase>
          <timeCorrection>-0.33</timeCorrection>
          <azimuth>193.4</azimuth>
          <distance>0.6852</distance>
          <takeoffAngle>
            <value>90.0</value>
          </takeoffAngle>
          <timeResidual>0.48</timeResidual>
          <timeWeight>0.06</timeWeight>
          <creationInfo>
            <agencyID>CI</agencyID>
            <creationTime>2025-01-13T19:39:34.000000Z</creationTime>
          </creationInfo>
        </arrival>
        <arrival publicID="quakeml:service.scedc.caltech.edu/fdsnws/event/1/query?assocaro=266379477">
          <pickID>quakeml:service.scedc.caltech.edu/fdsnws/event/1/query?assocaro=266379477</pickID>
          <phase>P</phase>
          <timeCorrection>-0.09</timeCorrection>
          <azimuth>326.5</azimuth>
          <distance>0.701</distance>
          <takeoffAngle>
            <value>90.0</value>
          </takeoffAngle>
          <timeResidual>0.02</timeResidual>
          <timeWeight>0.19</timeWeight>
          <creationInfo>
            <agencyID>CI</agencyID>
            <creationTime>2025-01-13T19:39:34.000000Z</creationTime>
          </creationInfo>
        </arrival>
        <arrival publicID="quakeml:service.scedc.caltech.edu/fdsnws/event/1/query?assocaro=266379485">
          <pickID>quakeml:service.scedc.caltech.edu/fdsnws/event/1/query?assocaro=266379485</pickID>
          <phase>S</phase>
          <timeCorrection>-0.27</timeCorrection>
          <azimuth>326.5</azimuth>
          <distance>0.701</distance>
          <takeoffAngle>
            <value>90.0</value>
          </takeoffAngle>
          <timeResidual>0.41</timeResidual>
          <timeWeight>0.06</timeWeight>
          <creationInfo>
            <agencyID>CI</agencyID>
            <creationTime>2025-01-13T19:39:34.000000Z</creationTime>
          </creationInfo>
        </arrival>
        <arrival publicID="quakeml:service.scedc.caltech.edu/fdsnws/event/1/query?assocaro=266379509">
          <pickID>quakeml:service.scedc.caltech.edu/fdsnws/event/1/query?assocaro=266379509</pickID>
          <phase>P</phase>
          <timeCorrection>0.0</timeCorrection>
          <azimuth>346.7</azimuth>
          <distance>0.7572</distance>
          <takeoffAngle>
            <value>90.0</value>
          </takeoffAngle>
          <timeResidual>0.17</timeResidual>
          <timeWeight>0.13</timeWeight>
          <creationInfo>
            <agencyID>CI</agencyID>
            <creationTime>2025-01-13T19:39:34.000000Z</creationTime>
          </creationInfo>
        </arrival>
        <arrival publicID="quakeml:service.scedc.caltech.edu/fdsnws/event/1/query?assocaro=266379525">
