<?xml version='1.0' encoding='utf-8'?>
<q:quakeml xmlns="http://quakeml.org/xmlns/bed/1.2" xmlns:q="http://quakeml.org/xmlns/quakeml/1.2" xmlns:ns0="http://anss.org/xmlns/catalog/0.1">
  <eventParameters publicID="smi:local/b2ff71ec-1d32-4c9b-8290-5042baa13130">
    <event publicID="quakeml:service.scedc.caltech.edu/fdsnws/event/1/query?eventid=40840599" ns0:datasource="ci" ns0:dataid="ci40840599" ns0:eventsource="ci" ns0:eventid="40840599">
      <preferredOriginID>quakeml:service.scedc.caltech.edu/fdsnws/event/1/query?originid=105810845</preferredOriginID>
      <preferredMagnitudeID>quakeml:service.scedc.caltech.edu/fdsnws/event/1/query?magnitudeid=109266117</preferredMagnitudeID>
      <type>earthquake</type>
      <creationInfo>
        <agencyID>CI</agencyID>
        <agencyURI>quakeml:doi.org/10.7909/C3WD3xH1</agencyURI>
        <creationTime>2025-01-16T02:13:47.000000Z</creationTime>
        <version>6</version>
      </creationInfo>
      <origin publicID="quakeml:service.scedc.caltech.edu/fdsnws/event/1/query?originid=105810845" ns0:datasource="ci" ns0:dataid="ci40840599" ns0:eventsource="ci" ns0:eventid="40840599">
        <time>
          <value>2025-01-16T02:09:21.820000Z</value>
        </time>
        <latitude>
          <value>34.0446667</value>
        </latitude>
        <longitude>
          <value>-117.1333333</value>
        </longitude>
        <depth>
          <value>6410.0</value>
          <uncertainty>320.0</uncertainty>
        </depth>
        <depthType>from location</depthType>
        <timeFixed>false</timeFixed>
        <epicenterFixed>false</epicenterFixed>
        <methodID>smi:ci.anss.org/origin/HYP2000</methodID>
        <quality>
          <associatedPhaseCount>109</associatedPhaseCount>
          <usedPhaseCount>108</usedPhaseCount>
          <associatedStationCount>61</associatedStationCount>
          <usedStationCount>60</usedStationCount>
          <standardError>0.17</standardError>
          <azimuthalGap>29.0</azimuthalGap>
          <secondaryAzimuthalGap>378.0</secondaryAzimuthalGap>
          <minimumDistance>0.01965</minimumDistance>
          <maximumDistance>0.8946</maximumDistance>
          <medianDistance>0.5807</medianDistance>
        </quality>
        <type>hypocenter</type>
        <evaluationMode>manual</evaluationMode>
        <evaluationStatus>final</evaluationStatus>
        <creationInfo>
          <agencyID>CI</agencyID>
          <creationTime>2025-01-16T02:13:38.000000Z</creationTime>
        </creationInfo>
        <originUncertainty>
          <preferredDescription>confidence ellipsoid</preferredDescription>
          <horizontalUncertainty>130.0</horizontalUncertainty>
          <confidenceLevel>95.0</confidenceLevel>
          <confidenceEllipsoid>
            <semiMajorAxisLength>768.0</semiMajorAxisLength>
            <semiMinorAxisLength>288.0</semiMinorAxisLength>
            <semiIntermediateAxisLength>312.0</semiIntermediateAxisLength>
            <majorAxisPlunge>83.0</majorAxisPlunge>
            <majorAxisAzimuth>8.0</majorAxisAzimuth>
            <majorAxisRotation>95.0</majorAxisRotation>
          </confidenceEllipsoid>
        </originUncertainty>
        <arrival publicID="quakeml:service.scedc.caltech.edu/fdsnws/event/1/query?assocaro=144646071">
          <pickID>quakeml:service.scedc.caltech.edu/fdsnws/event/1/query?assocaro=144646071</pickID>
          <phase>S</phase>
          <timeCorrection>-0.36</timeCorrection>
          <azimuth>153.0</azimuth>
          <distance>0.397</distance>
          <takeoffAngle>
            <value>79.0</value>
          </takeoffAngle>
          <timeResidual>0.6</timeResidual>
          <timeWeight>0.11</timeWeight>
          <creationInfo>
            <agencyID>CI</agencyID>
            <creationTime>2025-01-16T02:13:38.000000Z</creationTime>
          </creationInfo>
        </arrival>
        <arrival publicID="quakeml:service.scedc.caltech.edu/fdsnws/event/1/query?assocaro=144646079">
          <pickID>quakeml:service.scedc.caltech.edu/fdsnws/event/1/query?assocaro=144646079</pickID>
          <phase>P</phase>
          <timeCorrection>-0.12</timeCorrection>
          <azimuth>153.0</azimuth>
          <distance>0.397</distance>
          <takeoffAngle>
            <value>79.0</value>
          </takeoffAngle>
          <timeResidual>0.02</timeResidual>
          <timeWeight>0.22</timeWeight>
          <creationInfo>
            <agencyID>CI</agencyID>
            <creationTime>2025-01-16T02:13:38.000000Z</creationTime>
          </creationInfo>
        </arrival>
        <arrival publicID="quakeml:service.scedc.caltech.edu/fdsnws/event/1/query?assocaro=266422765">
          <pickID>quakeml:service.scedc.caltech.edu/fdsnws/event/1/query?assocaro=266422765</pickID>
          <phase>P</phase>
          <timeCorrection>0.04</timeCorrection>
          <azimuth>117.0</azimuth>
          <distance>0.01965</distance>
          <takeoffAngle>
            <value>160.0</value>
          </takeoffAngle>
          <timeResidual>0.04</timeResidual>
          <timeWeight>0.22</timeWeight>
          <creationInfo>
            <agencyID>CI</agencyID>
            <creationTime>2025-01-16T02:13:38.000000Z</creationTime>
          </creationInfo>
        </arrival>
        <arrival publicID="quakeml:service.scedc.caltech.edu/fdsnws/event/1/query?assocaro=266422773">
          <pickID>quakeml:service.scedc.caltech.edu/fdsnws/event/1/query?assocaro=266422773</pickID>
          <phase>S</phase>
          <timeCorrection>-0.24</timeCorrection>
          <azimuth>117.0</azimuth>
          <distance>0.01965</distance>
          <takeoffAngle>
            <value>160.0</value>
          </takeoffAngle>
          <timeResidual>0.61</timeResidual>
          <timeWeight>0.08</timeWeight>
          <creationInfo>
            <agencyID>CI</agencyID>
            <creationTime>2025-01-16T02:13:38.000000Z</creationTime>
          </creationInfo>
        </arrival>
        <arrival publicID="quakeml:service.scedc.caltech.edu/fdsnws/event/1/query?assocaro=266422781">
          <pickID>quakeml:service.scedc.caltech.edu/fdsnws/event/1/query?assocaro=266422781</pickID>
          <phase>P</phase>
          <timeCorrection>-0.03</timeCorrection>
          <azimuth>25.0</azimuth>
          <distance>0.06819</distance>
          <takeoffAngle>
            <value>126.0</value>
          </takeoffAngle>
          <timeResidual>-0.09</timeResidual>
          <timeWeight>0.22</timeWeight>
          <creationInfo>
            <agencyID>CI</agencyID>
            <creationTime>2025-01-16T02:13:38.000000Z</creationTime>
          </creationInfo>
        </arrival>
        <arrival publicID="quakeml:service.scedc.caltech.edu/fdsnws/event/1/query?assocaro=266422789">
          <pickID>quakeml:service.scedc.caltech.edu/fdsnws/event/1/query?assocaro=266422789</pickID>
          <phase>S</phase>
          <timeCorrection>-0.09</timeCorrection>
          <azimuth>25.0</azimuth>
          <distance>0.06819</distance>
          <takeoffAngle>
            <value>126.0</value>
          </takeoffAngle>
          <timeResidual>0.46</timeResidual>
          <timeWeight>0.06</timeWeight>
          <creationInfo>
            <agencyID>CI</agencyID>
            <creationTime>2025-01-16T02:13:38.000000Z</creationTime>
          </creationInfo>
        </arrival>
        <arrival publicID="quakeml:service.scedc.caltech.edu/fdsnws/event/1/query?assocaro=266422797">
          <pickID>quakeml:service.scedc.caltech.edu/fdsnws/event/1/query?assocaro=266422797</pickID>
          <phase>P</phase>
          <timeCorrection>-0.02</timeCorrection>
          <azimuth>199.0</azimuth>
          <distance>0.1024</distance>
          <takeoffAngle>
            <value>112.0</value>
          </takeoffAngle>
          <timeResidual>-0.05</timeResidual>
          <timeWeight>0.11</timeWeight>
          <creationInfo>
            <agencyID>CI</agencyID>
            <creationTime>2025-01-16T02:13:38.000000Z</creationTime>
          </creationInfo>
        </arrival>
        <arrival publicID="quakeml:service.scedc.caltech.edu/fdsnws/event/1/query?assocaro=266422805">
          <pickID>quakeml:service.scedc.caltech.edu/fdsnws/event/1/query?assocaro=266422805</pickID>
          <phase>S</phase>
          <timeCorrection>-0.01</timeCorrection>
          <azimuth>199.0</azimuth>
          <distance>0.1024</distance>
          <takeoffAngle>
            <value>112.0</value>
          </takeoffAngle>
          <timeResidual>0.7</timeResidual>
          <timeWeight>0.04</timeWeight>
          <creationInfo>
            <agencyID>CI</agencyID>
            <creationTime>2025-01-16T02:13:38.000000Z</creationTime>
          </creationInfo>
        </arrival>
        <arrival publicID="quakeml:service.scedc.caltech.edu/fdsnws/event/1/query?assocaro=266422813">
          <pickID>quakeml:service.scedc.caltech.edu/fdsnws/event/1/query?assocaro=266422813</pickID>
          <phase>S</phase>
          <timeCorrection>-0.03</timeCorrection>
          <azimuth>318.0</azimuth>
          <distance>0.1044</distance>
          <takeoffAngle>
            <value>111.0</value>
          </takeoffAngle>
          <timeResidual>0.31</timeResidual>
          <timeWeight>0.06</timeWeight>
          <creationInfo>
            <agencyID>CI</agencyID>
            <creationTime>2025-01-16T02:13:38.000000Z</creationTime>
          </creationInfo>
        </arrival>
        <arrival publicID="quakeml:service.scedc.caltech.edu/fdsnws/event/1/query?assocaro=266422821">
          <pickID>quakeml:service.scedc.caltech.edu/fdsnws/event/1/query?assocaro=266422821</pickID>
          <phase>P</phase>
          <timeCorrection>0.0</timeCorrection>
          <azimuth>2.0</azimuth>
          <distance>0.1517</distance>
          <takeoffAngle>
            <value>101.0</value>
          </takeoffAngle>
          <timeResidual>-0.06</timeResidual>
          <timeWeight>0.22</timeWeight>
          <creationInfo>
            <agencyID>CI</agencyID>
            <creationTime>2025-01-16T02:13:38.000000Z</creationTime>
          </creationInfo>
        </arrival>
        <arrival publicID="quakeml:service.scedc.caltech.edu/fdsnws/event/1/query?assocaro=266422829">
          <pickID>quakeml:service.scedc.caltech.edu/fdsnws/event/1/query?assocaro=266422829</pickID>
          <phase>S</phase>
          <timeCorrection>0.0</timeCorrection>
          <azimuth>2.0</azimuth>
          <distance>0.1517</distance>
          <takeoffAngle>
            <value>101.0</value>
          </takeoffAngle>
          <timeResidual>0.22</timeResidual>
          <timeWeight>0.06</timeWeight>
          <creationInfo>
            <agencyID>CI</agencyID>
            <creationTime>2025-01-16T02:13:38.000000Z</creationTime>
          </creationInfo>
        </arrival>
        <arrival publicID="quakeml:service.scedc.caltech.edu/fdsnws/event/1/query?assocaro=266422837">
          <pickID>quakeml:service.scedc.caltech.edu/fdsnws/event/1/query?assocaro=266422837</pickID>
          <phase>P</phase>
          <timeCorrection>-0.09</timeCorrection>
          <azimuth>73.0</azimuth>
          <distance>0.171</distance>
          <takeoffAngle>
            <value>99.0</value>
          </takeoffAngle>
          <timeResidual>-0.1</timeResidual>
          <timeWeight>0.22</timeWeight>
          <creationInfo>
            <agencyID>CI</agencyID>
            <creationTime>2025-01-16T02:13:38.000000Z</creationTime>
          </creationInfo>
        </arrival>
        <arrival publicID="quakeml:service.scedc.caltech.edu/fdsnws/event/1/query?assocaro=266422845">
          <pickID>quakeml:service.scedc.caltech.edu/fdsnws/event/1/query?assocaro=266422845</pickID>
          <phase>S</phase>
          <timeCorrection>-0.21</timeCorrection>
          <azimuth>73.0</azimuth>
          <distance>0.171</distance>
          <takeoffAngle>
            <value>98.0</value>
          </takeoffAngle>
          <timeResidual>0.21</timeResidual>
          <timeWeight>0.06</timeWeight>
          <creationInfo>
            <agencyID>CI</agencyID>
            <creationTime>2025-01-16T02:13:38.000000Z</creationTime>
          </creationInfo>
        </arrival>
        <arrival publicID="quakeml:service.scedc.caltech.edu/fdsnws/event/1/query?assocaro=266422853">
          <pickID>quakeml:service.scedc.caltech.edu/fdsnws/event/1/query?assocaro=266422853</pickID>
          <phase>P</phase>
          <timeCorrection>-0.12</timeCorrection>
          <azimuth>199.0</azimuth>
          <distance>0.1921</distance>
          <takeoffAngle>
            <value>97.0</value>
          </takeoffAngle>
          <timeResidual>0.07</timeResidual>
          <timeWeight>0.22</timeWeight>
          <creationInfo>
            <agencyID>CI</agencyID>
            <creationTime>2025-01-16T02:13:38.000000Z</creationTime>
          </creationInfo>
        </arrival>
        <arrival publicID="quakeml:service.scedc.caltech.edu/fdsnws/event/1/query?assocaro=266422861">
          <pickID>quakeml:service.scedc.caltech.edu/fdsnws/event/1/query?assocaro=266422861</pickID>
          <phase>S</phase>
          <timeCorrection>-0.26</timeCorrection>
          <azimuth>199.0</azimuth>
          <distance>0.1921</distance>
          <takeoffAngle>
            <value>96.0</value>
          </takeoffAngle>
          <timeResidual>0.31</timeResidual>
          <timeWeight>0.06</timeWeight>
          <creationInfo>
            <agencyID>CI</agencyID>
            <creationTime>2025-01-16T02:13:38.000000Z</creationTime>
          </creationInfo>
        </arrival>
        <arrival publicID="quakeml:service.scedc.caltech.edu/fdsnws/event/1/query?assocaro=266422869">
          <pickID>quakeml:service.scedc.caltech.edu/fdsnws/event/1/query?assocaro=266422869</pickID>
          <phase>P</phase>
          <timeCorrection>-0.13</timeCorrection>
          <azimuth>256.0</azimuth>
          <distance>0.2075</distance>
          <takeoffAngle>
            <value>96.0</value>
          </takeoffAngle>
          <timeResidual>-0.02</timeResidual>
          <timeWeight>0.16</timeWeight>
          <creationInfo>
            <agencyID>CI</agencyID>
            <creationTime>2025-01-16T02:13:38.000000Z</creationTime>
          </creationInfo>
        </arrival>
        <arrival publicID="quakeml:service.scedc.caltech.edu/fdsnws/event/1/query?assocaro=266422877">
          <pickID>quakeml:service.scedc.caltech.edu/fdsnws/event/1/query?assocaro=266422877</pickID>
          <phase>S</phase>
          <timeCorrection>-0.32</timeCorrection>
          <azimuth>256.0</azimuth>
          <distance>0.2075</distance>
          <takeoffAngle>
            <value>96.0</value>
          </takeoffAngle>
          <timeResidual>0.55</timeResidual>
          <timeWeight>0.06</timeWeight>
          <creationInfo>
            <agencyID>CI</agencyID>
            <creationTime>2025-01-16T02:13:38.000000Z</creationTime>
          </creationInfo>
        </arrival>
        <arrival publicID="quakeml:service.scedc.caltech.edu/fdsnws/event/1/query?assocaro=266422885">
          <pickID>quakeml:service.scedc.caltech.edu/fdsnws/event/1/query?assocaro=266422885</pickID>
          <phase>P</phase>
          <timeCorrection>0.0</timeCorrection>
          <azimuth>26.0</azimuth>
          <distance>0.2367</distance>
          <takeoffAngle>
            <value>94.0</value>
          </takeoffAngle>
          <timeResidual>-0.11</timeResidual>
          <timeWeight>0.16</timeWeight>
          <creationInfo>
            <agencyID>CI</agencyID>
            <creationTime>2025-01-16T02:13:38.000000Z</creationTime>
          </creationInfo>
        </arrival>
        <arrival publicID="quakeml:service.scedc.caltech.edu/fdsnws/event/1/query?assocaro=266422893">
          <pickID>quakeml:service.scedc.caltech.edu/fdsnws/event/1/query?assocaro=266422893</pickID>
          <phase>S</phase>
          <timeCorrection>0.0</timeCorrection>
          <azimuth>26.0</azimuth>
          <distance>0.2367</distance>
          <takeoffAngle>
            <value>94.0</value>
          </takeoffAngle>
          <timeResidual>0.1</timeResidual>
          <timeWeight>0.06</timeWeight>
          <creationInfo>
            <agencyID>CI</agencyID>
            <creationTime>2025-01-16T02:13:38.000000Z</creationTime>
          </creationInfo>
        </arrival>
        <arrival publicID="quakeml:service.scedc.caltech.edu/fdsnws/event/1/query?assocaro=266422901">
          <pickID>quakeml:service.scedc.caltech.edu/fdsnws/event/1/query?assocaro=266422901</pickID>
          <phase>P</phase>
          <timeCorrection>0.0</timeCorrection>
          <azimuth>268.0</azimuth>
          <distance>0.2674</distance>
          <takeoffAngle>
            <value>93.0</value>
          </takeoffAngle>
          <timeResidual>-0.25</timeResidual>
          <timeWeight>0.11</timeWeight>
          <creationInfo>
            <agencyID>CI</agencyID>
            <creationTime>2025-01-16T02:13:38.000000Z</creationTime>
          </creationInfo>
        </arrival>
        <arrival publicID="quakeml:service.scedc.caltech.edu/fdsnws/event/1/query?assocaro=266422909">
          <pickID>quakeml:service.scedc.caltech.edu/fdsnws/event/1/query?assocaro=266422909</pickID>
          <phase>S</phase>
          <timeCorrection>0.0</timeCorrection>
          <azimuth>268.0</azimuth>
          <distance>0.2674</distance>
          <takeoffAngle>
            <value>93.0</value>
          </takeoffAngle>
          <timeResidual>-0.16</timeResidual>
          <timeWeight>0.06</timeWeight>
          <creationInfo>
            <agencyID>CI</agencyID>
            <creationTime>2025-01-16T02:13:38.000000Z</creationTime>
          </creationInfo>
        </arrival>
        <arrival publicID="quakeml:service.scedc.caltech.edu/fdsnws/event/1/query?assocaro=266422917">
          <pickID>quakeml:service.scedc.caltech.edu/fdsnws/event/1/query?assocaro=266422917</pickID>
          <phase>P</phase>
          <timeCorrection>-0.06</timeCorrection>
          <azimuth>91.0</azimuth>
          <distance>0.2705</distance>
          <takeoffAngle>
            <value>93.0</value>
          </takeoffAngle>
          <timeResidual>0.02</timeResidual>
          <timeWeight>0.11</timeWeight>
          <creationInfo>
            <agencyID>CI</agencyID>
            <creationTime>2025-01-16T02:13:38.000000Z</creationTime>
          </creationInfo>
        </arrival>
        <arrival publicID="quakeml:service.scedc.caltech.edu/fdsnws/event/1/query?assocaro=266422925">
          <pickID>quakeml:service.scedc.caltech.edu/fdsnws/event/1/query?assocaro=266422925</pickID>
          <phase>S</phase>
          <timeCorrection>-0.17</timeCorrection>
          <azimuth>91.0</azimuth>
          <distance>0.2705</distance>
          <takeoffAngle>
            <value>93.0</value>
          </takeoffAngle>
          <timeResidual>1.21</timeResidual>
          <timeWeight>0.01</timeWeight>
          <creationInfo>
            <agencyID>CI</agencyID>
            <creationTime>2025-01-16T02:13:38.000000Z</creationTime>
          </creationInfo>
        </arrival>
        <arrival publicID="quakeml:service.scedc.caltech.edu/fdsnws/event/1/query?assocaro=266422933">
          <pickID>quakeml:service.scedc.caltech.edu/fdsnws/event/1/query?assocaro=266422933</pickID>
          <phase>S</phase>
          <timeCorrection>0.55</timeCorrection>
          <azimuth>149.0</azimuth>
          <distance>0.2732</distance>
          <takeoffAngle>
            <value>93.0</value>
          </takeoffAngle>
          <timeResidual>1.06</timeResidual>
          <timeWeight>0.0</timeWeight>
          <creationInfo>
            <agencyID>CI</agencyID>
            <creationTime>2025-01-16T02:13:38.000000Z</creationTime>
          </creationInfo>
        </arrival>
        <arrival publicID="quakeml:service.scedc.caltech.edu/fdsnws/event/1/query?assocaro=266422941">
