<?xml version='1.0' encoding='utf-8'?>
<q:quakeml xmlns="http://quakeml.org/xmlns/bed/1.2" xmlns:q="http://quakeml.org/xmlns/quakeml/1.2" xmlns:ns0="http://anss.org/xmlns/catalog/0.1">
  <eventParameters publicID="smi:local/61e60cb8-12f8-4a98-bb2f-bfdd46931c7c">
    <event publicID="quakeml:service.scedc.caltech.edu/fdsnws/event/1/query?eventid=40831583" ns0:datasource="ci" ns0:dataid="ci40831583" ns0:eventsource="ci" ns0:eventid="40831583">
      <preferredOriginID>quakeml:service.scedc.caltech.edu/fdsnws/event/1/query?originid=105822437</preferredOriginID>
      <preferredMagnitudeID>quakeml:service.scedc.caltech.edu/fdsnws/event/1/query?magnitudeid=109287085</preferredMagnitudeID>
      <type>earthquake</type>
      <creationInfo>
        <agencyID>CI</agencyID>
        <agencyURI>quakeml:doi.org/10.7909/C3WD3xH1</agencyURI>
        <creationTime>2025-02-10T18:18:50.000000Z</creationTime>
        <version>9</version>
      </creationInfo>
      <origin publicID="quakeml:service.scedc.caltech.edu/fdsnws/event/1/query?originid=105822437" ns0:datasource="ci" ns0:dataid="ci40831583" ns0:eventsource="ci" ns0:eventid="40831583">
        <time>
          <value>2025-01-01T15:44:05.420000Z</value>
        </time>
        <latitude>
          <value>32.7673333</value>
        </latitude>
        <longitude>
          <value>-115.4348333</value>
        </longitude>
        <depth>
          <value>11990.0</value>
          <uncertainty>510.0</uncertainty>
        </depth>
        <depthType>from location</depthType>
        <timeFixed>false</timeFixed>
        <epicenterFixed>false</epicenterFixed>
        <methodID>smi:ci.anss.org/origin/HYP2000</methodID>
        <quality>
          <associatedPhaseCount>71</associatedPhaseCount>
          <usedPhaseCount>64</usedPhaseCount>
          <associatedStationCount>41</associatedStationCount>
          <usedStationCount>41</usedStationCount>
          <standardError>0.3</standardError>
          <azimuthalGap>35.0</azimuthalGap>
          <secondaryAzimuthalGap>391.0</secondaryAzimuthalGap>
          <minimumDistance>0.0392</minimumDistance>
          <maximumDistance>0.9279</maximumDistance>
          <medianDistance>0.4929</medianDistance>
        </quality>
        <type>hypocenter</type>
        <evaluationMode>manual</evaluationMode>
        <evaluationStatus>final</evaluationStatus>
        <creationInfo>
          <agencyID>CI</agencyID>
          <creationTime>2025-02-10T18:18:50.000000Z</creationTime>
        </creationInfo>
        <originUncertainty>
          <preferredDescription>horizontal uncertainty</preferredDescription>
          <horizontalUncertainty>330.0</horizontalUncertainty>
        </originUncertainty>
        <arrival publicID="quakeml:service.scedc.caltech.edu/fdsnws/event/1/query?assocaro=266190621">
          <pickID>quakeml:service.scedc.caltech.edu/fdsnws/event/1/query?assocaro=266190621</pickID>
          <phase>P</phase>
          <timeCorrection>0.37</timeCorrection>
          <azimuth>359.4</azimuth>
          <distance>0.09425</distance>
          <takeoffAngle>
            <value>135.0</value>
          </takeoffAngle>
          <timeResidual>-0.25</timeResidual>
          <timeWeight>0.24</timeWeight>
          <creationInfo>
            <agencyID>CI</agencyID>
            <creationTime>2025-02-10T18:18:50.000000Z</creationTime>
          </creationInfo>
        </arrival>
        <arrival publicID="quakeml:service.scedc.caltech.edu/fdsnws/event/1/query?assocaro=266190637">
          <pickID>quakeml:service.scedc.caltech.edu/fdsnws/event/1/query?assocaro=266190637</pickID>
          <phase>P</phase>
          <timeCorrection>0.4</timeCorrection>
          <azimuth>183.5</azimuth>
          <distance>0.1356</distance>
          <takeoffAngle>
            <value>123.0</value>
          </takeoffAngle>
          <timeResidual>-0.1</timeResidual>
          <timeWeight>0.24</timeWeight>
          <creationInfo>
            <agencyID>CI</agencyID>
            <creationTime>2025-02-10T18:18:50.000000Z</creationTime>
          </creationInfo>
        </arrival>
        <arrival publicID="quakeml:service.scedc.caltech.edu/fdsnws/event/1/query?assocaro=266190677">
          <pickID>quakeml:service.scedc.caltech.edu/fdsnws/event/1/query?assocaro=266190677</pickID>
          <phase>P</phase>
          <timeCorrection>0.27</timeCorrection>
          <azimuth>321.8</azimuth>
          <distance>0.1707</distance>
          <takeoffAngle>
            <value>116.0</value>
          </takeoffAngle>
          <timeResidual>0.2</timeResidual>
          <timeWeight>0.24</timeWeight>
          <creationInfo>
            <agencyID>CI</agencyID>
            <creationTime>2025-02-10T18:18:50.000000Z</creationTime>
          </creationInfo>
        </arrival>
        <arrival publicID="quakeml:service.scedc.caltech.edu/fdsnws/event/1/query?assocaro=266190709">
          <pickID>quakeml:service.scedc.caltech.edu/fdsnws/event/1/query?assocaro=266190709</pickID>
          <phase>P</phase>
          <timeCorrection>0.05</timeCorrection>
          <azimuth>244.4</azimuth>
          <distance>0.2725</distance>
          <takeoffAngle>
            <value>105.0</value>
          </takeoffAngle>
          <timeResidual>-0.17</timeResidual>
          <timeWeight>0.24</timeWeight>
          <creationInfo>
            <agencyID>CI</agencyID>
            <creationTime>2025-02-10T18:18:50.000000Z</creationTime>
          </creationInfo>
        </arrival>
        <arrival publicID="quakeml:service.scedc.caltech.edu/fdsnws/event/1/query?assocaro=266190717">
          <pickID>quakeml:service.scedc.caltech.edu/fdsnws/event/1/query?assocaro=266190717</pickID>
          <phase>S</phase>
          <timeCorrection>-0.06</timeCorrection>
          <azimuth>244.4</azimuth>
          <distance>0.2725</distance>
          <takeoffAngle>
            <value>105.0</value>
          </takeoffAngle>
          <timeResidual>0.19</timeResidual>
          <timeWeight>0.06</timeWeight>
          <creationInfo>
            <agencyID>CI</agencyID>
            <creationTime>2025-02-10T18:18:50.000000Z</creationTime>
          </creationInfo>
        </arrival>
        <arrival publicID="quakeml:service.scedc.caltech.edu/fdsnws/event/1/query?assocaro=266190725">
          <pickID>quakeml:service.scedc.caltech.edu/fdsnws/event/1/query?assocaro=266190725</pickID>
          <phase>P</phase>
          <timeCorrection>0.26</timeCorrection>
          <azimuth>69.8</azimuth>
          <distance>0.2792</distance>
          <takeoffAngle>
            <value>104.0</value>
          </takeoffAngle>
          <timeResidual>0.11</timeResidual>
          <timeWeight>0.24</timeWeight>
          <creationInfo>
            <agencyID>CI</agencyID>
            <creationTime>2025-02-10T18:18:50.000000Z</creationTime>
          </creationInfo>
        </arrival>
        <arrival publicID="quakeml:service.scedc.caltech.edu/fdsnws/event/1/query?assocaro=266190909">
          <pickID>quakeml:service.scedc.caltech.edu/fdsnws/event/1/query?assocaro=266190909</pickID>
          <phase>P</phase>
          <timeCorrection>-0.05</timeCorrection>
          <azimuth>345.0</azimuth>
          <distance>0.6557</distance>
          <takeoffAngle>
            <value>77.0</value>
          </takeoffAngle>
          <timeResidual>-0.34</timeResidual>
          <timeWeight>0.18</timeWeight>
          <creationInfo>
            <agencyID>CI</agencyID>
            <creationTime>2025-02-10T18:18:50.000000Z</creationTime>
          </creationInfo>
        </arrival>
        <arrival publicID="quakeml:service.scedc.caltech.edu/fdsnws/event/1/query?assocaro=266190949">
          <pickID>quakeml:service.scedc.caltech.edu/fdsnws/event/1/query?assocaro=266190949</pickID>
          <phase>P</phase>
          <timeCorrection>0.0</timeCorrection>
          <azimuth>197.0</azimuth>
          <distance>0.7922</distance>
          <takeoffAngle>
            <value>77.0</value>
          </takeoffAngle>
          <timeResidual>-0.12</timeResidual>
          <timeWeight>0.11</timeWeight>
          <creationInfo>
            <agencyID>CI</agencyID>
            <creationTime>2025-02-10T18:18:50.000000Z</creationTime>
          </creationInfo>
        </arrival>
        <arrival publicID="quakeml:service.scedc.caltech.edu/fdsnws/event/1/query?assocaro=266190981">
          <pickID>quakeml:service.scedc.caltech.edu/fdsnws/event/1/query?assocaro=266190981</pickID>
          <phase>P</phase>
          <timeCorrection>0.07</timeCorrection>
          <azimuth>302.0</azimuth>
          <distance>0.8087</distance>
          <takeoffAngle>
            <value>77.0</value>
          </takeoffAngle>
          <timeResidual>-0.53</timeResidual>
          <timeWeight>0.11</timeWeight>
          <creationInfo>
            <agencyID>CI</agencyID>
            <creationTime>2025-02-10T18:18:50.000000Z</creationTime>
          </creationInfo>
        </arrival>
        <arrival publicID="quakeml:service.scedc.caltech.edu/fdsnws/event/1/query?assocaro=266191021">
          <pickID>quakeml:service.scedc.caltech.edu/fdsnws/event/1/query?assocaro=266191021</pickID>
          <phase>S</phase>
          <timeCorrection>-0.06</timeCorrection>
          <azimuth>359.0</azimuth>
          <distance>0.8856</distance>
          <takeoffAngle>
            <value>77.0</value>
          </takeoffAngle>
          <timeResidual>-0.05</timeResidual>
          <timeWeight>0.05</timeWeight>
          <creationInfo>
            <agencyID>CI</agencyID>
            <creationTime>2025-02-10T18:18:50.000000Z</creationTime>
          </creationInfo>
        </arrival>
        <arrival publicID="quakeml:service.scedc.caltech.edu/fdsnws/event/1/query?assocaro=266952109">
          <pickID>quakeml:service.scedc.caltech.edu/fdsnws/event/1/query?assocaro=266952109</pickID>
          <phase>P</phase>
          <timeCorrection>0.49</timeCorrection>
          <azimuth>345.2</azimuth>
          <distance>0.0392</distance>
          <takeoffAngle>
            <value>158.0</value>
          </takeoffAngle>
          <timeResidual>-0.54</timeResidual>
          <timeWeight>0.18</timeWeight>
          <creationInfo>
            <agencyID>CI</agencyID>
            <creationTime>2025-02-10T18:18:50.000000Z</creationTime>
          </creationInfo>
        </arrival>
        <arrival publicID="quakeml:service.scedc.caltech.edu/fdsnws/event/1/query?assocaro=266952117">
          <pickID>quakeml:service.scedc.caltech.edu/fdsnws/event/1/query?assocaro=266952117</pickID>
          <phase>S</phase>
          <timeCorrection>1.03</timeCorrection>
          <azimuth>345.2</azimuth>
          <distance>0.0392</distance>
          <takeoffAngle>
            <value>158.0</value>
          </takeoffAngle>
          <timeResidual>0.05</timeResidual>
          <timeWeight>0.06</timeWeight>
          <creationInfo>
            <agencyID>CI</agencyID>
            <creationTime>2025-02-10T18:18:50.000000Z</creationTime>
          </creationInfo>
        </arrival>
        <arrival publicID="quakeml:service.scedc.caltech.edu/fdsnws/event/1/query?assocaro=266952125">
          <pickID>quakeml:service.scedc.caltech.edu/fdsnws/event/1/query?assocaro=266952125</pickID>
          <phase>S</phase>
          <timeCorrection>0.69</timeCorrection>
          <azimuth>359.4</azimuth>
          <distance>0.09425</distance>
          <takeoffAngle>
            <value>135.0</value>
          </takeoffAngle>
          <timeResidual>0.61</timeResidual>
          <timeWeight>0.02</timeWeight>
          <creationInfo>
            <agencyID>CI</agencyID>
            <creationTime>2025-02-10T18:18:50.000000Z</creationTime>
          </creationInfo>
        </arrival>
        <arrival publicID="quakeml:service.scedc.caltech.edu/fdsnws/event/1/query?assocaro=266952133">
          <pickID>quakeml:service.scedc.caltech.edu/fdsnws/event/1/query?assocaro=266952133</pickID>
          <phase>P</phase>
          <timeCorrection>0.0</timeCorrection>
          <azimuth>263.4</azimuth>
          <distance>0.136</distance>
          <takeoffAngle>
            <value>123.0</value>
          </takeoffAngle>
          <timeResidual>0.41</timeResidual>
          <timeWeight>0.18</timeWeight>
          <creationInfo>
            <agencyID>CI</agencyID>
            <creationTime>2025-02-10T18:18:50.000000Z</creationTime>
          </creationInfo>
        </arrival>
        <arrival publicID="quakeml:service.scedc.caltech.edu/fdsnws/event/1/query?assocaro=266952141">
          <pickID>quakeml:service.scedc.caltech.edu/fdsnws/event/1/query?assocaro=266952141</pickID>
          <phase>S</phase>
          <timeCorrection>0.0</timeCorrection>
          <azimuth>263.4</azimuth>
          <distance>0.136</distance>
          <takeoffAngle>
            <value>123.0</value>
          </takeoffAngle>
          <timeResidual>1.62</timeResidual>
          <timeWeight>0.0</timeWeight>
          <creationInfo>
            <agencyID>CI</agencyID>
            <creationTime>2025-02-10T18:18:50.000000Z</creationTime>
          </creationInfo>
        </arrival>
        <arrival publicID="quakeml:service.scedc.caltech.edu/fdsnws/event/1/query?assocaro=266952149">
          <pickID>quakeml:service.scedc.caltech.edu/fdsnws/event/1/query?assocaro=266952149</pickID>
          <phase>S</phase>
          <timeCorrection>0.79</timeCorrection>
          <azimuth>183.5</azimuth>
          <distance>0.1356</distance>
          <takeoffAngle>
            <value>123.0</value>
          </takeoffAngle>
          <timeResidual>0.56</timeResidual>
          <timeWeight>0.02</timeWeight>
          <creationInfo>
            <agencyID>CI</agencyID>
            <creationTime>2025-02-10T18:18:50.000000Z</creationTime>
          </creationInfo>
        </arrival>
        <arrival publicID="quakeml:service.scedc.caltech.edu/fdsnws/event/1/query?assocaro=266952157">
          <pickID>quakeml:service.scedc.caltech.edu/fdsnws/event/1/query?assocaro=266952157</pickID>
          <phase>P</phase>
          <timeCorrection>0.0</timeCorrection>
          <azimuth>269.3</azimuth>
          <distance>0.1568</distance>
          <takeoffAngle>
            <value>119.0</value>
          </takeoffAngle>
          <timeResidual>0.57</timeResidual>
          <timeWeight>0.11</timeWeight>
          <creationInfo>
            <agencyID>CI</agencyID>
            <creationTime>2025-02-10T18:18:50.000000Z</creationTime>
          </creationInfo>
        </arrival>
        <arrival publicID="quakeml:service.scedc.caltech.edu/fdsnws/event/1/query?assocaro=266952165">
          <pickID>quakeml:service.scedc.caltech.edu/fdsnws/event/1/query?assocaro=266952165</pickID>
          <phase>S</phase>
          <timeCorrection>0.6</timeCorrection>
          <azimuth>321.8</azimuth>
          <distance>0.1707</distance>
          <takeoffAngle>
            <value>116.0</value>
          </takeoffAngle>
          <timeResidual>1.0</timeResidual>
          <timeWeight>0.0</timeWeight>
          <creationInfo>
            <agencyID>CI</agencyID>
            <creationTime>2025-02-10T18:18:50.000000Z</creationTime>
          </creationInfo>
        </arrival>
        <arrival publicID="quakeml:service.scedc.caltech.edu/fdsnws/event/1/query?assocaro=266952173">
          <pickID>quakeml:service.scedc.caltech.edu/fdsnws/event/1/query?assocaro=266952173</pickID>
          <phase>P</phase>
          <timeCorrection>0.33</timeCorrection>
          <azimuth>288.7</azimuth>
          <distance>0.2608</distance>
          <takeoffAngle>
            <value>106.0</value>
          </takeoffAngle>
          <timeResidual>0.04</timeResidual>
          <timeWeight>0.18</timeWeight>
          <creationInfo>
            <agencyID>CI</agencyID>
            <creationTime>2025-02-10T18:18:50.000000Z</creationTime>
          </creationInfo>
        </arrival>
        <arrival publicID="quakeml:service.scedc.caltech.edu/fdsnws/event/1/query?assocaro=266952181">
          <pickID>quakeml:service.scedc.caltech.edu/fdsnws/event/1/query?assocaro=266952181</pickID>
          <phase>P</phase>
          <timeCorrection>0.0</timeCorrection>
          <azimuth>208.3</azimuth>
          <distance>0.2602</distance>
          <takeoffAngle>
            <value>106.0</value>
          </takeoffAngle>
          <timeResidual>-0.13</timeResidual>
          <timeWeight>0.12</timeWeight>
          <creationInfo>
            <agencyID>CI</agencyID>
            <creationTime>2025-02-10T18:18:50.000000Z</creationTime>
          </creationInfo>
        </arrival>
        <arrival publicID="quakeml:service.scedc.caltech.edu/fdsnws/event/1/query?assocaro=266952189">
          <pickID>quakeml:service.scedc.caltech.edu/fdsnws/event/1/query?assocaro=266952189</pickID>
          <phase>S</phase>
          <timeCorrection>0.0</timeCorrection>
          <azimuth>208.3</azimuth>
          <distance>0.2602</distance>
          <takeoffAngle>
            <value>106.0</value>
          </takeoffAngle>
          <timeResidual>0.16</timeResidual>
          <timeWeight>0.06</timeWeight>
          <creationInfo>
            <agencyID>CI</agencyID>
            <creationTime>2025-02-10T18:18:50.000000Z</creationTime>
          </creationInfo>
        </arrival>
        <arrival publicID="quakeml:service.scedc.caltech.edu/fdsnws/event/1/query?assocaro=266952197">
          <pickID>quakeml:service.scedc.caltech.edu/fdsnws/event/1/query?assocaro=266952197</pickID>
          <phase>P</phase>
          <timeCorrection>0.33</timeCorrection>
          <azimuth>335.5</azimuth>
          <distance>0.2972</distance>
          <takeoffAngle>
            <value>103.0</value>
          </takeoffAngle>
          <timeResidual>0.26</timeResidual>
          <timeWeight>0.18</timeWeight>
          <creationInfo>
            <agencyID>CI</agencyID>
            <creationTime>2025-02-10T18:18:50.000000Z</creationTime>
          </creationInfo>
        </arrival>
        <arrival publicID="quakeml:service.scedc.caltech.edu/fdsnws/event/1/query?assocaro=266952205">
          <pickID>quakeml:service.scedc.caltech.edu/fdsnws/event/1/query?assocaro=266952205</pickID>
          <phase>S</phase>
          <timeCorrection>0.0</timeCorrection>
          <azimuth>335.5</azimuth>
          <distance>0.2972</distance>
          <takeoffAngle>
            <value>103.0</value>
          </takeoffAngle>
          <timeResidual>1.96</timeResidual>
          <timeWeight>0.0</timeWeight>
          <creationInfo>
            <agencyID>CI</agencyID>
            <creationTime>2025-02-10T18:18:50.000000Z</creationTime>
          </creationInfo>
        </arrival>
        <arrival publicID="quakeml:service.scedc.caltech.edu/fdsnws/event/1/query?assocaro=266952213">
          <pickID>quakeml:service.scedc.caltech.edu/fdsnws/event/1/query?assocaro=266952213</pickID>
          <phase>P</phase>
          <timeCorrection>0.37</timeCorrection>
          <azimuth>346.3</azimuth>
          <distance>0.3391</distance>
          <takeoffAngle>
            <value>77.0</value>
          </takeoffAngle>
          <timeResidual>0.12</timeResidual>
          <timeWeight>0.12</timeWeight>
          <creationInfo>
            <agencyID>CI</agencyID>
            <creationTime>2025-02-10T18:18:50.000000Z</creationTime>
          </creationInfo>
        </arrival>
        <arrival publicID="quakeml:service.scedc.caltech.edu/fdsnws/event/1/query?assocaro=266952221">
          <pickID>quakeml:service.scedc.caltech.edu/fdsnws/event/1/query?assocaro=266952221</pickID>
          <phase>S</phase>
          <timeCorrection>0.78</timeCorrection>
          <azimuth>346.3</azimuth>
          <distance>0.3391</distance>
          <takeoffAngle>
            <value>77.0</value>
          </takeoffAngle>
          <timeResidual>1.03</timeResidual>
          <timeWeight>0.0</timeWeight>
          <creationInfo>
            <agencyID>CI</agencyID>
