<?xml version='1.0' encoding='utf-8'?>
<q:quakeml xmlns="http://quakeml.org/xmlns/bed/1.2" xmlns:q="http://quakeml.org/xmlns/quakeml/1.2" xmlns:ns0="http://anss.org/xmlns/catalog/0.1">
  <eventParameters publicID="smi:local/f43c77d7-67ae-48c9-b567-af4fba19f100">
    <event publicID="quakeml:service.scedc.caltech.edu/fdsnws/event/1/query?eventid=40831415" ns0:datasource="ci" ns0:dataid="ci40831415" ns0:eventsource="ci" ns0:eventid="40831415">
      <preferredOriginID>quakeml:service.scedc.caltech.edu/fdsnws/event/1/query?originid=108872852</preferredOriginID>
      <preferredMagnitudeID>quakeml:service.scedc.caltech.edu/fdsnws/event/1/query?magnitudeid=111258732</preferredMagnitudeID>
      <type>earthquake</type>
      <creationInfo>
        <agencyID>CI</agencyID>
        <agencyURI>quakeml:doi.org/10.7909/C3WD3xH1</agencyURI>
        <creationTime>2025-01-06T17:16:33.000000Z</creationTime>
        <version>8</version>
      </creationInfo>
      <origin publicID="quakeml:service.scedc.caltech.edu/fdsnws/event/1/query?originid=108872852" ns0:datasource="ci" ns0:dataid="ci40831415" ns0:eventsource="ci" ns0:eventid="40831415">
        <time>
          <value>2025-01-01T14:07:45.770000Z</value>
        </time>
        <latitude>
          <value>33.3358333</value>
        </latitude>
        <longitude>
          <value>-117.9433333</value>
        </longitude>
        <depth>
          <value>7540.0</value>
          <uncertainty>1240.0</uncertainty>
        </depth>
        <depthType>from location</depthType>
        <timeFixed>false</timeFixed>
        <epicenterFixed>false</epicenterFixed>
        <methodID>smi:ci.anss.org/origin/HYP2000</methodID>
        <quality>
          <associatedPhaseCount>111</associatedPhaseCount>
          <usedPhaseCount>107</usedPhaseCount>
          <associatedStationCount>64</associatedStationCount>
          <usedStationCount>62</usedStationCount>
          <standardError>0.25</standardError>
          <azimuthalGap>108.0</azimuthalGap>
          <secondaryAzimuthalGap>372.0</secondaryAzimuthalGap>
          <minimumDistance>0.2663</minimumDistance>
          <maximumDistance>0.921</maximumDistance>
          <medianDistance>0.6855</medianDistance>
        </quality>
        <type>hypocenter</type>
        <evaluationMode>manual</evaluationMode>
        <evaluationStatus>final</evaluationStatus>
        <creationInfo>
          <agencyID>CI</agencyID>
          <creationTime>2025-01-06T17:16:33.000000Z</creationTime>
        </creationInfo>
        <originUncertainty>
          <preferredDescription>confidence ellipsoid</preferredDescription>
          <horizontalUncertainty>280.0</horizontalUncertainty>
          <confidenceLevel>95.0</confidenceLevel>
          <confidenceEllipsoid>
            <semiMajorAxisLength>2976.0</semiMajorAxisLength>
            <semiMinorAxisLength>480.0</semiMinorAxisLength>
            <semiIntermediateAxisLength>672.0</semiIntermediateAxisLength>
            <majorAxisPlunge>88.0</majorAxisPlunge>
            <majorAxisAzimuth>265.0</majorAxisAzimuth>
            <majorAxisRotation>285.0</majorAxisRotation>
          </confidenceEllipsoid>
        </originUncertainty>
        <arrival publicID="quakeml:service.scedc.caltech.edu/fdsnws/event/1/query?assocaro=144447055">
          <pickID>quakeml:service.scedc.caltech.edu/fdsnws/event/1/query?assocaro=144447055</pickID>
          <phase>S</phase>
          <timeCorrection>-0.36</timeCorrection>
          <azimuth>67.3</azimuth>
          <distance>0.921</distance>
          <takeoffAngle>
            <value>73.0</value>
          </takeoffAngle>
          <timeResidual>0.39</timeResidual>
          <timeWeight>0.08</timeWeight>
          <creationInfo>
            <agencyID>CI</agencyID>
            <creationTime>2025-01-06T17:16:33.000000Z</creationTime>
          </creationInfo>
        </arrival>
        <arrival publicID="quakeml:service.scedc.caltech.edu/fdsnws/event/1/query?assocaro=144447063">
          <pickID>quakeml:service.scedc.caltech.edu/fdsnws/event/1/query?assocaro=144447063</pickID>
          <phase>P</phase>
          <timeCorrection>-0.12</timeCorrection>
          <azimuth>67.3</azimuth>
          <distance>0.921</distance>
          <takeoffAngle>
            <value>73.0</value>
          </takeoffAngle>
          <timeResidual>-0.12</timeResidual>
          <timeWeight>0.2</timeWeight>
          <creationInfo>
            <agencyID>CI</agencyID>
            <creationTime>2025-01-06T17:16:33.000000Z</creationTime>
          </creationInfo>
        </arrival>
        <arrival publicID="quakeml:service.scedc.caltech.edu/fdsnws/event/1/query?assocaro=266182365">
          <pickID>quakeml:service.scedc.caltech.edu/fdsnws/event/1/query?assocaro=266182365</pickID>
          <phase>S</phase>
          <timeCorrection>-0.03</timeCorrection>
          <azimuth>11.6</azimuth>
          <distance>0.2663</distance>
          <takeoffAngle>
            <value>95.0</value>
          </takeoffAngle>
          <timeResidual>-0.3</timeResidual>
          <timeWeight>0.07</timeWeight>
          <creationInfo>
            <agencyID>CI</agencyID>
            <creationTime>2025-01-06T17:16:33.000000Z</creationTime>
          </creationInfo>
        </arrival>
        <arrival publicID="quakeml:service.scedc.caltech.edu/fdsnws/event/1/query?assocaro=266182405">
          <pickID>quakeml:service.scedc.caltech.edu/fdsnws/event/1/query?assocaro=266182405</pickID>
          <phase>P</phase>
          <timeCorrection>0.0</timeCorrection>
          <azimuth>80.2</azimuth>
          <distance>0.3083</distance>
          <takeoffAngle>
            <value>94.0</value>
          </takeoffAngle>
          <timeResidual>0.58</timeResidual>
          <timeWeight>0.19</timeWeight>
          <creationInfo>
            <agencyID>CI</agencyID>
            <creationTime>2025-01-06T17:16:33.000000Z</creationTime>
          </creationInfo>
        </arrival>
        <arrival publicID="quakeml:service.scedc.caltech.edu/fdsnws/event/1/query?assocaro=266182421">
          <pickID>quakeml:service.scedc.caltech.edu/fdsnws/event/1/query?assocaro=266182421</pickID>
          <phase>P</phase>
          <timeCorrection>0.22</timeCorrection>
          <azimuth>47.2</azimuth>
          <distance>0.3197</distance>
          <takeoffAngle>
            <value>79.0</value>
          </takeoffAngle>
          <timeResidual>0.21</timeResidual>
          <timeWeight>0.27</timeWeight>
          <creationInfo>
            <agencyID>CI</agencyID>
            <creationTime>2025-01-06T17:16:33.000000Z</creationTime>
          </creationInfo>
        </arrival>
        <arrival publicID="quakeml:service.scedc.caltech.edu/fdsnws/event/1/query?assocaro=266182437">
          <pickID>quakeml:service.scedc.caltech.edu/fdsnws/event/1/query?assocaro=266182437</pickID>
          <phase>P</phase>
          <timeCorrection>0.0</timeCorrection>
          <azimuth>269.6</azimuth>
          <distance>0.3283</distance>
          <takeoffAngle>
            <value>79.0</value>
          </takeoffAngle>
          <timeResidual>-0.13</timeResidual>
          <timeWeight>0.27</timeWeight>
          <creationInfo>
            <agencyID>CI</agencyID>
            <creationTime>2025-01-06T17:16:33.000000Z</creationTime>
          </creationInfo>
        </arrival>
        <arrival publicID="quakeml:service.scedc.caltech.edu/fdsnws/event/1/query?assocaro=266182573">
          <pickID>quakeml:service.scedc.caltech.edu/fdsnws/event/1/query?assocaro=266182573</pickID>
          <phase>P</phase>
          <timeCorrection>-0.01</timeCorrection>
          <azimuth>322.3</azimuth>
          <distance>0.4764</distance>
          <takeoffAngle>
            <value>79.0</value>
          </takeoffAngle>
          <timeResidual>-0.38</timeResidual>
          <timeWeight>0.13</timeWeight>
          <creationInfo>
            <agencyID>CI</agencyID>
            <creationTime>2025-01-06T17:16:33.000000Z</creationTime>
          </creationInfo>
        </arrival>
        <arrival publicID="quakeml:service.scedc.caltech.edu/fdsnws/event/1/query?assocaro=266182613">
          <pickID>quakeml:service.scedc.caltech.edu/fdsnws/event/1/query?assocaro=266182613</pickID>
          <phase>P</phase>
          <timeCorrection>-0.02</timeCorrection>
          <azimuth>321.2</azimuth>
          <distance>0.5195</distance>
          <takeoffAngle>
            <value>79.0</value>
          </takeoffAngle>
          <timeResidual>-0.3</timeResidual>
          <timeWeight>0.13</timeWeight>
          <creationInfo>
            <agencyID>CI</agencyID>
            <creationTime>2025-01-06T17:16:33.000000Z</creationTime>
          </creationInfo>
        </arrival>
        <arrival publicID="quakeml:service.scedc.caltech.edu/fdsnws/event/1/query?assocaro=266182709">
          <pickID>quakeml:service.scedc.caltech.edu/fdsnws/event/1/query?assocaro=266182709</pickID>
          <phase>S</phase>
          <timeCorrection>0.0</timeCorrection>
          <azimuth>20.5</azimuth>
          <distance>0.6131</distance>
          <takeoffAngle>
            <value>79.0</value>
          </takeoffAngle>
          <timeResidual>0.87</timeResidual>
          <timeWeight>0.03</timeWeight>
          <creationInfo>
            <agencyID>CI</agencyID>
            <creationTime>2025-01-06T17:16:33.000000Z</creationTime>
          </creationInfo>
        </arrival>
        <arrival publicID="quakeml:service.scedc.caltech.edu/fdsnws/event/1/query?assocaro=266182741">
          <pickID>quakeml:service.scedc.caltech.edu/fdsnws/event/1/query?assocaro=266182741</pickID>
          <phase>S</phase>
          <timeCorrection>0.0</timeCorrection>
          <azimuth>56.5</azimuth>
          <distance>0.6168</distance>
          <takeoffAngle>
            <value>79.0</value>
          </takeoffAngle>
          <timeResidual>0.12</timeResidual>
          <timeWeight>0.07</timeWeight>
          <creationInfo>
            <agencyID>CI</agencyID>
            <creationTime>2025-01-06T17:16:33.000000Z</creationTime>
          </creationInfo>
        </arrival>
        <arrival publicID="quakeml:service.scedc.caltech.edu/fdsnws/event/1/query?assocaro=266182757">
          <pickID>quakeml:service.scedc.caltech.edu/fdsnws/event/1/query?assocaro=266182757</pickID>
          <phase>P</phase>
          <timeCorrection>-0.15</timeCorrection>
          <azimuth>106.8</azimuth>
          <distance>0.6254</distance>
          <takeoffAngle>
            <value>79.0</value>
          </takeoffAngle>
          <timeResidual>0.18</timeResidual>
          <timeWeight>0.2</timeWeight>
          <creationInfo>
            <agencyID>CI</agencyID>
            <creationTime>2025-01-06T17:16:33.000000Z</creationTime>
          </creationInfo>
        </arrival>
        <arrival publicID="quakeml:service.scedc.caltech.edu/fdsnws/event/1/query?assocaro=266182773">
          <pickID>quakeml:service.scedc.caltech.edu/fdsnws/event/1/query?assocaro=266182773</pickID>
          <phase>P</phase>
          <timeCorrection>-0.16</timeCorrection>
          <azimuth>40.6</azimuth>
          <distance>0.6355</distance>
          <takeoffAngle>
            <value>79.0</value>
          </takeoffAngle>
          <timeResidual>-0.06</timeResidual>
          <timeWeight>0.2</timeWeight>
          <creationInfo>
            <agencyID>CI</agencyID>
            <creationTime>2025-01-06T17:16:33.000000Z</creationTime>
          </creationInfo>
        </arrival>
        <arrival publicID="quakeml:service.scedc.caltech.edu/fdsnws/event/1/query?assocaro=266182909">
          <pickID>quakeml:service.scedc.caltech.edu/fdsnws/event/1/query?assocaro=266182909</pickID>
          <phase>P</phase>
          <timeCorrection>0.12</timeCorrection>
          <azimuth>75.7</azimuth>
          <distance>0.6925</distance>
          <takeoffAngle>
            <value>79.0</value>
          </takeoffAngle>
          <timeResidual>-0.06</timeResidual>
          <timeWeight>0.13</timeWeight>
          <creationInfo>
            <agencyID>CI</agencyID>
            <creationTime>2025-01-06T17:16:33.000000Z</creationTime>
          </creationInfo>
        </arrival>
        <arrival publicID="quakeml:service.scedc.caltech.edu/fdsnws/event/1/query?assocaro=266183165">
          <pickID>quakeml:service.scedc.caltech.edu/fdsnws/event/1/query?assocaro=266183165</pickID>
          <phase>P</phase>
          <timeCorrection>-0.13</timeCorrection>
          <azimuth>35.5</azimuth>
          <distance>0.8091</distance>
          <takeoffAngle>
            <value>79.0</value>
          </takeoffAngle>
          <timeResidual>-0.21</timeResidual>
          <timeWeight>0.13</timeWeight>
          <creationInfo>
            <agencyID>CI</agencyID>
            <creationTime>2025-01-06T17:16:33.000000Z</creationTime>
          </creationInfo>
        </arrival>
        <arrival publicID="quakeml:service.scedc.caltech.edu/fdsnws/event/1/query?assocaro=266183277">
          <pickID>quakeml:service.scedc.caltech.edu/fdsnws/event/1/query?assocaro=266183277</pickID>
          <phase>P</phase>
          <timeCorrection>-0.17</timeCorrection>
          <azimuth>67.8</azimuth>
          <distance>0.8409</distance>
          <takeoffAngle>
            <value>73.0</value>
          </takeoffAngle>
          <timeResidual>-0.14</timeResidual>
          <timeWeight>0.18</timeWeight>
          <creationInfo>
            <agencyID>CI</agencyID>
            <creationTime>2025-01-06T17:16:33.000000Z</creationTime>
          </creationInfo>
        </arrival>
        <arrival publicID="quakeml:service.scedc.caltech.edu/fdsnws/event/1/query?assocaro=266183317">
          <pickID>quakeml:service.scedc.caltech.edu/fdsnws/event/1/query?assocaro=266183317</pickID>
          <phase>P</phase>
          <timeCorrection>-0.16</timeCorrection>
          <azimuth>346.5</azimuth>
          <distance>0.8574</distance>
          <takeoffAngle>
            <value>73.0</value>
          </takeoffAngle>
          <timeResidual>0.3</timeResidual>
          <timeWeight>0.12</timeWeight>
          <creationInfo>
            <agencyID>CI</agencyID>
            <creationTime>2025-01-06T17:16:33.000000Z</creationTime>
          </creationInfo>
        </arrival>
        <arrival publicID="quakeml:service.scedc.caltech.edu/fdsnws/event/1/query?assocaro=266183405">
          <pickID>quakeml:service.scedc.caltech.edu/fdsnws/event/1/query?assocaro=266183405</pickID>
          <phase>S</phase>
          <timeCorrection>-0.18</timeCorrection>
          <azimuth>353.9</azimuth>
          <distance>0.8907</distance>
          <takeoffAngle>
            <value>73.0</value>
          </takeoffAngle>
          <timeResidual>1.62</timeResidual>
          <timeWeight>0.0</timeWeight>
          <creationInfo>
            <agencyID>CI</agencyID>
            <creationTime>2025-01-06T17:16:33.000000Z</creationTime>
          </creationInfo>
        </arrival>
        <arrival publicID="quakeml:service.scedc.caltech.edu/fdsnws/event/1/query?assocaro=424243876">
          <pickID>quakeml:service.scedc.caltech.edu/fdsnws/event/1/query?assocaro=424243876</pickID>
          <phase>P</phase>
          <timeCorrection>0.05</timeCorrection>
          <azimuth>11.6</azimuth>
          <distance>0.2663</distance>
          <takeoffAngle>
            <value>95.0</value>
          </takeoffAngle>
          <timeResidual>-0.35</timeResidual>
          <timeWeight>0.2</timeWeight>
          <creationInfo>
            <agencyID>CI</agencyID>
            <creationTime>2025-01-06T17:16:33.000000Z</creationTime>
          </creationInfo>
        </arrival>
        <arrival publicID="quakeml:service.scedc.caltech.edu/fdsnws/event/1/query?assocaro=424243884">
          <pickID>quakeml:service.scedc.caltech.edu/fdsnws/event/1/query?assocaro=424243884</pickID>
          <phase>P</phase>
          <timeCorrection>-0.08</timeCorrection>
          <azimuth>56.8</azimuth>
          <distance>0.2736</distance>
          <takeoffAngle>
            <value>95.0</value>
          </takeoffAngle>
          <timeResidual>0.1</timeResidual>
          <timeWeight>0.13</timeWeight>
          <creationInfo>
            <agencyID>CI</agencyID>
            <creationTime>2025-01-06T17:16:33.000000Z</creationTime>
          </creationInfo>
        </arrival>
        <arrival publicID="quakeml:service.scedc.caltech.edu/fdsnws/event/1/query?assocaro=424243892">
          <pickID>quakeml:service.scedc.caltech.edu/fdsnws/event/1/query?assocaro=424243892</pickID>
          <phase>P</phase>
          <timeCorrection>0.0</timeCorrection>
          <azimuth>32.4</azimuth>
          <distance>0.2807</distance>
          <takeoffAngle>
            <value>94.0</value>
          </takeoffAngle>
          <timeResidual>0.05</timeResidual>
          <timeWeight>0.13</timeWeight>
          <creationInfo>
            <agencyID>CI</agencyID>
            <creationTime>2025-01-06T17:16:33.000000Z</creationTime>
          </creationInfo>
        </arrival>
        <arrival publicID="quakeml:service.scedc.caltech.edu/fdsnws/event/1/query?assocaro=424243900">
          <pickID>quakeml:service.scedc.caltech.edu/fdsnws/event/1/query?assocaro=424243900</pickID>
          <phase>S</phase>
          <timeCorrection>0.0</timeCorrection>
          <azimuth>32.4</azimuth>
          <distance>0.2807</distance>
          <takeoffAngle>
            <value>94.0</value>
          </takeoffAngle>
          <timeResidual>-0.04</timeResidual>
          <timeWeight>0.07</timeWeight>
          <creationInfo>
            <agencyID>CI</agencyID>
            <creationTime>2025-01-06T17:16:33.000000Z</creationTime>
          </creationInfo>
        </arrival>
        <arrival publicID="quakeml:service.scedc.caltech.edu/fdsnws/event/1/query?assocaro=424243908">
          <pickID>quakeml:service.scedc.caltech.edu/fdsnws/event/1/query?assocaro=424243908</pickID>
          <phase>S</phase>
          <timeCorrection>0.0</timeCorrection>
          <azimuth>80.2</azimuth>
          <distance>0.3083</distance>
          <takeoffAngle>
            <value>94.0</value>
          </takeoffAngle>
          <timeResidual>0.96</timeResidual>
          <timeWeight>0.02</timeWeight>
          <creationInfo>
            <agencyID>CI</agencyID>
            <creationTime>2025-01-06T17:16:33.000000Z</creationTime>
          </creationInfo>
        </arrival>
        <arrival publicID="quakeml:service.scedc.caltech.edu/fdsnws/event/1/query?assocaro=424243916">
          <pickID>quakeml:service.scedc.caltech.edu/fdsnws/event/1/query?assocaro=424243916</pickID>
          <phase>S</phase>
          <timeCorrection>0.41</timeCorrection>
          <azimuth>47.2</azimuth>
          <distance>0.3197</distance>
          <takeoffAngle>
            <value>79.0</value>
          </takeoffAngle>
          <timeResidual>0.43</timeResidual>
          <timeWeight>0.06</timeWeight>
          <creationInfo>
            <agencyID>CI</agencyID>
            <creationTime>2025-01-06T17:16:33.000000Z</creationTime>
          </creationInfo>
        </arrival>
        <arrival publicID="quakeml:service.scedc.caltech.edu/fdsnws/event/1/query?assocaro=424243924">
          <pickID>quakeml:service.scedc.caltech.edu/fdsnws/event/1/query?assocaro=424243924</pickID>
          <phase>S</phase>
          <timeCorrection>0.0</timeCorrection>
          <azimuth>269.6</azimuth>
          <distance>0.3283</distance>
          <takeoffAngle>
            <value>79.0</value>
          </takeoffAngle>
          <timeResidual>0.02</timeResidual>
          <timeWeight>0.07</timeWeight>
          <creationInfo>
            <agencyID>CI</agencyID>
            <creationTime>2025-01-06T17:16:33.000000Z</creationTime>
          </creationInfo>
        </arrival>
        <arrival publicID="quakeml:service.scedc.caltech.edu/fdsnws/event/1/query?assocaro=424243932">
